{"name":"Oum El Bouaghi","wilayacode":"4","communes":[{"postalcode":"04001","name":"Oum El Bouaghi"},{"postalcode":"04002","name":"Ain Beida"},{"postalcode":"04003","name":"Ainmlila"},{"postalcode":"04004","name":"Behir Chergui"},{"postalcode":"04005","name":"El Amiria"},{"postalcode":"04006","name":"Sigus"},{"postalcode":"04007","name":"El Belala"},{"postalcode":"04008","name":"Ain Babouche"},{"postalcode":"04009","name":"Berriche"},{"postalcode":"04010","name":"Ouled Hamla"},{"postalcode":"04011","name":"Dhala"},{"postalcode":"04012","name":"Ain Kercha"},{"postalcode":"04013","name":"Hanchir Toumghani"},{"postalcode":"04014","name":"El Djazia"},{"postalcode":"04015","name":"Ain Diss"},{"postalcode":"04016","name":"Fkirina"},{"postalcode":"04017","name":"Souk Naamane"},{"postalcode":"04018","name":"Zorg"},{"postalcode":"04019","name":"El Fedjoudj Boughrar"},{"postalcode":"04020","name":"Ouled Zouai"},{"postalcode":"04021","name":"Bir Chouhada"},{"postalcode":"04022","name":"Ksar Sbahi"},{"postalcode":"04023","name":"Oued Nini"},{"postalcode":"04024","name":"Meskiana"},{"postalcode":"04025","name":"Ain Fekroune"},{"postalcode":"04026","name":"Rahia"},{"postalcode":"04027","name":"Ain Zitoun"},{"postalcode":"04028","name":"Ouled Gacem"},{"postalcode":"04029","name":"El Harmilia"}]}