{"name":"Batna","wilayacode":"5","communes":[{"postalcode":"05001","name":"Batna"},{"postalcode":"05002","name":"Ghassira"},{"postalcode":"05003","name":"Maafa"},{"postalcode":"05004","name":"Merouana"},{"postalcode":"05005","name":"Seriana"},{"postalcode":"05006","name":"Menaa"},{"postalcode":"05007","name":"El Madher"},{"postalcode":"05008","name":"Tazoult"},{"postalcode":"05009","name":"Ngaous"},{"postalcode":"05010","name":"Guigba"},{"postalcode":"05011","name":"Inoughissen"},{"postalcode":"05012","name":"Ouyoun El Assafir"},{"postalcode":"05013","name":"Djerma"},{"postalcode":"05014","name":"Bitam"},{"postalcode":"05015","name":"Metkaouak"},{"postalcode":"05016","name":"Arris"},{"postalcode":"05017","name":"Kimmel"},{"postalcode":"05018","name":"Tilatou"},{"postalcode":"05019","name":"Ain Djasser"},{"postalcode":"05020","name":"Ouled Selam"},{"postalcode":"05021","name":"Tigherghar"},{"postalcode":"05022","name":"Ain Yagout"},{"postalcode":"05023","name":"Fesdis"},{"postalcode":"05024","name":"Sefiane"},{"postalcode":"05025","name":"Rahbat"},{"postalcode":"05026","name":"Tighanimine"},{"postalcode":"05027","name":"Lemsane"},{"postalcode":"05028","name":"Ksar Belezma"},{"postalcode":"05029","name":"Seggana"},{"postalcode":"05030","name":"Ichmoul"},{"postalcode":"05031","name":"Foum Toub"},{"postalcode":"05032","name":"Beni Foudhala El Hakania"},{"postalcode":"05033","name":"Oued El Ma"},{"postalcode":"05034","name":"Talkhamt"},{"postalcode":"05035","name":"Bouzina"},{"postalcode":"05036","name":"Chemora"},{"postalcode":"05037","name":"Oued Chaaba"},{"postalcode":"05038","name":"Taxlent"},{"postalcode":"05039","name":"Gosbat"},{"postalcode":"05040","name":"Ouled Aouf"},{"postalcode":"05041","name":"Boumagueur"},{"postalcode":"05042","name":"Barika"},{"postalcode":"05043","name":"Djezzar"},{"postalcode":"05044","name":"Tkout"},{"postalcode":"05045","name":"Ain Touta"},{"postalcode":"05046","name":"Hidoussa"},{"postalcode":"05047","name":"Teniet El Abed"},{"postalcode":"05048","name":"Oued Taga"},{"postalcode":"05049","name":"Ouled Fadel"},{"postalcode":"05050","name":"Timgad"},{"postalcode":"05051","name":"Ras El Aioun"},{"postalcode":"05052","name":"Chir"},{"postalcode":"05053","name":"Ouled Si Slimane"},{"postalcode":"05054","name":"Zanat El Beida"},{"postalcode":"05055","name":"Amdoukal"},{"postalcode":"05056","name":"Ouled Ammar"},{"postalcode":"05057","name":"El Hassi"},{"postalcode":"05058","name":"Lazrou"},{"postalcode":"05059","name":"Boumia"},{"postalcode":"05060","name":"Boulhilat"},{"postalcode":"05061","name":"Larbaa"}]}