{"name":"Médéa","wilayacode":"26","communes":[{"postalcode":"26001","name":"Medea"},{"postalcode":"26002","name":"Ouzera"},{"postalcode":"26003","name":"Ouled Maaref"},{"postalcode":"26004","name":"Ain Boucif"},{"postalcode":"26005","name":"Aissaouia"},{"postalcode":"26006","name":"Ouled Deide"},{"postalcode":"26007","name":"El Omaria"},{"postalcode":"26008","name":"Derrag"},{"postalcode":"26009","name":"El Guelbelkebir"},{"postalcode":"26010","name":"Bouaiche"},{"postalcode":"26011","name":"Mezerena"},{"postalcode":"26012","name":"Ouled Brahim"},{"postalcode":"26013","name":"Damiat"},{"postalcode":"26014","name":"Sidi Ziane"},{"postalcode":"26015","name":"Tamesguida"},{"postalcode":"26016","name":"El Hamdania"},{"postalcode":"26017","name":"Kef Lakhdar"},{"postalcode":"26018","name":"Chelalet El Adhaoura"},{"postalcode":"26019","name":"Bouskene"},{"postalcode":"26020","name":"Rebaia"},{"postalcode":"26021","name":"Bouchrahil"},{"postalcode":"26022","name":"Ouled Hellal"},{"postalcode":"26023","name":"Tafraout"},{"postalcode":"26024","name":"Baata"},{"postalcode":"26025","name":"Boghar"},{"postalcode":"26026","name":"Sidi Naamane"},{"postalcode":"26027","name":"Ouled Bouachra"},{"postalcode":"26028","name":"Sidi Zahar"},{"postalcode":"26029","name":"Oued Harbil"},{"postalcode":"26030","name":"Benchicao"},{"postalcode":"26031","name":"Sidi Damed"},{"postalcode":"26032","name":"Aziz"},{"postalcode":"26033","name":"Souagui"},{"postalcode":"26034","name":"Zoubiria"},{"postalcode":"26035","name":"Ksar El Boukhari"},{"postalcode":"26036","name":"El Azizia"},{"postalcode":"26037","name":"Djouab"},{"postalcode":"26038","name":"Chahbounia"},{"postalcode":"26039","name":"Meghraoua"},{"postalcode":"26040","name":"Cheniguel"},{"postalcode":"26041","name":"Ain Ouksir"},{"postalcode":"26042","name":"Oum El Djalil"},{"postalcode":"26043","name":"Ouamri"},{"postalcode":"26044","name":"Si Mahdjoub"},{"postalcode":"26045","name":"Tlatet Eddoair"},{"postalcode":"26046","name":"Beni Slimane"},{"postalcode":"26047","name":"Berrouaghia"},{"postalcode":"26048","name":"Seghouane"},{"postalcode":"26049","name":"Meftaha"},{"postalcode":"26050","name":"Mihoub"},{"postalcode":"26051","name":"Boughezoul"},{"postalcode":"26052","name":"Tablat"},{"postalcode":"26053","name":"Deux Bassins"},{"postalcode":"26054","name":"Draa Essamar"},{"postalcode":"26055","name":"Sidi Errabia"},{"postalcode":"26056","name":"Bir Ben Laabed"},{"postalcode":"26057","name":"El Ouinet"},{"postalcode":"26058","name":"Ouled Antar"},{"postalcode":"26059","name":"Bouaichoune"},{"postalcode":"26060","name":"Hannacha"},{"postalcode":"26061","name":"Sedraia"},{"postalcode":"26062","name":"Medjebar"},{"postalcode":"26063","name":"Khams Djouamaa"},{"postalcode":"26064","name":"Saneg"}]}