{"name":"M'Sila","wilayacode":"28","communes":[{"postalcode":"28001","name":"Msila"},{"postalcode":"28002","name":"Maadid"},{"postalcode":"28003","name":"Hammam Dhalaa"},{"postalcode":"28004","name":"Ouled Derradj"},{"postalcode":"28005","name":"Tarmount"},{"postalcode":"28006","name":"Mtarfa"},{"postalcode":"28007","name":"Khoubana"},{"postalcode":"28008","name":"Mcif"},{"postalcode":"28009","name":"Chellal"},{"postalcode":"28010","name":"Ouled Madhi"},{"postalcode":"28011","name":"Magra"},{"postalcode":"28012","name":"Berhoum"},{"postalcode":"28013","name":"Ain Khadra"},{"postalcode":"28014","name":"Ouled Addi Guebala"},{"postalcode":"28015","name":"Belaiba"},{"postalcode":"28016","name":"Sidi Aissa"},{"postalcode":"28017","name":"Ain El Hadjel"},{"postalcode":"28018","name":"Sidi Hadjeres"},{"postalcode":"28019","name":"Ouanougha"},{"postalcode":"28020","name":"Bou Saada"},{"postalcode":"28021","name":"Ouled Sidi Brahim"},{"postalcode":"28022","name":"Sidi Ameur"},{"postalcode":"28023","name":"Tamsa"},{"postalcode":"28024","name":"Ben Srour"},{"postalcode":"28025","name":"Ouled Slimane"},{"postalcode":"28026","name":"El Houamed"},{"postalcode":"28027","name":"El Hamel"},{"postalcode":"28028","name":"Ouled Mansour"},{"postalcode":"28029","name":"Maarif"},{"postalcode":"28030","name":"Dehahna"},{"postalcode":"28031","name":"Bouti Sayah"},{"postalcode":"28032","name":"Khettouti Sed Djir"},{"postalcode":"28033","name":"Zarzour"},{"postalcode":"28034","name":"Oued Chair"},{"postalcode":"28035","name":"Benzouh"},{"postalcode":"28036","name":"Bir Foda"},{"postalcode":"28037","name":"Ain Fares"},{"postalcode":"28038","name":"Sidi Mhamed"},{"postalcode":"28039","name":"Ouled Atia"},{"postalcode":"28040","name":"Souamaa"},{"postalcode":"28041","name":"Ain El Melh"},{"postalcode":"28042","name":"Medjedel"},{"postalcode":"28043","name":"Slim"},{"postalcode":"28044","name":"Ain Errich"},{"postalcode":"28045","name":"Beni Ilmane"},{"postalcode":"28046","name":"Oultene"},{"postalcode":"28047","name":"Djebel Messaad"}]}