{"name":"SÃ©tif","wilayacode":"19","communes":[{"postalcode":"19001","name":"Setif"},{"postalcode":"19002","name":"Ain El Kebira"},{"postalcode":"19003","name":"Beni Aziz"},{"postalcode":"19004","name":"Ouled Sidi Ahmed"},{"postalcode":"19005","name":"Boutaleb"},{"postalcode":"19006","name":"Ain Roua"},{"postalcode":"19007","name":"Draa Kebila"},{"postalcode":"19008","name":"Bir El Arch"},{"postalcode":"19009","name":"Beni Chebana"},{"postalcode":"19010","name":"Ouled Tebben"},{"postalcode":"19011","name":"Hamma"},{"postalcode":"19012","name":"Maaouia"},{"postalcode":"19013","name":"Ain Legraj"},{"postalcode":"19014","name":"Ain Abessa"},{"postalcode":"19015","name":"Dehamcha"},{"postalcode":"19016","name":"Babor"},{"postalcode":"19017","name":"Guidjel"},{"postalcode":"19018","name":"Ain Lahdjar"},{"postalcode":"19019","name":"Bousselam"},{"postalcode":"19020","name":"El Eulma"},{"postalcode":"19021","name":"Djemila"},{"postalcode":"19022","name":"Beni Ouartilane"},{"postalcode":"19023","name":"Rosfa"},{"postalcode":"19024","name":"Ouled Addouane"},{"postalcode":"19025","name":"Belaa"},{"postalcode":"19026","name":"Ain Arnat"},{"postalcode":"19027","name":"Amoucha"},{"postalcode":"19028","name":"Ain Oulmane"},{"postalcode":"19029","name":"Beidha Bordj"},{"postalcode":"19030","name":"Bouandas"},{"postalcode":"19031","name":"Bazer Sakhra"},{"postalcode":"19032","name":"Hammam Essokhna"},{"postalcode":"19033","name":"Mezloug"},{"postalcode":"19034","name":"Bir Haddada"},{"postalcode":"19035","name":"Serdj El Ghoul"},{"postalcode":"19036","name":"Harbil"},{"postalcode":"19037","name":"El Ouricia"},{"postalcode":"19038","name":"Tizi Nbechar"},{"postalcode":"19039","name":"Salah Bey"},{"postalcode":"19040","name":"Ain Azal"},{"postalcode":"19041","name":"Guenzet"},{"postalcode":"19042","name":"Talaifacene"},{"postalcode":"19043","name":"Bougaa"},{"postalcode":"19044","name":"Beni Fouda"},{"postalcode":"19045","name":"Tachouda"},{"postalcode":"19046","name":"Beni Mouhli"},{"postalcode":"19047","name":"Ouled Sabor"},{"postalcode":"19048","name":"Guellal"},{"postalcode":"19049","name":"Ain Sebt"},{"postalcode":"19050","name":"Hammam Guergour"},{"postalcode":"19051","name":"Ait Naoual Mezada"},{"postalcode":"19052","name":"Ksar El Abtal"},{"postalcode":"19053","name":"Beni Hocine"},{"postalcode":"19054","name":"Ait Tizi"},{"postalcode":"19055","name":"Maouklane"},{"postalcode":"19056","name":"Guelta Zerka"},{"postalcode":"19057","name":"Oued El Barad"},{"postalcode":"19058","name":"Taya"},{"postalcode":"19059","name":"El Ouldja"},{"postalcode":"19060","name":"Tella"}]}