{"name":"Tipaza","wilayacode":"42","communes":[{"postalcode":"42001","name":"Tipaza"},{"postalcode":"42002","name":"Menaceur"},{"postalcode":"42003","name":"Larhat"},{"postalcode":"42004","name":"Douaouda"},{"postalcode":"42005","name":"Bourkika"},{"postalcode":"42006","name":"Khemisti"},{"postalcode":"42010","name":"Aghabal"},{"postalcode":"42012","name":"Hadjout"},{"postalcode":"42013","name":"Sidi Amar"},{"postalcode":"42014","name":"Gouraya"},{"postalcode":"42015","name":"Nodor"},{"postalcode":"42016","name":"Chaiba"},{"postalcode":"42017","name":"Ain Tagourait"},{"postalcode":"42022","name":"Cherchel"},{"postalcode":"42023","name":"Damous"},{"postalcode":"42024","name":"Meurad"},{"postalcode":"42025","name":"Fouka"},{"postalcode":"42026","name":"Bou Ismail"},{"postalcode":"42027","name":"Ahmer El Ain"},{"postalcode":"42030","name":"Bou Haroun"},{"postalcode":"42032","name":"Sidi Ghiles"},{"postalcode":"42033","name":"Messelmoun"},{"postalcode":"42034","name":"Sidi Rached"},{"postalcode":"42035","name":"Kolea"},{"postalcode":"42036","name":"Attatba"},{"postalcode":"42040","name":"Sidi Semiane"},{"postalcode":"42041","name":"Beni Milleuk"},{"postalcode":"42042","name":"Hadjerat Ennous"}]}