{"name":"Alger","wilayacode":"16","communes":[{"postalcode":"16001","name":"Alger Centre"},{"postalcode":"16002","name":"Sidi Mhamed"},{"postalcode":"16003","name":"El Madania"},{"postalcode":"16004","name":"Hamma Anassers"},{"postalcode":"16005","name":"Bab El Oued"},{"postalcode":"16006","name":"Bologhine Ibn Ziri"},{"postalcode":"16007","name":"Casbah"},{"postalcode":"16008","name":"Oued Koriche"},{"postalcode":"16009","name":"Bir Mourad Rais"},{"postalcode":"16010","name":"El Biar"},{"postalcode":"16011","name":"Bouzareah"},{"postalcode":"16012","name":"Birkhadem"},{"postalcode":"16013","name":"El Harrach"},{"postalcode":"16014","name":"Baraki"},{"postalcode":"16015","name":"Oued Smar"},{"postalcode":"16016","name":"Bourouba"},{"postalcode":"16017","name":"Hussein Dey"},{"postalcode":"16018","name":"Kouba"},{"postalcode":"16019","name":"Bachedjerah"},{"postalcode":"16020","name":"Dar El Beida"},{"postalcode":"16021","name":"Bab Azzouar"},{"postalcode":"16022","name":"Ben Aknoun"},{"postalcode":"16023","name":"Dely Ibrahim"},{"postalcode":"16024","name":"Bains Romains"},{"postalcode":"16025","name":"Rais Hamidou"},{"postalcode":"16026","name":"Djasr Kasentina"},{"postalcode":"16027","name":"El Mouradia"},{"postalcode":"16028","name":"Hydra"},{"postalcode":"16029","name":"Mohammadia"},{"postalcode":"16030","name":"Bordj El Kiffan"},{"postalcode":"16031","name":"El Magharia"},{"postalcode":"16032","name":"Beni Messous"},{"postalcode":"16033","name":"Les Eucalyptus"},{"postalcode":"16034","name":"Birtouta"},{"postalcode":"16035","name":"Tassala El Merdja"},{"postalcode":"16036","name":"Ouled Chebel"},{"postalcode":"16037","name":"Sidi Moussa"},{"postalcode":"16038","name":"Ain Taya"},{"postalcode":"16039","name":"Bordj El Bahri"},{"postalcode":"16040","name":"Marsa"},{"postalcode":"16041","name":"Haraoua"},{"postalcode":"16042","name":"Rouiba"},{"postalcode":"16043","name":"Reghaia"},{"postalcode":"16044","name":"Ain Benian"},{"postalcode":"16045","name":"Staoueli"},{"postalcode":"16046","name":"Zeralda"},{"postalcode":"16047","name":"Mahelma"},{"postalcode":"16048","name":"Rahmania"},{"postalcode":"16049","name":"Souidania"},{"postalcode":"16050","name":"Cheraga"},{"postalcode":"16051","name":"Ouled Fayet"},{"postalcode":"16052","name":"El Achour"},{"postalcode":"16053","name":"Draria"},{"postalcode":"16054","name":"Douera"},{"postalcode":"16055","name":"Baba Hassen"},{"postalcode":"16056","name":"Khracia"},{"postalcode":"16057","name":"Saoula"}]}