{"name":"Chlef","wilayacode":"2","communes":[{"postalcode":"02001","name":"Chlef"},{"postalcode":"02002","name":"Tenes"},{"postalcode":"02003","name":"Benairia"},{"postalcode":"02004","name":"El Karimia"},{"postalcode":"02005","name":"Tadjna"},{"postalcode":"02006","name":"Taougrite"},{"postalcode":"02007","name":"Beni Haoua"},{"postalcode":"02008","name":"Sobha"},{"postalcode":"02009","name":"Harchoun"},{"postalcode":"02010","name":"Ouled Fares"},{"postalcode":"02011","name":"Sidi Akacha"},{"postalcode":"02012","name":"Boukadir"},{"postalcode":"02013","name":"Beni Rached"},{"postalcode":"02014","name":"Talassa"},{"postalcode":"02015","name":"Herenfa"},{"postalcode":"02016","name":"Oued Goussine"},{"postalcode":"02017","name":"Dahra"},{"postalcode":"02018","name":"Ouled Abbes"},{"postalcode":"02019","name":"Sendjas"},{"postalcode":"02020","name":"Zeboudja"},{"postalcode":"02021","name":"Oued Sly"},{"postalcode":"02022","name":"Abou El Hassen"},{"postalcode":"02023","name":"El Marsa"},{"postalcode":"02024","name":"Chettia"},{"postalcode":"02025","name":"Sidi Abderrahmane"},{"postalcode":"02026","name":"Moussadek"},{"postalcode":"02027","name":"El Hadjadj"},{"postalcode":"02028","name":"Labiod Medjadja"},{"postalcode":"02029","name":"Oued Fodda"},{"postalcode":"02030","name":"Ouled Ben Abdelkader"},{"postalcode":"02031","name":"Bouzghaia"},{"postalcode":"02032","name":"Ain Merane"},{"postalcode":"02033","name":"Oum Drou"},{"postalcode":"02034","name":"Breira"},{"postalcode":"02035","name":"Ben Boutaleb"}]}