{"name":"Jijel","wilayacode":"18","communes":[{"postalcode":"18001","name":"Jijel"},{"postalcode":"18002","name":"Erraguene"},{"postalcode":"18003","name":"El Aouana"},{"postalcode":"18004","name":"Ziamma Mansouriah"},{"postalcode":"18005","name":"Taher"},{"postalcode":"18006","name":"Emir Abdelkader"},{"postalcode":"18007","name":"Chekfa"},{"postalcode":"18008","name":"Chahna"},{"postalcode":"18009","name":"El Milia"},{"postalcode":"18010","name":"Sidi Maarouf"},{"postalcode":"18011","name":"Settara"},{"postalcode":"18012","name":"El Ancer"},{"postalcode":"18013","name":"Sidi Abdelaziz"},{"postalcode":"18014","name":"Kaous"},{"postalcode":"18015","name":"Ghebala"},{"postalcode":"18016","name":"Bouraoui Belhadef"},{"postalcode":"18017","name":"Djmila"},{"postalcode":"18018","name":"Selma Benziada"},{"postalcode":"18019","name":"Boussif Ouled Askeur"},{"postalcode":"18020","name":"El Kennar Nouchfi"},{"postalcode":"18021","name":"Ouled Yahia Khadrouch"},{"postalcode":"18022","name":"Boudria Beni Yadjis"},{"postalcode":"18023","name":"Kemir Oued Adjoul"},{"postalcode":"18024","name":"Texena"},{"postalcode":"18025","name":"Djemaa Beni Habibi"},{"postalcode":"18026","name":"Bordj Taher"},{"postalcode":"18027","name":"Ouled Rabah"},{"postalcode":"18028","name":"Ouadjana"}]}