{"name":"Mila","wilayacode":"43","communes":[{"postalcode":"43001","name":"Mila"},{"postalcode":"43002","name":"Ferdjioua"},{"postalcode":"43003","name":"Chelghoum Laid"},{"postalcode":"43004","name":"Oued Athmenia"},{"postalcode":"43005","name":"Ain Mellouk"},{"postalcode":"43006","name":"Telerghma"},{"postalcode":"43007","name":"Oued Seguen"},{"postalcode":"43008","name":"Tadjenanet"},{"postalcode":"43009","name":"Benyahia Abderrahmane"},{"postalcode":"43010","name":"Oued Endja"},{"postalcode":"43011","name":"Ahmed Rachedi"},{"postalcode":"43012","name":"Ouled Khalouf"},{"postalcode":"43013","name":"Tiberguent"},{"postalcode":"43014","name":"Bouhatem"},{"postalcode":"43015","name":"Rouached"},{"postalcode":"43016","name":"Tessala Lamatai"},{"postalcode":"43017","name":"Grarem Gouga"},{"postalcode":"43018","name":"Sidi Merouane"},{"postalcode":"43019","name":"Tassadane Haddada"},{"postalcode":"43020","name":"Derradji Bousselah"},{"postalcode":"43021","name":"Minar Zarza"},{"postalcode":"43022","name":"Amira Arras"},{"postalcode":"43023","name":"Terrai Bainen"},{"postalcode":"43024","name":"Hamala"},{"postalcode":"43025","name":"Ain Tine"},{"postalcode":"43026","name":"El Mechira"},{"postalcode":"43027","name":"Sidi Khelifa"},{"postalcode":"43028","name":"Zeghaia"},{"postalcode":"43029","name":"Elayadi Barbes"},{"postalcode":"43030","name":"Ain Beida Harriche"},{"postalcode":"43031","name":"Yahia Beniguecha"},{"postalcode":"43032","name":"Chigara"}]}