{"name":"Djelfa","wilayacode":"17","communes":[{"postalcode":"17001","name":"Djelfa"},{"postalcode":"17002","name":"Moudjebara"},{"postalcode":"17003","name":"El Guedid"},{"postalcode":"17004","name":"Hassi Bahbah"},{"postalcode":"17005","name":"Ain Maabed"},{"postalcode":"17006","name":"Sed Rahal"},{"postalcode":"17007","name":"Feidh El Botma"},{"postalcode":"17008","name":"Birine"},{"postalcode":"17009","name":"Bouira Lahdeb"},{"postalcode":"17010","name":"Zaccar"},{"postalcode":"17011","name":"El Khemis"},{"postalcode":"17012","name":"Sidi Baizid"},{"postalcode":"17013","name":"Mliliha"},{"postalcode":"17014","name":"El Idrissia"},{"postalcode":"17015","name":"Douis"},{"postalcode":"17016","name":"Hassi El Euch"},{"postalcode":"17017","name":"Messaad"},{"postalcode":"17018","name":"Guettara"},{"postalcode":"17019","name":"Sidi Ladjel"},{"postalcode":"17020","name":"Had Sahary"},{"postalcode":"17021","name":"Guernini"},{"postalcode":"17022","name":"Selmana"},{"postalcode":"17023","name":"Ain Chouhada"},{"postalcode":"17024","name":"Oum Laadham"},{"postalcode":"17025","name":"Dar Chouikh"},{"postalcode":"17026","name":"Charef"},{"postalcode":"17027","name":"Beni Yacoub"},{"postalcode":"17028","name":"Zaafrane"},{"postalcode":"17029","name":"Deldoul"},{"postalcode":"17030","name":"Ain El Ibel"},{"postalcode":"17031","name":"Ain Oussera"},{"postalcode":"17032","name":"Benhar"},{"postalcode":"17033","name":"Hassi Fedoul"},{"postalcode":"17034","name":"Amourah"},{"postalcode":"17035","name":"Ain Fekka"},{"postalcode":"17036","name":"Tadmit"}]}