{"name":"Adrar","wilayacode":"1","communes":[{"postalcode":"01001","name":"Adrar"},{"postalcode":"01002","name":"Tamest"},{"postalcode":"01003","name":"Charouine"},{"postalcode":"01004","name":"Reggane"},{"postalcode":"01005","name":"Inozghmir"},{"postalcode":"01006","name":"Tit"},{"postalcode":"01007","name":"Ksar Kaddour"},{"postalcode":"01008","name":"Tsabit"},{"postalcode":"01009","name":"Timimoun"},{"postalcode":"01010","name":"Ouled Said"},{"postalcode":"01011","name":"Zaouiet Kounta"},{"postalcode":"01012","name":"Aoulef"},{"postalcode":"01013","name":"Timokten"},{"postalcode":"01014","name":"Tamentit"},{"postalcode":"01015","name":"Fenoughil"},{"postalcode":"01016","name":"Tinerkouk"},{"postalcode":"01017","name":"Deldoul"},{"postalcode":"01018","name":"Sali"},{"postalcode":"01019","name":"Akabli"},{"postalcode":"01020","name":"Metarfa"},{"postalcode":"01021","name":"O Ahmed Timmi"},{"postalcode":"01022","name":"Bouda"},{"postalcode":"01023","name":"Aougrout"},{"postalcode":"01024","name":"Talmine"},{"postalcode":"01025","name":"B Badji Mokhtar"},{"postalcode":"01026","name":"Sbaa"},{"postalcode":"01027","name":"Ouled Aissa"},{"postalcode":"01028","name":"Timiaouine"}]}