{"name":"Béjaïa","wilayacode":"6","communes":[{"postalcode":"06001","name":"Bejaia"},{"postalcode":"06002","name":"Amizour"},{"postalcode":"06003","name":"Ferraoun"},{"postalcode":"06004","name":"Taourirt Ighil"},{"postalcode":"06005","name":"Chelata"},{"postalcode":"06006","name":"Tamokra"},{"postalcode":"06007","name":"Timzrit"},{"postalcode":"06008","name":"Souk El Thenine"},{"postalcode":"06009","name":"Mcisna"},{"postalcode":"06010","name":"Thinabdher"},{"postalcode":"06011","name":"Tichi"},{"postalcode":"06012","name":"Semaoun"},{"postalcode":"06013","name":"Kendira"},{"postalcode":"06014","name":"Tifra"},{"postalcode":"06015","name":"Ighram"},{"postalcode":"06016","name":"Amalou"},{"postalcode":"06017","name":"Ighil Ali"},{"postalcode":"06018","name":"Ifelain Ilmathen"},{"postalcode":"06019","name":"Toudja"},{"postalcode":"06020","name":"Darguina"},{"postalcode":"06021","name":"Sidi Ayad"},{"postalcode":"06022","name":"Aokas"},{"postalcode":"06023","name":"Beni Djellil"},{"postalcode":"06024","name":"Adekar"},{"postalcode":"06025","name":"Akbou"},{"postalcode":"06026","name":"Seddouk"},{"postalcode":"06027","name":"Tazmalt"},{"postalcode":"06028","name":"Ait Rizine"},{"postalcode":"06029","name":"Chemini"},{"postalcode":"06030","name":"Souk Oufella"},{"postalcode":"06031","name":"Taskriout"},{"postalcode":"06032","name":"Tibane"},{"postalcode":"06033","name":"Tala Hamza"},{"postalcode":"06034","name":"Barbacha"},{"postalcode":"06035","name":"Beni Ksila"},{"postalcode":"06036","name":"Ouzallaguen"},{"postalcode":"06037","name":"Bouhamza"},{"postalcode":"06038","name":"Beni Melikeche"},{"postalcode":"06039","name":"Sidi Aich"},{"postalcode":"06040","name":"El Kseur"},{"postalcode":"06041","name":"Melbou"},{"postalcode":"06042","name":"Akfadou"},{"postalcode":"06043","name":"Leflaye"},{"postalcode":"06044","name":"Kherrata"},{"postalcode":"06045","name":"Draa Kaid"},{"postalcode":"06046","name":"Tamridjet"},{"postalcode":"06047","name":"Ait Smail"},{"postalcode":"06048","name":"Boukhelifa"},{"postalcode":"06049","name":"Tizi Nberber"},{"postalcode":"06050","name":"Beni Maouch"},{"postalcode":"06051","name":"Oued Ghir"},{"postalcode":"06052","name":"Boudjellil"}]}