{"name":"Guelma","wilayacode":"24","communes":[{"postalcode":"24001","name":"Guelma"},{"postalcode":"24002","name":"Nechmaya"},{"postalcode":"24003","name":"Bouati Mahmoud"},{"postalcode":"24004","name":"Oued Zenati"},{"postalcode":"24005","name":"Tamlouka"},{"postalcode":"24006","name":"Oued Fragha"},{"postalcode":"24007","name":"Ain Sandel"},{"postalcode":"24008","name":"Ras El Agba"},{"postalcode":"24009","name":"Dahouara"},{"postalcode":"24010","name":"Belkhir"},{"postalcode":"24011","name":"Ben Djarah"},{"postalcode":"24012","name":"Bou Hamdane"},{"postalcode":"24013","name":"Ain Makhlouf"},{"postalcode":"24014","name":"Ain Ben Beida"},{"postalcode":"24015","name":"Khezara"},{"postalcode":"24016","name":"Beni Mezline"},{"postalcode":"24017","name":"Bou Hachana"},{"postalcode":"24018","name":"Guelaat Bou Sbaa"},{"postalcode":"24019","name":"Hammam Maskhoutine"},{"postalcode":"24020","name":"El Fedjoudj"},{"postalcode":"24021","name":"Bordj Sabat"},{"postalcode":"24022","name":"Hamman Nbail"},{"postalcode":"24023","name":"Ain Larbi"},{"postalcode":"24024","name":"Medjez Amar"},{"postalcode":"24025","name":"Bouchegouf"},{"postalcode":"24026","name":"Heliopolis"},{"postalcode":"24027","name":"Ain Hessania"},{"postalcode":"24028","name":"Roknia"},{"postalcode":"24029","name":"Salaoua Announa"},{"postalcode":"24030","name":"Medjez Sfa"},{"postalcode":"24031","name":"Boumahra Ahmed"},{"postalcode":"24032","name":"Ain Reggada"},{"postalcode":"24033","name":"Oued Cheham"},{"postalcode":"24034","name":"Djeballah Khemissi"}]}