{
  "name": "Tlemcen",
  "wilayacode": "13",
  "communes": [
    { "postalcode": "13001", "name": "Tlemcen" },
    { "postalcode": "13002", "name": "Beni Mester" },
    { "postalcode": "13003", "name": "Ain Tallout" },
    { "postalcode": "13004", "name": "Remchi" },
    { "postalcode": "13005", "name": "El Fehoul" },
    { "postalcode": "13006", "name": "Sabra" },
    { "postalcode": "13007", "name": "Ghazaouet" },
    { "postalcode": "13008", "name": "Souani" },
    { "postalcode": "13009", "name": "Djebala" },
    { "postalcode": "13010", "name": "El Gor" },
    { "postalcode": "13011", "name": "Oued Chouly" },
    { "postalcode": "13012", "name": "Ain Fezza" },
    { "postalcode": "13013", "name": "Ouled Mimoun" },
    { "postalcode": "13014", "name": "Amieur" },
    { "postalcode": "13015", "name": "Ain Youcef" },
    { "postalcode": "13016", "name": "Zenata" },
    { "postalcode": "13017", "name": "Beni Snous" },
    { "postalcode": "13018", "name": "Bab El Assa" },
    { "postalcode": "13019", "name": "Dar Yaghmouracene" },
    { "postalcode": "13020", "name": "Fellaoucene" },
    { "postalcode": "13021", "name": "Azails" },
    { "postalcode": "13022", "name": "Sebbaa Chioukh" },
    { "postalcode": "13023", "name": "Terni Beni Hediel" },
    { "postalcode": "13024", "name": "Bensekrane" },
    { "postalcode": "13025", "name": "Ain Nehala" },
    { "postalcode": "13026", "name": "Hennaya" },
    { "postalcode": "13027", "name": "Maghnia" },
    { "postalcode": "13028", "name": "Hammam Boughrara" },
    { "postalcode": "13029", "name": "Souahlia" },
    { "postalcode": "13030", "name": "Msirda Fouaga" },
    { "postalcode": "13031", "name": "Ain Fetah" },
    { "postalcode": "13032", "name": "El Aricha" },
    { "postalcode": "13033", "name": "Souk Thlata" },
    { "postalcode": "13034", "name": "Sidi Abdelli" },
    { "postalcode": "13035", "name": "Sebdou" },
    { "postalcode": "13036", "name": "Beni Ouarsous" },
    { "postalcode": "13037", "name": "Sidi Medjahed" },
    { "postalcode": "13038", "name": "Beni Boussaid" },
    { "postalcode": "13039", "name": "Marsa Ben Mhidi" },
    { "postalcode": "13040", "name": "Nedroma" },
    { "postalcode": "13041", "name": "Sidi Djillali" },
    { "postalcode": "13042", "name": "Beni Bahdel" },
    { "postalcode": "13043", "name": "El Bouihi" },
    { "postalcode": "13044", "name": "Honaine" },
    { "postalcode": "13045", "name": "Tianet" },
    { "postalcode": "13046", "name": "Ouled Riyah" },
    { "postalcode": "13047", "name": "Bouhlou" },
    { "postalcode": "13048", "name": "Souk El Khemis" },
    { "postalcode": "13049", "name": "Ain Ghoraba" },
    { "postalcode": "13050", "name": "Chetouane" },
    { "postalcode": "13051", "name": "Mansourah" },
    { "postalcode": "13052", "name": "Beni Semiel" },
    { "postalcode": "13053", "name": "Ain Kebira" }
  ]
}