{"name":"Bordj Bou Arreridj","wilayacode":"34","communes":[{"postalcode":"34001","name":"Bordj Bou Arreridj"},{"postalcode":"34002","name":"Ras El Oued"},{"postalcode":"34003","name":"Bordj Zemoura"},{"postalcode":"34004","name":"Mansoura"},{"postalcode":"34005","name":"El Mhir"},{"postalcode":"34006","name":"Ben Daoud"},{"postalcode":"34007","name":"El Achir"},{"postalcode":"34008","name":"Ain Taghrout"},{"postalcode":"34009","name":"Bordj Ghdir"},{"postalcode":"34010","name":"Sidi Embarek"},{"postalcode":"34011","name":"El Hamadia"},{"postalcode":"34012","name":"Belimour"},{"postalcode":"34013","name":"Medjana"},{"postalcode":"34014","name":"Teniet En Nasr"},{"postalcode":"34015","name":"Djaafra"},{"postalcode":"34016","name":"El Main"},{"postalcode":"34017","name":"Ouled Brahem"},{"postalcode":"34018","name":"Ouled Dahmane"},{"postalcode":"34019","name":"Hasnaoua"},{"postalcode":"34020","name":"Khelil"},{"postalcode":"34021","name":"Taglait"},{"postalcode":"34022","name":"Ksour"},{"postalcode":"34023","name":"Ouled Sidi Brahim"},{"postalcode":"34024","name":"Tafreg"},{"postalcode":"34025","name":"Colla"},{"postalcode":"34026","name":"Tixter"},{"postalcode":"34027","name":"El Ach"},{"postalcode":"34028","name":"El Anseur"},{"postalcode":"34029","name":"Tesmart"},{"postalcode":"34030","name":"Ain Tesra"},{"postalcode":"34031","name":"Bir Kasdali"},{"postalcode":"34032","name":"Ghilassa"},{"postalcode":"34033","name":"Rabta"},{"postalcode":"34034","name":"Haraza"}]}