{"name":"Skikda","wilayacode":"21","communes":[{"postalcode":"21001","name":"Skikda"},{"postalcode":"21002","name":"Ain Zouit"},{"postalcode":"21003","name":"El Hadaik"},{"postalcode":"21004","name":"Azzaba"},{"postalcode":"21005","name":"Djendel Saadi Mohamed"},{"postalcode":"21006","name":"Ain Cherchar"},{"postalcode":"21007","name":"Bekkouche Lakhdar"},{"postalcode":"21008","name":"Benazouz"},{"postalcode":"21009","name":"Es Sebt"},{"postalcode":"21010","name":"Collo"},{"postalcode":"21011","name":"Beni Zid"},{"postalcode":"21012","name":"Kerkera"},{"postalcode":"21013","name":"Ouled Attia"},{"postalcode":"21014","name":"Oued Zehour"},{"postalcode":"21015","name":"Zitouna"},{"postalcode":"21016","name":"El Harrouch"},{"postalcode":"21017","name":"Zerdazas"},{"postalcode":"21018","name":"Ouled Hebaba"},{"postalcode":"21019","name":"Sidi Mezghiche"},{"postalcode":"21020","name":"Emdjez Edchich"},{"postalcode":"21021","name":"Beni Oulbane"},{"postalcode":"21022","name":"Ain Bouziane"},{"postalcode":"21023","name":"Ramdane Djamel"},{"postalcode":"21024","name":"Beni Bachir"},{"postalcode":"21025","name":"Salah Bouchaour"},{"postalcode":"21026","name":"Tamalous"},{"postalcode":"21027","name":"Ain Kechra"},{"postalcode":"21028","name":"Oum Toub"},{"postalcode":"21029","name":"Bein El Ouiden"},{"postalcode":"21030","name":"Fil Fila"},{"postalcode":"21031","name":"Cheraia"},{"postalcode":"21032","name":"Kanoua"},{"postalcode":"21033","name":"El Ghedir"},{"postalcode":"21034","name":"Bouchtata"},{"postalcode":"21035","name":"Ouldja Boulbalout"},{"postalcode":"21036","name":"Kheneg Mayoum"},{"postalcode":"21037","name":"Hamadi Krouma"},{"postalcode":"21038","name":"El Marsa"}]}