{
  "name": "Tissemsilt",
  "wilayacode": "38",
  "communes": [
    { "postalcode": "38001", "name": "Tissemsilt" },
    { "postalcode": "38002", "name": "Bordj Bou Naama" },
    { "postalcode": "38003", "name": "Theniet El Had" },
    { "postalcode": "38004", "name": "Lazharia" },
    { "postalcode": "38005", "name": "Beni Chaib" },
    { "postalcode": "38006", "name": "Lardjem" },
    { "postalcode": "38007", "name": "Melaab" },
    { "postalcode": "38008", "name": "Sidi Lantri" },
    { "postalcode": "38009", "name": "Bordj El Emir Abdelkader" },
    { "postalcode": "38010", "name": "Layoune" },
    { "postalcode": "38011", "name": "Khemisti" },
    { "postalcode": "38012", "name": "Ouled Bessem" },
    { "postalcode": "38013", "name": "Ammari" },
    { "postalcode": "38014", "name": "Youssoufia" },
    { "postalcode": "38015", "name": "Sidi Boutouchent" },
    { "postalcode": "38016", "name": "Larbaa" },
    { "postalcode": "38017", "name": "Maasem" },
    { "postalcode": "38018", "name": "Sidi Abed" },
    { "postalcode": "38019", "name": "Tamalaht" },
    { "postalcode": "38020", "name": "Sidi Slimane" },
    { "postalcode": "38021", "name": "Boucaid" },
    { "postalcode": "38022", "name": "Beni Lahcene" }
  ]
}