{"name":"Sidi Bel Abb√®s","wilayacode":"22","communes":[{"postalcode":"22001","name":"Sidi Bel Abbes"},{"postalcode":"22002","name":"Tessala"},{"postalcode":"22003","name":"Sidi Brahim"},{"postalcode":"22004","name":"Mostefa Ben Brahim"},{"postalcode":"22005","name":"Telagh"},{"postalcode":"22006","name":"Mezaourou"},{"postalcode":"22007","name":"Boukhanafis"},{"postalcode":"22008","name":"Sidi Ali Boussidi"},{"postalcode":"22009","name":"Badredine El Mokrani"},{"postalcode":"22010","name":"Marhoum"},{"postalcode":"22011","name":"Tafissour"},{"postalcode":"22012","name":"Amarnas"},{"postalcode":"22013","name":"Tilmouni"},{"postalcode":"22014","name":"Sidi Lahcene"},{"postalcode":"22015","name":"Ain Thrid"},{"postalcode":"22016","name":"Makedra"},{"postalcode":"22017","name":"Tenira"},{"postalcode":"22018","name":"Moulay Slissen"},{"postalcode":"22019","name":"El Hacaiba"},{"postalcode":"22020","name":"Hassi Zehana"},{"postalcode":"22021","name":"Tabia"},{"postalcode":"22022","name":"Merine"},{"postalcode":"22023","name":"Ras El Ma"},{"postalcode":"22024","name":"Ain Tindamine"},{"postalcode":"22025","name":"Ain Kada"},{"postalcode":"22026","name":"Mcid"},{"postalcode":"22027","name":"Sidi Khaled"},{"postalcode":"22028","name":"Ain El Berd"},{"postalcode":"22029","name":"Sfissef"},{"postalcode":"22030","name":"Ain Adden"},{"postalcode":"22031","name":"Oued Taourira"},{"postalcode":"22032","name":"Dhaya"},{"postalcode":"22033","name":"Zerouala"},{"postalcode":"22034","name":"Lamtar"},{"postalcode":"22035","name":"Sidi Chaib"},{"postalcode":"22036","name":"Sidi Dahou Dezairs"},{"postalcode":"22037","name":"Oued Sbaa"},{"postalcode":"22038","name":"Boudjebaa El Bordj"},{"postalcode":"22039","name":"Sehala Thaoura"},{"postalcode":"22040","name":"Sidi Yacoub"},{"postalcode":"22041","name":"Sidi Hamadouche"},{"postalcode":"22042","name":"Belarbi"},{"postalcode":"22043","name":"Oued Sefioun"},{"postalcode":"22044","name":"Teghalimet"},{"postalcode":"22045","name":"Ben Badis"},{"postalcode":"22046","name":"Sidi Ali Benyoub"},{"postalcode":"22047","name":"Chetouane Belaila"},{"postalcode":"22048","name":"Bir El Hammam"},{"postalcode":"22049","name":"Taoudmout"},{"postalcode":"22050","name":"Redjem Demouche"},{"postalcode":"22051","name":"Benachiba Chelia"},{"postalcode":"22052","name":"Hassi Dahou"}]}