{
  "name": "Biskra",
  "wilayacode": "7",
  "communes": [
    { "postalcode": "07001", "name": "Biskra" },
    { "postalcode": "07002", "name": "Oumache" },
    { "postalcode": "07003", "name": "Branis" },
    { "postalcode": "07004", "name": "Chetma" },
    { "postalcode": "07005", "name": "Ouled Djellal" },
    { "postalcode": "07006", "name": "Ras El Miaad" },
    { "postalcode": "07007", "name": "Besbes" },
    { "postalcode": "07008", "name": "Sidi Khaled" },
    { "postalcode": "07009", "name": "Doucen" },
    { "postalcode": "07010", "name": "Ech Chaiba" },
    { "postalcode": "07011", "name": "Sidi Okba" },
    { "postalcode": "07012", "name": "Mchouneche" },
    { "postalcode": "07013", "name": "El Haouch" },
    { "postalcode": "07014", "name": "Ain Naga" },
    { "postalcode": "07015", "name": "Zeribet El Oued" },
    { "postalcode": "07016", "name": "El Feidh" },
    { "postalcode": "07017", "name": "El Kantara" },
    { "postalcode": "07018", "name": "Ain Zaatout" },
    { "postalcode": "07019", "name": "El Outaya" },
    { "postalcode": "07020", "name": "Djemorah" },
    { "postalcode": "07021", "name": "Tolga" },
    { "postalcode": "07022", "name": "Lioua" },
    { "postalcode": "07023", "name": "Lichana" },
    { "postalcode": "07024", "name": "Ourlal" },
    { "postalcode": "07025", "name": "Mlili" },
    { "postalcode": "07026", "name": "Foughala" },
    { "postalcode": "07027", "name": "Bordj Ben Azzouz" },
    { "postalcode": "07028", "name": "Meziraa" },
    { "postalcode": "07029", "name": "Bouchagroun" },
    { "postalcode": "07030", "name": "Mekhadma" },
    { "postalcode": "07031", "name": "El Ghrous" },
    { "postalcode": "07032", "name": "El Hadjab" },
    { "postalcode": "07033", "name": "Khanguet Sidinadji" }
  ]
}