{"name":"Mascara","wilayacode":"29","communes":[{"postalcode":"29001","name":"Mascara"},{"postalcode":"29002","name":"Bou Hanifia"},{"postalcode":"29003","name":"Tizi"},{"postalcode":"29004","name":"Hacine"},{"postalcode":"29005","name":"Maoussa"},{"postalcode":"29006","name":"Teghennif"},{"postalcode":"29007","name":"El Hachem"},{"postalcode":"29008","name":"Sidi Kada"},{"postalcode":"29009","name":"Zelmata"},{"postalcode":"29010","name":"Oued El Abtal"},{"postalcode":"29011","name":"Ain Ferah"},{"postalcode":"29012","name":"Ghriss"},{"postalcode":"29013","name":"Froha"},{"postalcode":"29014","name":"Matemore"},{"postalcode":"29015","name":"Makdha"},{"postalcode":"29016","name":"Sidi Boussaid"},{"postalcode":"29017","name":"El Bordj"},{"postalcode":"29018","name":"Ain Fekan"},{"postalcode":"29019","name":"Benian"},{"postalcode":"29020","name":"Khalouia"},{"postalcode":"29021","name":"El Menaouer"},{"postalcode":"29022","name":"Oued Taria"},{"postalcode":"29023","name":"Aouf"},{"postalcode":"29024","name":"Ain Fares"},{"postalcode":"29025","name":"Ain Frass"},{"postalcode":"29026","name":"Sig"},{"postalcode":"29027","name":"Oggaz"},{"postalcode":"29028","name":"Alaimia"},{"postalcode":"29029","name":"El Gaada"},{"postalcode":"29030","name":"Zahana"},{"postalcode":"29031","name":"Mohammadia"},{"postalcode":"29032","name":"Sidi Abdelmoumene"},{"postalcode":"29033","name":"Ferraguig"},{"postalcode":"29034","name":"El Ghomri"},{"postalcode":"29035","name":"Sedjerara"},{"postalcode":"29036","name":"Moctadouz"},{"postalcode":"29037","name":"Bou Henni"},{"postalcode":"29038","name":"Guettena"},{"postalcode":"29039","name":"El Mamounia"},{"postalcode":"29040","name":"El Keurt"},{"postalcode":"29041","name":"Gharrous"},{"postalcode":"29042","name":"Gherdjoum"},{"postalcode":"29043","name":"Chorfa"},{"postalcode":"29044","name":"Ras Ain Amirouche"},{"postalcode":"29045","name":"Nesmot"},{"postalcode":"29046","name":"Sidi Abdeldjebar"},{"postalcode":"29047","name":"Sehailia"}]}