{
  "name": "AÃ¯n Defla",
  "wilayacode": "44",
  "communes": [
    { "postalcode": "44001", "name": "Ain Defla" },
    { "postalcode": "44002", "name": "Miliana" },
    { "postalcode": "44003", "name": "Boumedfaa" },
    { "postalcode": "44004", "name": "Khemis Miliana" },
    { "postalcode": "44005", "name": "Hammam Righa" },
    { "postalcode": "44006", "name": "Arib" },
    { "postalcode": "44007", "name": "Djelida" },
    { "postalcode": "44008", "name": "El Amra" },
    { "postalcode": "44009", "name": "Bourached" },
    { "postalcode": "44010", "name": "El Attaf" },
    { "postalcode": "44011", "name": "El Abadia" },
    { "postalcode": "44012", "name": "Djendel" },
    { "postalcode": "44013", "name": "Oued Chorfa" },
    { "postalcode": "44014", "name": "Ain Lechiakh" },
    { "postalcode": "44015", "name": "Oued Djemaa" },
    { "postalcode": "44016", "name": "Rouina" },
    { "postalcode": "44017", "name": "Zeddine" },
    { "postalcode": "44018", "name": "El Hassania" },
    { "postalcode": "44019", "name": "Bir Ouled Khelifa" },
    { "postalcode": "44020", "name": "Ain Soltane" },
    { "postalcode": "44021", "name": "Tarik Ibn Ziad" },
    { "postalcode": "44022", "name": "Bordj Emir Khaled" },
    { "postalcode": "44023", "name": "Ain Torki" },
    { "postalcode": "44024", "name": "Sidi Lakhdar" },
    { "postalcode": "44025", "name": "Ben Allal" },
    { "postalcode": "44026", "name": "Ain Benian" },
    { "postalcode": "44027", "name": "Hoceinia" },
    { "postalcode": "44028", "name": "Barbouche" },
    { "postalcode": "44029", "name": "Djemaa Ouled Chikh" },
    { "postalcode": "44030", "name": "Mekhatria" },
    { "postalcode": "44031", "name": "Bathia" },
    { "postalcode": "44032", "name": "Tachta Zegagha" },
    { "postalcode": "44033", "name": "Ain Bouyahia" },
    { "postalcode": "44034", "name": "El Maine" },
    { "postalcode": "44035", "name": "Tiberkanine" },
    { "postalcode": "44036", "name": "Belaas" }
  ]
}