{
  "name": "Boumerd√®s",
  "wilayacode": "35",
  "communes": [
    { "postalcode": "35001", "name": "Boumerdes" },
    { "postalcode": "35002", "name": "Boudouaou" },
    { "postalcode": "35004", "name": "Afir" },
    { "postalcode": "35005", "name": "Bordj Menaiel" },
    { "postalcode": "35006", "name": "Baghlia" },
    { "postalcode": "35007", "name": "Sidi Daoud" },
    { "postalcode": "35008", "name": "Naciria" },
    { "postalcode": "35009", "name": "Djinet" },
    { "postalcode": "35010", "name": "Isser" },
    { "postalcode": "35011", "name": "Zemmouri" },
    { "postalcode": "35012", "name": "Si Mustapha" },
    { "postalcode": "35013", "name": "Tidjelabine" },
    { "postalcode": "35014", "name": "Chabet El Ameur" },
    { "postalcode": "35015", "name": "Thenia" },
    { "postalcode": "35018", "name": "Timezrit" },
    { "postalcode": "35019", "name": "Corso" },
    { "postalcode": "35020", "name": "Ouled Moussa" },
    { "postalcode": "35021", "name": "Larbatache" },
    { "postalcode": "35022", "name": "Bouzegza Keddara" },
    { "postalcode": "35025", "name": "Taourga" },
    { "postalcode": "35026", "name": "Ouled Aissa" },
    { "postalcode": "35027", "name": "Ben Choud" },
    { "postalcode": "35028", "name": "Dellys" },
    { "postalcode": "35029", "name": "Ammal" },
    { "postalcode": "35030", "name": "Beni Amrane" },
    { "postalcode": "35031", "name": "Souk El Had" },
    { "postalcode": "35032", "name": "Boudouaou El Bahri" },
    { "postalcode": "35033", "name": "Ouled Hedadj" },
    { "postalcode": "35035", "name": "Laghata" },
    { "postalcode": "35036", "name": "Hammedi" },
    { "postalcode": "35037", "name": "Khemis El Khechna" },
    { "postalcode": "35038", "name": "El Kharrouba" }
  ]
}