{"name":"Tizi Ouzou","wilayacode":"15","communes":[{"postalcode":"15001","name":"Tizi Ouzou"},{"postalcode":"15002","name":"Ain El Hammam"},{"postalcode":"15003","name":"Akbil"},{"postalcode":"15004","name":"Freha"},{"postalcode":"15005","name":"Souamaa"},{"postalcode":"15006","name":"Mechtrass"},{"postalcode":"15007","name":"Irdjen"},{"postalcode":"15008","name":"Timizart"},{"postalcode":"15009","name":"Makouda"},{"postalcode":"15010","name":"Draa El Mizan"},{"postalcode":"15011","name":"Tizi Ghenif"},{"postalcode":"15012","name":"Bounouh"},{"postalcode":"15013","name":"Ait Chaffaa"},{"postalcode":"15014","name":"Frikat"},{"postalcode":"15015","name":"Beni Aissi"},{"postalcode":"15016","name":"Beni Zmenzer"},{"postalcode":"15017","name":"Iferhounene"},{"postalcode":"15018","name":"Azazga"},{"postalcode":"15019","name":"Iloula Oumalou"},{"postalcode":"15020","name":"Yakouren"},{"postalcode":"15021","name":"Larba Nait Irathen"},{"postalcode":"15022","name":"Tizi Rached"},{"postalcode":"15023","name":"Zekri"},{"postalcode":"15024","name":"Ouaguenoun"},{"postalcode":"15025","name":"Ain Zaouia"},{"postalcode":"15026","name":"Mkira"},{"postalcode":"15027","name":"Ait Yahia"},{"postalcode":"15028","name":"Ait Mahmoud"},{"postalcode":"15029","name":"Maatka"},{"postalcode":"15030","name":"Ait Boumehdi"},{"postalcode":"15031","name":"Abi Youcef"},{"postalcode":"15032","name":"Beni Douala"},{"postalcode":"15033","name":"Illilten"},{"postalcode":"15034","name":"Bouzguen"},{"postalcode":"15035","name":"Ait Aggouacha"},{"postalcode":"15036","name":"Ouadhia"},{"postalcode":"15037","name":"Azzefoun"},{"postalcode":"15038","name":"Tigzirt"},{"postalcode":"15039","name":"Ait Aissa Mimoun"},{"postalcode":"15040","name":"Boghni"},{"postalcode":"15041","name":"Ifigha"},{"postalcode":"15042","name":"Ait Oumalou"},{"postalcode":"15043","name":"Tirmitine"},{"postalcode":"15044","name":"Akerrou"},{"postalcode":"15045","name":"Yatafen"},{"postalcode":"15046","name":"Beni Ziki"},{"postalcode":"15047","name":"Draa Ben Khedda"},{"postalcode":"15048","name":"Ouacif"},{"postalcode":"15049","name":"Idjeur"},{"postalcode":"15050","name":"Mekla"},{"postalcode":"15051","name":"Tizi Nthlata"},{"postalcode":"15052","name":"Beni Yenni"},{"postalcode":"15053","name":"Aghrib"},{"postalcode":"15054","name":"Iflissen"},{"postalcode":"15055","name":"Boudjima"},{"postalcode":"15056","name":"Ait Yahia Moussa"},{"postalcode":"15057","name":"Souk El Thenine"},{"postalcode":"15058","name":"Ait Khelil"},{"postalcode":"15059","name":"Sidi Naamane"},{"postalcode":"15060","name":"Iboudraren"},{"postalcode":"15061","name":"Aghni Goughran"},{"postalcode":"15062","name":"Mizrana"},{"postalcode":"15063","name":"Imsouhal"},{"postalcode":"15064","name":"Tadmait"},{"postalcode":"15065","name":"Ait Bouadou"},{"postalcode":"15066","name":"Assi Youcef"},{"postalcode":"15067","name":"Ait Toudert"}]}