{
  "name": "TÃ©bessa",
  "wilayacode": "12",
  "communes": [
    { "postalcode": "12001", "name": "Tebessa" },
    { "postalcode": "12002", "name": "Bir El Ater" },
    { "postalcode": "12003", "name": "Cheria" },
    { "postalcode": "12004", "name": "Stah Guentis" },
    { "postalcode": "12005", "name": "El Aouinet" },
    { "postalcode": "12006", "name": "Lahouidjbet" },
    { "postalcode": "12007", "name": "Safsaf El Ouesra" },
    { "postalcode": "12008", "name": "Hammamet" },
    { "postalcode": "12009", "name": "Negrine" },
    { "postalcode": "12010", "name": "Bir El Mokadem" },
    { "postalcode": "12011", "name": "El Kouif" },
    { "postalcode": "12012", "name": "Morsott" },
    { "postalcode": "12013", "name": "El Ogla" },
    { "postalcode": "12014", "name": "Bir Dheheb" },
    { "postalcode": "12015", "name": "El Ogla El Malha" },
    { "postalcode": "12016", "name": "Gorriguer" },
    { "postalcode": "12017", "name": "Bekkaria" },
    { "postalcode": "12018", "name": "Boukhadra" },
    { "postalcode": "12019", "name": "Ouenza" },
    { "postalcode": "12020", "name": "El Ma El Biodh" },
    { "postalcode": "12021", "name": "Oum Ali" },
    { "postalcode": "12022", "name": "Thlidjene" },
    { "postalcode": "12023", "name": "Ain Zerga" },
    { "postalcode": "12024", "name": "El Meridj" },
    { "postalcode": "12025", "name": "Boulhaf Dyr" },
    { "postalcode": "12026", "name": "Bedjene" },
    { "postalcode": "12027", "name": "El Mazeraa" },
    { "postalcode": "12028", "name": "Ferkane" }
  ]
}