{
  "name": "Mostaganem",
  "wilayacode": "27",
  "communes": [
    { "postalcode": "27001", "name": "Mostaganem" },
    { "postalcode": "27002", "name": "Sayada" },
    { "postalcode": "27003", "name": "Fornaka" },
    { "postalcode": "27004", "name": "Stidia" },
    { "postalcode": "27005", "name": "Ain Nouissy" },
    { "postalcode": "27006", "name": "Hassi Maameche" },
    { "postalcode": "27007", "name": "Ain Tadles" },
    { "postalcode": "27008", "name": "Sour" },
    { "postalcode": "27009", "name": "Oued El Kheir" },
    { "postalcode": "27010", "name": "Sidi Bellater" },
    { "postalcode": "27011", "name": "KheiredineÂ " },
    { "postalcode": "27012", "name": "Sidi Ali" },
    { "postalcode": "27013", "name": "Abdelmalek Ramdane" },
    { "postalcode": "27014", "name": "Hadjadj" },
    { "postalcode": "27015", "name": "Nekmaria" },
    { "postalcode": "27016", "name": "Sidi Lakhdar" },
    { "postalcode": "27017", "name": "Achaacha" },
    { "postalcode": "27018", "name": "Khadra" },
    { "postalcode": "27019", "name": "Bouguirat" },
    { "postalcode": "27020", "name": "Sirat" },
    { "postalcode": "27021", "name": "Ain Sidi Cherif" },
    { "postalcode": "27022", "name": "Mesra" },
    { "postalcode": "27023", "name": "Mansourah" },
    { "postalcode": "27024", "name": "Souaflia" },
    { "postalcode": "27025", "name": "Ouled Boughalem" },
    { "postalcode": "27026", "name": "Ouled Maallah" },
    { "postalcode": "27027", "name": "Mezghrane" },
    { "postalcode": "27028", "name": "Ain Boudinar" },
    { "postalcode": "27029", "name": "Tazgait" },
    { "postalcode": "27030", "name": "Safsaf" },
    { "postalcode": "27031", "name": "Touahria" },
    { "postalcode": "27032", "name": "El Hassiane" }
  ]
}