{"name":"Laghouat","wilayacode":"3","communes":[{"postalcode":"03001","name":"Laghouat"},{"postalcode":"03002","name":"Ksar El Hirane"},{"postalcode":"03003","name":"Benacer Ben Chohra"},{"postalcode":"03004","name":"Sidi Makhlouf"},{"postalcode":"03005","name":"Hassi Delaa"},{"postalcode":"03006","name":"Hassi R Mel"},{"postalcode":"03007","name":"Ain Mahdi"},{"postalcode":"03008","name":"Tadjmout"},{"postalcode":"03009","name":"Kheneg"},{"postalcode":"03010","name":"Gueltat Sidi Saad"},{"postalcode":"03011","name":"Ain Sidi Ali"},{"postalcode":"03012","name":"Beidha"},{"postalcode":"03013","name":"Brida"},{"postalcode":"03014","name":"El Ghicha"},{"postalcode":"03015","name":"Hadj Mechri"},{"postalcode":"03016","name":"Sebgag"},{"postalcode":"03017","name":"Taouiala"},{"postalcode":"03018","name":"Tadjrouna"},{"postalcode":"03019","name":"Aflou"},{"postalcode":"03020","name":"El Assafia"},{"postalcode":"03021","name":"Oued Morra"},{"postalcode":"03022","name":"Oued M Zi"},{"postalcode":"03023","name":"El Haouaita"},{"postalcode":"03024","name":"Sidi Bouzid"}]}