{"name":"Aïn Témouchent","wilayacode":"46","communes":[{"postalcode":"46001","name":"Ain Temouchent"},{"postalcode":"46002","name":"Chaabet El Ham"},{"postalcode":"46003","name":"Ain Kihal"},{"postalcode":"46004","name":"Hammam Bouhadjar"},{"postalcode":"46005","name":"Bou Zedjar"},{"postalcode":"46006","name":"Oued Berkeche"},{"postalcode":"46007","name":"Aghlal"},{"postalcode":"46008","name":"Terga"},{"postalcode":"46009","name":"Ain El Arbaa"},{"postalcode":"46010","name":"Tamzoura"},{"postalcode":"46011","name":"Chentouf"},{"postalcode":"46012","name":"Sidi Ben Adda"},{"postalcode":"46013","name":"Aoubellil"},{"postalcode":"46014","name":"El Malah"},{"postalcode":"46015","name":"Sidi Boumediene"},{"postalcode":"46016","name":"Oued Sabah"},{"postalcode":"46017","name":"Ouled Boudjemaa"},{"postalcode":"46018","name":"Ain Tolba"},{"postalcode":"46019","name":"El Amria"},{"postalcode":"46020","name":"Hassi El Ghella"},{"postalcode":"46021","name":"Hassasna"},{"postalcode":"46022","name":"Ouled Kihal"},{"postalcode":"46023","name":"Beni Saf"},{"postalcode":"46024","name":"Sidi Safi"},{"postalcode":"46025","name":"Oulhaca El Gheraba"},{"postalcode":"46026","name":"Tadmaya"},{"postalcode":"46027","name":"El Emir Abdelkader"},{"postalcode":"46028","name":"El Messaid"}]}