{
  "name": "Tiaret",
  "wilayacode": "14",
  "communes": [
    { "postalcode": "14001", "name": "Tiaret" },
    { "postalcode": "14002", "name": "Medroussa" },
    { "postalcode": "14003", "name": "Ain Bouchekif" },
    { "postalcode": "14004", "name": "Sidi Ali Mellal" },
    { "postalcode": "14005", "name": "Ain Zarit" },
    { "postalcode": "14006", "name": "Ain Deheb" },
    { "postalcode": "14007", "name": "Sidi Bakhti" },
    { "postalcode": "14008", "name": "Medrissa" },
    { "postalcode": "14009", "name": "Zmalet El Emir Aek" },
    { "postalcode": "14010", "name": "Madna" },
    { "postalcode": "14011", "name": "Sebt" },
    { "postalcode": "14012", "name": "Mellakou" },
    { "postalcode": "14013", "name": "Dahmouni" },
    { "postalcode": "14014", "name": "Rahouia" },
    { "postalcode": "14015", "name": "Mahdia" },
    { "postalcode": "14016", "name": "Sougueur" },
    { "postalcode": "14017", "name": "Sidi Abdelghani" },
    { "postalcode": "14018", "name": "Ain El Hadid" },
    { "postalcode": "14019", "name": "Ouled Djerad" },
    { "postalcode": "14020", "name": "Naima" },
    { "postalcode": "14021", "name": "Meghila" },
    { "postalcode": "14022", "name": "Guertoufa" },
    { "postalcode": "14023", "name": "Sidi Hosni" },
    { "postalcode": "14024", "name": "Djillali Ben Amar" },
    { "postalcode": "14025", "name": "Sebaine" },
    { "postalcode": "14026", "name": "Tousnina" },
    { "postalcode": "14027", "name": "Frenda" },
    { "postalcode": "14028", "name": "Ain Kermes" },
    { "postalcode": "14029", "name": "Ksar Chellala" },
    { "postalcode": "14030", "name": "Rechaiga" },
    { "postalcode": "14031", "name": "Nadorah" },
    { "postalcode": "14032", "name": "Tagdemt" },
    { "postalcode": "14033", "name": "Oued Lilli" },
    { "postalcode": "14034", "name": "Mechraa Safa" },
    { "postalcode": "14035", "name": "Hamadia" },
    { "postalcode": "14036", "name": "Chehaima" },
    { "postalcode": "14037", "name": "Takhemaret" },
    { "postalcode": "14038", "name": "Sidi Abderrahmane" },
    { "postalcode": "14039", "name": "Serghine" },
    { "postalcode": "14040", "name": "Bougara" },
    { "postalcode": "14041", "name": "Faidja" },
    { "postalcode": "14042", "name": "Tidda" }
  ]
}