{"name":"El Oued","wilayacode":"39","communes":[{"postalcode":"39001","name":"El Oued"},{"postalcode":"39002","name":"Robbah"},{"postalcode":"39003","name":"Oued El Alenda"},{"postalcode":"39004","name":"Bayadha"},{"postalcode":"39005","name":"Nakhla"},{"postalcode":"39006","name":"Guemar"},{"postalcode":"39007","name":"Kouinine"},{"postalcode":"39008","name":"Reguiba"},{"postalcode":"39009","name":"Hamraia"},{"postalcode":"39010","name":"Taghzout"},{"postalcode":"39011","name":"Debila"},{"postalcode":"39012","name":"Hassani Abdelkrim"},{"postalcode":"39013","name":"Hassi Khelifa"},{"postalcode":"39014","name":"Taleb Larbi"},{"postalcode":"39015","name":"Douar El Ma"},{"postalcode":"39016","name":"Sidi Aoun"},{"postalcode":"39017","name":"Trifaoui"},{"postalcode":"39018","name":"Magrane"},{"postalcode":"39019","name":"Beni Guecha"},{"postalcode":"39020","name":"Ourmas"},{"postalcode":"39021","name":"Still"},{"postalcode":"39022","name":"Mrara"},{"postalcode":"39023","name":"Sidi Khellil"},{"postalcode":"39024","name":"Tendla"},{"postalcode":"39025","name":"El Ogla"},{"postalcode":"39026","name":"Mih Ouansa"},{"postalcode":"39027","name":"El Mghair"},{"postalcode":"39028","name":"Djamaa"},{"postalcode":"39029","name":"Oum Touyour"},{"postalcode":"39030","name":"Sidi Amrane"}]}