{
  "name": "Bouira",
  "wilayacode": "10",
  "communes": [
    { "postalcode": "10001", "name": "Bouira" },
    { "postalcode": "10002", "name": "El Asnam" },
    { "postalcode": "10003", "name": "Guerrouma" },
    { "postalcode": "10004", "name": "Souk El Khemis" },
    { "postalcode": "10005", "name": "Kadiria" },
    { "postalcode": "10006", "name": "Hanif" },
    { "postalcode": "10007", "name": "Dirah" },
    { "postalcode": "10008", "name": "Ait Laaziz" },
    { "postalcode": "10009", "name": "Taghzout" },
    { "postalcode": "10010", "name": "Raouraoua" },
    { "postalcode": "10011", "name": "Mezdour" },
    { "postalcode": "10012", "name": "Haizer" },
    { "postalcode": "10013", "name": "Lakhdaria" },
    { "postalcode": "10014", "name": "Maala" },
    { "postalcode": "10015", "name": "El Hachimia" },
    { "postalcode": "10016", "name": "Aomar" },
    { "postalcode": "10017", "name": "Chorfa" },
    { "postalcode": "10018", "name": "Bordj Oukhriss" },
    { "postalcode": "10019", "name": "El Adjiba" },
    { "postalcode": "10020", "name": "El Hakimia" },
    { "postalcode": "10021", "name": "El Khebouzia" },
    { "postalcode": "10022", "name": "Ahl El Ksar" },
    { "postalcode": "10023", "name": "Bouderbala" },
    { "postalcode": "10024", "name": "Zbarbar" },
    { "postalcode": "10025", "name": "Ain El Hadjar" },
    { "postalcode": "10026", "name": "Djebahia" },
    { "postalcode": "10027", "name": "Aghbalou" },
    { "postalcode": "10028", "name": "Taguedit" },
    { "postalcode": "10029", "name": "Ain Turk" },
    { "postalcode": "10030", "name": "Saharidj" },
    { "postalcode": "10031", "name": "Dechmia" },
    { "postalcode": "10032", "name": "Ridane" },
    { "postalcode": "10033", "name": "Bechloul" },
    { "postalcode": "10034", "name": "Boukram" },
    { "postalcode": "10035", "name": "Ain Bessam" },
    { "postalcode": "10036", "name": "Bir Ghbalou" },
    { "postalcode": "10037", "name": "Mchedallah" },
    { "postalcode": "10038", "name": "Sour El Ghozlane" },
    { "postalcode": "10039", "name": "Maamora" },
    { "postalcode": "10040", "name": "Ouled Rached" },
    { "postalcode": "10041", "name": "Ain Laloui" },
    { "postalcode": "10042", "name": "Hadjera Zerga" },
    { "postalcode": "10043", "name": "Ath Mansour" },
    { "postalcode": "10044", "name": "El Mokrani" },
    { "postalcode": "10045", "name": "Oued El Berdi" }
  ]
}