{
  "name": "Relizane",
  "wilayacode": "48",
  "communes": [
    { "postalcode": "48001", "name": "Relizane" },
    { "postalcode": "48002", "name": "Oued Rhiou" },
    { "postalcode": "48003", "name": "Belaassel Bouzegza" },
    { "postalcode": "48004", "name": "Sidi Saada" },
    { "postalcode": "48005", "name": "Ouled Aiche" },
    { "postalcode": "48006", "name": "Sidi Lazreg" },
    { "postalcode": "48007", "name": "El Hamadna" },
    { "postalcode": "48008", "name": "Sidi Mhamed Ben Ali" },
    { "postalcode": "48009", "name": "Mediouna" },
    { "postalcode": "48010", "name": "Sidi Khettab" },
    { "postalcode": "48011", "name": "Ammi Moussa" },
    { "postalcode": "48012", "name": "Zemmoura" },
    { "postalcode": "48013", "name": "Beni Dergoun" },
    { "postalcode": "48014", "name": "Djidiouia" },
    { "postalcode": "48015", "name": "El Guettar" },
    { "postalcode": "48016", "name": "Hamri" },
    { "postalcode": "48017", "name": "El Matmar" },
    { "postalcode": "48018", "name": "Sidi Mhamed Ben Aouda" },
    { "postalcode": "48019", "name": "Ain Tarek" },
    { "postalcode": "48020", "name": "Oued Essalem" },
    { "postalcode": "48021", "name": "Ouarizane" },
    { "postalcode": "48022", "name": "Mazouna" },
    { "postalcode": "48023", "name": "Kalaa" },
    { "postalcode": "48024", "name": "Ain Rahma" },
    { "postalcode": "48025", "name": "Yellel" },
    { "postalcode": "48026", "name": "Oued El Djemaa" },
    { "postalcode": "48027", "name": "Ramka" },
    { "postalcode": "48028", "name": "Mendes" },
    { "postalcode": "48029", "name": "Lahlef" },
    { "postalcode": "48030", "name": "Beni Zentis" },
    { "postalcode": "48031", "name": "Souk El Haad" },
    { "postalcode": "48032", "name": "Dar Ben Abdellah" },
    { "postalcode": "48033", "name": "El Hassi" },
    { "postalcode": "48034", "name": "Had Echkalla" },
    { "postalcode": "48035", "name": "Bendaoud" },
    { "postalcode": "48036", "name": "El Ouldja" },
    { "postalcode": "48037", "name": "Merdja Sidi Abed" },
    { "postalcode": "48038", "name": "Ouled Sidi Mihoub" }
  ]
}