[{"postalcode":"01001","name":"Adrar","wilayacode":"1"},{"postalcode":"01002","name":"Tamest","wilayacode":"1"},{"postalcode":"01003","name":"Charouine","wilayacode":"1"},{"postalcode":"01004","name":"Reggane","wilayacode":"1"},{"postalcode":"01005","name":"Inozghmir","wilayacode":"1"},{"postalcode":"01006","name":"Tit","wilayacode":"1"},{"postalcode":"01007","name":"Ksar Kaddour","wilayacode":"1"},{"postalcode":"01008","name":"Tsabit","wilayacode":"1"},{"postalcode":"01009","name":"Timimoun","wilayacode":"1"},{"postalcode":"01010","name":"Ouled Said","wilayacode":"1"},{"postalcode":"01011","name":"Zaouiet Kounta","wilayacode":"1"},{"postalcode":"01012","name":"Aoulef","wilayacode":"1"},{"postalcode":"01013","name":"Timokten","wilayacode":"1"},{"postalcode":"01014","name":"Tamentit","wilayacode":"1"},{"postalcode":"01015","name":"Fenoughil","wilayacode":"1"},{"postalcode":"01016","name":"Tinerkouk","wilayacode":"1"},{"postalcode":"01017","name":"Deldoul","wilayacode":"1"},{"postalcode":"01018","name":"Sali","wilayacode":"1"},{"postalcode":"01019","name":"Akabli","wilayacode":"1"},{"postalcode":"01020","name":"Metarfa","wilayacode":"1"},{"postalcode":"01021","name":"O Ahmed Timmi","wilayacode":"1"},{"postalcode":"01022","name":"Bouda","wilayacode":"1"},{"postalcode":"01023","name":"Aougrout","wilayacode":"1"},{"postalcode":"01024","name":"Talmine","wilayacode":"1"},{"postalcode":"01025","name":"B Badji Mokhtar","wilayacode":"1"},{"postalcode":"01026","name":"Sbaa","wilayacode":"1"},{"postalcode":"01027","name":"Ouled Aissa","wilayacode":"1"},{"postalcode":"01028","name":"Timiaouine","wilayacode":"1"},{"postalcode":"02001","name":"Chlef","wilayacode":"2"},{"postalcode":"02002","name":"Tenes","wilayacode":"2"},{"postalcode":"02003","name":"Benairia","wilayacode":"2"},{"postalcode":"02004","name":"El Karimia","wilayacode":"2"},{"postalcode":"02005","name":"Tadjna","wilayacode":"2"},{"postalcode":"02006","name":"Taougrite","wilayacode":"2"},{"postalcode":"02007","name":"Beni Haoua","wilayacode":"2"},{"postalcode":"02008","name":"Sobha","wilayacode":"2"},{"postalcode":"02009","name":"Harchoun","wilayacode":"2"},{"postalcode":"02010","name":"Ouled Fares","wilayacode":"2"},{"postalcode":"02011","name":"Sidi Akacha","wilayacode":"2"},{"postalcode":"02012","name":"Boukadir","wilayacode":"2"},{"postalcode":"02013","name":"Beni Rached","wilayacode":"2"},{"postalcode":"02014","name":"Talassa","wilayacode":"2"},{"postalcode":"02015","name":"Herenfa","wilayacode":"2"},{"postalcode":"02016","name":"Oued Goussine","wilayacode":"2"},{"postalcode":"02017","name":"Dahra","wilayacode":"2"},{"postalcode":"02018","name":"Ouled Abbes","wilayacode":"2"},{"postalcode":"02019","name":"Sendjas","wilayacode":"2"},{"postalcode":"02020","name":"Zeboudja","wilayacode":"2"},{"postalcode":"02021","name":"Oued Sly","wilayacode":"2"},{"postalcode":"02022","name":"Abou El Hassen","wilayacode":"2"},{"postalcode":"02023","name":"El Marsa","wilayacode":"2"},{"postalcode":"02024","name":"Chettia","wilayacode":"2"},{"postalcode":"02025","name":"Sidi Abderrahmane","wilayacode":"2"},{"postalcode":"02026","name":"Moussadek","wilayacode":"2"},{"postalcode":"02027","name":"El Hadjadj","wilayacode":"2"},{"postalcode":"02028","name":"Labiod Medjadja","wilayacode":"2"},{"postalcode":"02029","name":"Oued Fodda","wilayacode":"2"},{"postalcode":"02030","name":"Ouled Ben Abdelkader","wilayacode":"2"},{"postalcode":"02031","name":"Bouzghaia","wilayacode":"2"},{"postalcode":"02032","name":"Ain Merane","wilayacode":"2"},{"postalcode":"02033","name":"Oum Drou","wilayacode":"2"},{"postalcode":"02034","name":"Breira","wilayacode":"2"},{"postalcode":"02035","name":"Ben Boutaleb","wilayacode":"2"},{"postalcode":"03001","name":"Laghouat","wilayacode":"3"},{"postalcode":"03002","name":"Ksar El Hirane","wilayacode":"3"},{"postalcode":"03003","name":"Benacer Ben Chohra","wilayacode":"3"},{"postalcode":"03004","name":"Sidi Makhlouf","wilayacode":"3"},{"postalcode":"03005","name":"Hassi Delaa","wilayacode":"3"},{"postalcode":"03006","name":"Hassi R Mel","wilayacode":"3"},{"postalcode":"03007","name":"Ain Mahdi","wilayacode":"3"},{"postalcode":"03008","name":"Tadjmout","wilayacode":"3"},{"postalcode":"03009","name":"Kheneg","wilayacode":"3"},{"postalcode":"03010","name":"Gueltat Sidi Saad","wilayacode":"3"},{"postalcode":"03011","name":"Ain Sidi Ali","wilayacode":"3"},{"postalcode":"03012","name":"Beidha","wilayacode":"3"},{"postalcode":"03013","name":"Brida","wilayacode":"3"},{"postalcode":"03014","name":"El Ghicha","wilayacode":"3"},{"postalcode":"03015","name":"Hadj Mechri","wilayacode":"3"},{"postalcode":"03016","name":"Sebgag","wilayacode":"3"},{"postalcode":"03017","name":"Taouiala","wilayacode":"3"},{"postalcode":"03018","name":"Tadjrouna","wilayacode":"3"},{"postalcode":"03019","name":"Aflou","wilayacode":"3"},{"postalcode":"03020","name":"El Assafia","wilayacode":"3"},{"postalcode":"03021","name":"Oued Morra","wilayacode":"3"},{"postalcode":"03022","name":"Oued M Zi","wilayacode":"3"},{"postalcode":"03023","name":"El Haouaita","wilayacode":"3"},{"postalcode":"03024","name":"Sidi Bouzid","wilayacode":"3"},{"postalcode":"04001","name":"Oum El Bouaghi","wilayacode":"4"},{"postalcode":"04002","name":"Ain Beida","wilayacode":"4"},{"postalcode":"04003","name":"Ainmlila","wilayacode":"4"},{"postalcode":"04004","name":"Behir Chergui","wilayacode":"4"},{"postalcode":"04005","name":"El Amiria","wilayacode":"4"},{"postalcode":"04006","name":"Sigus","wilayacode":"4"},{"postalcode":"04007","name":"El Belala","wilayacode":"4"},{"postalcode":"04008","name":"Ain Babouche","wilayacode":"4"},{"postalcode":"04009","name":"Berriche","wilayacode":"4"},{"postalcode":"04010","name":"Ouled Hamla","wilayacode":"4"},{"postalcode":"04011","name":"Dhala","wilayacode":"4"},{"postalcode":"04012","name":"Ain Kercha","wilayacode":"4"},{"postalcode":"04013","name":"Hanchir Toumghani","wilayacode":"4"},{"postalcode":"04014","name":"El Djazia","wilayacode":"4"},{"postalcode":"04015","name":"Ain Diss","wilayacode":"4"},{"postalcode":"04016","name":"Fkirina","wilayacode":"4"},{"postalcode":"04017","name":"Souk Naamane","wilayacode":"4"},{"postalcode":"04018","name":"Zorg","wilayacode":"4"},{"postalcode":"04019","name":"El Fedjoudj Boughrar","wilayacode":"4"},{"postalcode":"04020","name":"Ouled Zouai","wilayacode":"4"},{"postalcode":"04021","name":"Bir Chouhada","wilayacode":"4"},{"postalcode":"04022","name":"Ksar Sbahi","wilayacode":"4"},{"postalcode":"04023","name":"Oued Nini","wilayacode":"4"},{"postalcode":"04024","name":"Meskiana","wilayacode":"4"},{"postalcode":"04025","name":"Ain Fekroune","wilayacode":"4"},{"postalcode":"04026","name":"Rahia","wilayacode":"4"},{"postalcode":"04027","name":"Ain Zitoun","wilayacode":"4"},{"postalcode":"04028","name":"Ouled Gacem","wilayacode":"4"},{"postalcode":"04029","name":"El Harmilia","wilayacode":"4"},{"postalcode":"05001","name":"Batna","wilayacode":"5"},{"postalcode":"05002","name":"Ghassira","wilayacode":"5"},{"postalcode":"05003","name":"Maafa","wilayacode":"5"},{"postalcode":"05004","name":"Merouana","wilayacode":"5"},{"postalcode":"05005","name":"Seriana","wilayacode":"5"},{"postalcode":"05006","name":"Menaa","wilayacode":"5"},{"postalcode":"05007","name":"El Madher","wilayacode":"5"},{"postalcode":"05008","name":"Tazoult","wilayacode":"5"},{"postalcode":"05009","name":"Ngaous","wilayacode":"5"},{"postalcode":"05010","name":"Guigba","wilayacode":"5"},{"postalcode":"05011","name":"Inoughissen","wilayacode":"5"},{"postalcode":"05012","name":"Ouyoun El Assafir","wilayacode":"5"},{"postalcode":"05013","name":"Djerma","wilayacode":"5"},{"postalcode":"05014","name":"Bitam","wilayacode":"5"},{"postalcode":"05015","name":"Metkaouak","wilayacode":"5"},{"postalcode":"05016","name":"Arris","wilayacode":"5"},{"postalcode":"05017","name":"Kimmel","wilayacode":"5"},{"postalcode":"05018","name":"Tilatou","wilayacode":"5"},{"postalcode":"05019","name":"Ain Djasser","wilayacode":"5"},{"postalcode":"05020","name":"Ouled Selam","wilayacode":"5"},{"postalcode":"05021","name":"Tigherghar","wilayacode":"5"},{"postalcode":"05022","name":"Ain Yagout","wilayacode":"5"},{"postalcode":"05023","name":"Fesdis","wilayacode":"5"},{"postalcode":"05024","name":"Sefiane","wilayacode":"5"},{"postalcode":"05025","name":"Rahbat","wilayacode":"5"},{"postalcode":"05026","name":"Tighanimine","wilayacode":"5"},{"postalcode":"05027","name":"Lemsane","wilayacode":"5"},{"postalcode":"05028","name":"Ksar Belezma","wilayacode":"5"},{"postalcode":"05029","name":"Seggana","wilayacode":"5"},{"postalcode":"05030","name":"Ichmoul","wilayacode":"5"},{"postalcode":"05031","name":"Foum Toub","wilayacode":"5"},{"postalcode":"05032","name":"Beni Foudhala El Hakania","wilayacode":"5"},{"postalcode":"05033","name":"Oued El Ma","wilayacode":"5"},{"postalcode":"05034","name":"Talkhamt","wilayacode":"5"},{"postalcode":"05035","name":"Bouzina","wilayacode":"5"},{"postalcode":"05036","name":"Chemora","wilayacode":"5"},{"postalcode":"05037","name":"Oued Chaaba","wilayacode":"5"},{"postalcode":"05038","name":"Taxlent","wilayacode":"5"},{"postalcode":"05039","name":"Gosbat","wilayacode":"5"},{"postalcode":"05040","name":"Ouled Aouf","wilayacode":"5"},{"postalcode":"05041","name":"Boumagueur","wilayacode":"5"},{"postalcode":"05042","name":"Barika","wilayacode":"5"},{"postalcode":"05043","name":"Djezzar","wilayacode":"5"},{"postalcode":"05044","name":"Tkout","wilayacode":"5"},{"postalcode":"05045","name":"Ain Touta","wilayacode":"5"},{"postalcode":"05046","name":"Hidoussa","wilayacode":"5"},{"postalcode":"05047","name":"Teniet El Abed","wilayacode":"5"},{"postalcode":"05048","name":"Oued Taga","wilayacode":"5"},{"postalcode":"05049","name":"Ouled Fadel","wilayacode":"5"},{"postalcode":"05050","name":"Timgad","wilayacode":"5"},{"postalcode":"05051","name":"Ras El Aioun","wilayacode":"5"},{"postalcode":"05052","name":"Chir","wilayacode":"5"},{"postalcode":"05053","name":"Ouled Si Slimane","wilayacode":"5"},{"postalcode":"05054","name":"Zanat El Beida","wilayacode":"5"},{"postalcode":"05055","name":"Amdoukal","wilayacode":"5"},{"postalcode":"05056","name":"Ouled Ammar","wilayacode":"5"},{"postalcode":"05057","name":"El Hassi","wilayacode":"5"},{"postalcode":"05058","name":"Lazrou","wilayacode":"5"},{"postalcode":"05059","name":"Boumia","wilayacode":"5"},{"postalcode":"05060","name":"Boulhilat","wilayacode":"5"},{"postalcode":"05061","name":"Larbaa","wilayacode":"5"},{"postalcode":"06001","name":"Bejaia","wilayacode":"6"},{"postalcode":"06002","name":"Amizour","wilayacode":"6"},{"postalcode":"06003","name":"Ferraoun","wilayacode":"6"},{"postalcode":"06004","name":"Taourirt Ighil","wilayacode":"6"},{"postalcode":"06005","name":"Chelata","wilayacode":"6"},{"postalcode":"06006","name":"Tamokra","wilayacode":"6"},{"postalcode":"06007","name":"Timzrit","wilayacode":"6"},{"postalcode":"06008","name":"Souk El Thenine","wilayacode":"6"},{"postalcode":"06009","name":"Mcisna","wilayacode":"6"},{"postalcode":"06010","name":"Thinabdher","wilayacode":"6"},{"postalcode":"06011","name":"Tichi","wilayacode":"6"},{"postalcode":"06012","name":"Semaoun","wilayacode":"6"},{"postalcode":"06013","name":"Kendira","wilayacode":"6"},{"postalcode":"06014","name":"Tifra","wilayacode":"6"},{"postalcode":"06015","name":"Ighram","wilayacode":"6"},{"postalcode":"06016","name":"Amalou","wilayacode":"6"},{"postalcode":"06017","name":"Ighil Ali","wilayacode":"6"},{"postalcode":"06018","name":"Ifelain Ilmathen","wilayacode":"6"},{"postalcode":"06019","name":"Toudja","wilayacode":"6"},{"postalcode":"06020","name":"Darguina","wilayacode":"6"},{"postalcode":"06021","name":"Sidi Ayad","wilayacode":"6"},{"postalcode":"06022","name":"Aokas","wilayacode":"6"},{"postalcode":"06023","name":"Beni Djellil","wilayacode":"6"},{"postalcode":"06024","name":"Adekar","wilayacode":"6"},{"postalcode":"06025","name":"Akbou","wilayacode":"6"},{"postalcode":"06026","name":"Seddouk","wilayacode":"6"},{"postalcode":"06027","name":"Tazmalt","wilayacode":"6"},{"postalcode":"06028","name":"Ait Rizine","wilayacode":"6"},{"postalcode":"06029","name":"Chemini","wilayacode":"6"},{"postalcode":"06030","name":"Souk Oufella","wilayacode":"6"},{"postalcode":"06031","name":"Taskriout","wilayacode":"6"},{"postalcode":"06032","name":"Tibane","wilayacode":"6"},{"postalcode":"06033","name":"Tala Hamza","wilayacode":"6"},{"postalcode":"06034","name":"Barbacha","wilayacode":"6"},{"postalcode":"06035","name":"Beni Ksila","wilayacode":"6"},{"postalcode":"06036","name":"Ouzallaguen","wilayacode":"6"},{"postalcode":"06037","name":"Bouhamza","wilayacode":"6"},{"postalcode":"06038","name":"Beni Melikeche","wilayacode":"6"},{"postalcode":"06039","name":"Sidi Aich","wilayacode":"6"},{"postalcode":"06040","name":"El Kseur","wilayacode":"6"},{"postalcode":"06041","name":"Melbou","wilayacode":"6"},{"postalcode":"06042","name":"Akfadou","wilayacode":"6"},{"postalcode":"06043","name":"Leflaye","wilayacode":"6"},{"postalcode":"06044","name":"Kherrata","wilayacode":"6"},{"postalcode":"06045","name":"Draa Kaid","wilayacode":"6"},{"postalcode":"06046","name":"Tamridjet","wilayacode":"6"},{"postalcode":"06047","name":"Ait Smail","wilayacode":"6"},{"postalcode":"06048","name":"Boukhelifa","wilayacode":"6"},{"postalcode":"06049","name":"Tizi Nberber","wilayacode":"6"},{"postalcode":"06050","name":"Beni Maouch","wilayacode":"6"},{"postalcode":"06051","name":"Oued Ghir","wilayacode":"6"},{"postalcode":"06052","name":"Boudjellil","wilayacode":"6"},{"postalcode":"07001","name":"Biskra","wilayacode":"7"},{"postalcode":"07002","name":"Oumache","wilayacode":"7"},{"postalcode":"07003","name":"Branis","wilayacode":"7"},{"postalcode":"07004","name":"Chetma","wilayacode":"7"},{"postalcode":"07005","name":"Ouled Djellal","wilayacode":"7"},{"postalcode":"07006","name":"Ras El Miaad","wilayacode":"7"},{"postalcode":"07007","name":"Besbes","wilayacode":"7"},{"postalcode":"07008","name":"Sidi Khaled","wilayacode":"7"},{"postalcode":"07009","name":"Doucen","wilayacode":"7"},{"postalcode":"07010","name":"Ech Chaiba","wilayacode":"7"},{"postalcode":"07011","name":"Sidi Okba","wilayacode":"7"},{"postalcode":"07012","name":"Mchouneche","wilayacode":"7"},{"postalcode":"07013","name":"El Haouch","wilayacode":"7"},{"postalcode":"07014","name":"Ain Naga","wilayacode":"7"},{"postalcode":"07015","name":"Zeribet El Oued","wilayacode":"7"},{"postalcode":"07016","name":"El Feidh","wilayacode":"7"},{"postalcode":"07017","name":"El Kantara","wilayacode":"7"},{"postalcode":"07018","name":"Ain Zaatout","wilayacode":"7"},{"postalcode":"07019","name":"El Outaya","wilayacode":"7"},{"postalcode":"07020","name":"Djemorah","wilayacode":"7"},{"postalcode":"07021","name":"Tolga","wilayacode":"7"},{"postalcode":"07022","name":"Lioua","wilayacode":"7"},{"postalcode":"07023","name":"Lichana","wilayacode":"7"},{"postalcode":"07024","name":"Ourlal","wilayacode":"7"},{"postalcode":"07025","name":"Mlili","wilayacode":"7"},{"postalcode":"07026","name":"Foughala","wilayacode":"7"},{"postalcode":"07027","name":"Bordj Ben Azzouz","wilayacode":"7"},{"postalcode":"07028","name":"Meziraa","wilayacode":"7"},{"postalcode":"07029","name":"Bouchagroun","wilayacode":"7"},{"postalcode":"07030","name":"Mekhadma","wilayacode":"7"},{"postalcode":"07031","name":"El Ghrous","wilayacode":"7"},{"postalcode":"07032","name":"El Hadjab","wilayacode":"7"},{"postalcode":"07033","name":"Khanguet Sidinadji","wilayacode":"7"},{"postalcode":"08001","name":"Bechar","wilayacode":"8"},{"postalcode":"08002","name":"Erg Ferradj","wilayacode":"8"},{"postalcode":"08003","name":"Ouled Khoudir","wilayacode":"8"},{"postalcode":"08004","name":"Meridja","wilayacode":"8"},{"postalcode":"08005","name":"Timoudi","wilayacode":"8"},{"postalcode":"08006","name":"Lahmar","wilayacode":"8"},{"postalcode":"08007","name":"Beni Abbes","wilayacode":"8"},{"postalcode":"08008","name":"Beni Ikhlef","wilayacode":"8"},{"postalcode":"08009","name":"Mechraa Houari B","wilayacode":"8"},{"postalcode":"08010","name":"Kenedsa","wilayacode":"8"},{"postalcode":"08011","name":"Igli","wilayacode":"8"},{"postalcode":"08012","name":"Tabalbala","wilayacode":"8"},{"postalcode":"08013","name":"Taghit","wilayacode":"8"},{"postalcode":"08014","name":"El Ouata","wilayacode":"8"},{"postalcode":"08015","name":"Boukais","wilayacode":"8"},{"postalcode":"08016","name":"Mogheul","wilayacode":"8"},{"postalcode":"08017","name":"Abadla","wilayacode":"8"},{"postalcode":"08018","name":"Kerzaz","wilayacode":"8"},{"postalcode":"08019","name":"Ksabi","wilayacode":"8"},{"postalcode":"08020","name":"Tamtert","wilayacode":"8"},{"postalcode":"08021","name":"Beni Ounif","wilayacode":"8"},{"postalcode":"09001","name":"Blida","wilayacode":"9"},{"postalcode":"09002","name":"Chebli","wilayacode":"9"},{"postalcode":"09003","name":"Bouinan","wilayacode":"9"},{"postalcode":"09004","name":"Oued El Alleug","wilayacode":"9"},{"postalcode":"09007","name":"Ouled Yaich","wilayacode":"9"},{"postalcode":"09008","name":"Chrea","wilayacode":"9"},{"postalcode":"09010","name":"El Affroun","wilayacode":"9"},{"postalcode":"09011","name":"Chiffa","wilayacode":"9"},{"postalcode":"09012","name":"Hammam Melouane","wilayacode":"9"},{"postalcode":"09013","name":"Ben Khlil","wilayacode":"9"},{"postalcode":"09014","name":"Soumaa","wilayacode":"9"},{"postalcode":"09016","name":"Mouzaia","wilayacode":"9"},{"postalcode":"09017","name":"Souhane","wilayacode":"9"},{"postalcode":"09018","name":"Meftah","wilayacode":"9"},{"postalcode":"09019","name":"Ouled Selama","wilayacode":"9"},{"postalcode":"09020","name":"Boufarik","wilayacode":"9"},{"postalcode":"09021","name":"Larbaa","wilayacode":"9"},{"postalcode":"09022","name":"Oued Djer","wilayacode":"9"},{"postalcode":"09023","name":"Beni Tamou","wilayacode":"9"},{"postalcode":"09024","name":"Bouarfa","wilayacode":"9"},{"postalcode":"09025","name":"Beni Mered","wilayacode":"9"},{"postalcode":"09026","name":"Bougara","wilayacode":"9"},{"postalcode":"09027","name":"Guerrouaou","wilayacode":"9"},{"postalcode":"09028","name":"Ain Romana","wilayacode":"9"},{"postalcode":"09029","name":"Djebabra","wilayacode":"9"},{"postalcode":"10001","name":"Bouira","wilayacode":"10"},{"postalcode":"10002","name":"El Asnam","wilayacode":"10"},{"postalcode":"10003","name":"Guerrouma","wilayacode":"10"},{"postalcode":"10004","name":"Souk El Khemis","wilayacode":"10"},{"postalcode":"10005","name":"Kadiria","wilayacode":"10"},{"postalcode":"10006","name":"Hanif","wilayacode":"10"},{"postalcode":"10007","name":"Dirah","wilayacode":"10"},{"postalcode":"10008","name":"Ait Laaziz","wilayacode":"10"},{"postalcode":"10009","name":"Taghzout","wilayacode":"10"},{"postalcode":"10010","name":"Raouraoua","wilayacode":"10"},{"postalcode":"10011","name":"Mezdour","wilayacode":"10"},{"postalcode":"10012","name":"Haizer","wilayacode":"10"},{"postalcode":"10013","name":"Lakhdaria","wilayacode":"10"},{"postalcode":"10014","name":"Maala","wilayacode":"10"},{"postalcode":"10015","name":"El Hachimia","wilayacode":"10"},{"postalcode":"10016","name":"Aomar","wilayacode":"10"},{"postalcode":"10017","name":"Chorfa","wilayacode":"10"},{"postalcode":"10018","name":"Bordj Oukhriss","wilayacode":"10"},{"postalcode":"10019","name":"El Adjiba","wilayacode":"10"},{"postalcode":"10020","name":"El Hakimia","wilayacode":"10"},{"postalcode":"10021","name":"El Khebouzia","wilayacode":"10"},{"postalcode":"10022","name":"Ahl El Ksar","wilayacode":"10"},{"postalcode":"10023","name":"Bouderbala","wilayacode":"10"},{"postalcode":"10024","name":"Zbarbar","wilayacode":"10"},{"postalcode":"10025","name":"Ain El Hadjar","wilayacode":"10"},{"postalcode":"10026","name":"Djebahia","wilayacode":"10"},{"postalcode":"10027","name":"Aghbalou","wilayacode":"10"},{"postalcode":"10028","name":"Taguedit","wilayacode":"10"},{"postalcode":"10029","name":"Ain Turk","wilayacode":"10"},{"postalcode":"10030","name":"Saharidj","wilayacode":"10"},{"postalcode":"10031","name":"Dechmia","wilayacode":"10"},{"postalcode":"10032","name":"Ridane","wilayacode":"10"},{"postalcode":"10033","name":"Bechloul","wilayacode":"10"},{"postalcode":"10034","name":"Boukram","wilayacode":"10"},{"postalcode":"10035","name":"Ain Bessam","wilayacode":"10"},{"postalcode":"10036","name":"Bir Ghbalou","wilayacode":"10"},{"postalcode":"10037","name":"Mchedallah","wilayacode":"10"},{"postalcode":"10038","name":"Sour El Ghozlane","wilayacode":"10"},{"postalcode":"10039","name":"Maamora","wilayacode":"10"},{"postalcode":"10040","name":"Ouled Rached","wilayacode":"10"},{"postalcode":"10041","name":"Ain Laloui","wilayacode":"10"},{"postalcode":"10042","name":"Hadjera Zerga","wilayacode":"10"},{"postalcode":"10043","name":"Ath Mansour","wilayacode":"10"},{"postalcode":"10044","name":"El Mokrani","wilayacode":"10"},{"postalcode":"10045","name":"Oued El Berdi","wilayacode":"10"},{"postalcode":"11001","name":"Tamanghasset","wilayacode":"11"},{"postalcode":"11002","name":"Abalessa","wilayacode":"11"},{"postalcode":"11003","name":"In Ghar","wilayacode":"11"},{"postalcode":"11004","name":"In Guezzam","wilayacode":"11"},{"postalcode":"11005","name":"Idles","wilayacode":"11"},{"postalcode":"11006","name":"Tazouk","wilayacode":"11"},{"postalcode":"11007","name":"Tinzaouatine","wilayacode":"11"},{"postalcode":"11008","name":"In Salah","wilayacode":"11"},{"postalcode":"11009","name":"In Amguel","wilayacode":"11"},{"postalcode":"11010","name":"Foggaret Ezzaouia","wilayacode":"11"},{"postalcode":"12001","name":"Tebessa","wilayacode":"12"},{"postalcode":"12002","name":"Bir El Ater","wilayacode":"12"},{"postalcode":"12003","name":"Cheria","wilayacode":"12"},{"postalcode":"12004","name":"Stah Guentis","wilayacode":"12"},{"postalcode":"12005","name":"El Aouinet","wilayacode":"12"},{"postalcode":"12006","name":"Lahouidjbet","wilayacode":"12"},{"postalcode":"12007","name":"Safsaf El Ouesra","wilayacode":"12"},{"postalcode":"12008","name":"Hammamet","wilayacode":"12"},{"postalcode":"12009","name":"Negrine","wilayacode":"12"},{"postalcode":"12010","name":"Bir El Mokadem","wilayacode":"12"},{"postalcode":"12011","name":"El Kouif","wilayacode":"12"},{"postalcode":"12012","name":"Morsott","wilayacode":"12"},{"postalcode":"12013","name":"El Ogla","wilayacode":"12"},{"postalcode":"12014","name":"Bir Dheheb","wilayacode":"12"},{"postalcode":"12015","name":"El Ogla El Malha","wilayacode":"12"},{"postalcode":"12016","name":"Gorriguer","wilayacode":"12"},{"postalcode":"12017","name":"Bekkaria","wilayacode":"12"},{"postalcode":"12018","name":"Boukhadra","wilayacode":"12"},{"postalcode":"12019","name":"Ouenza","wilayacode":"12"},{"postalcode":"12020","name":"El Ma El Biodh","wilayacode":"12"},{"postalcode":"12021","name":"Oum Ali","wilayacode":"12"},{"postalcode":"12022","name":"Thlidjene","wilayacode":"12"},{"postalcode":"12023","name":"Ain Zerga","wilayacode":"12"},{"postalcode":"12024","name":"El Meridj","wilayacode":"12"},{"postalcode":"12025","name":"Boulhaf Dyr","wilayacode":"12"},{"postalcode":"12026","name":"Bedjene","wilayacode":"12"},{"postalcode":"12027","name":"El Mazeraa","wilayacode":"12"},{"postalcode":"12028","name":"Ferkane","wilayacode":"12"},{"postalcode":"13001","name":"Tlemcen","wilayacode":"13"},{"postalcode":"13002","name":"Beni Mester","wilayacode":"13"},{"postalcode":"13003","name":"Ain Tallout","wilayacode":"13"},{"postalcode":"13004","name":"Remchi","wilayacode":"13"},{"postalcode":"13005","name":"El Fehoul","wilayacode":"13"},{"postalcode":"13006","name":"Sabra","wilayacode":"13"},{"postalcode":"13007","name":"Ghazaouet","wilayacode":"13"},{"postalcode":"13008","name":"Souani","wilayacode":"13"},{"postalcode":"13009","name":"Djebala","wilayacode":"13"},{"postalcode":"13010","name":"El Gor","wilayacode":"13"},{"postalcode":"13011","name":"Oued Chouly","wilayacode":"13"},{"postalcode":"13012","name":"Ain Fezza","wilayacode":"13"},{"postalcode":"13013","name":"Ouled Mimoun","wilayacode":"13"},{"postalcode":"13014","name":"Amieur","wilayacode":"13"},{"postalcode":"13015","name":"Ain Youcef","wilayacode":"13"},{"postalcode":"13016","name":"Zenata","wilayacode":"13"},{"postalcode":"13017","name":"Beni Snous","wilayacode":"13"},{"postalcode":"13018","name":"Bab El Assa","wilayacode":"13"},{"postalcode":"13019","name":"Dar Yaghmouracene","wilayacode":"13"},{"postalcode":"13020","name":"Fellaoucene","wilayacode":"13"},{"postalcode":"13021","name":"Azails","wilayacode":"13"},{"postalcode":"13022","name":"Sebbaa Chioukh","wilayacode":"13"},{"postalcode":"13023","name":"Terni Beni Hediel","wilayacode":"13"},{"postalcode":"13024","name":"Bensekrane","wilayacode":"13"},{"postalcode":"13025","name":"Ain Nehala","wilayacode":"13"},{"postalcode":"13026","name":"Hennaya","wilayacode":"13"},{"postalcode":"13027","name":"Maghnia","wilayacode":"13"},{"postalcode":"13028","name":"Hammam Boughrara","wilayacode":"13"},{"postalcode":"13029","name":"Souahlia","wilayacode":"13"},{"postalcode":"13030","name":"Msirda Fouaga","wilayacode":"13"},{"postalcode":"13031","name":"Ain Fetah","wilayacode":"13"},{"postalcode":"13032","name":"El Aricha","wilayacode":"13"},{"postalcode":"13033","name":"Souk Thlata","wilayacode":"13"},{"postalcode":"13034","name":"Sidi Abdelli","wilayacode":"13"},{"postalcode":"13035","name":"Sebdou","wilayacode":"13"},{"postalcode":"13036","name":"Beni Ouarsous","wilayacode":"13"},{"postalcode":"13037","name":"Sidi Medjahed","wilayacode":"13"},{"postalcode":"13038","name":"Beni Boussaid","wilayacode":"13"},{"postalcode":"13039","name":"Marsa Ben Mhidi","wilayacode":"13"},{"postalcode":"13040","name":"Nedroma","wilayacode":"13"},{"postalcode":"13041","name":"Sidi Djillali","wilayacode":"13"},{"postalcode":"13042","name":"Beni Bahdel","wilayacode":"13"},{"postalcode":"13043","name":"El Bouihi","wilayacode":"13"},{"postalcode":"13044","name":"Honaine","wilayacode":"13"},{"postalcode":"13045","name":"Tianet","wilayacode":"13"},{"postalcode":"13046","name":"Ouled Riyah","wilayacode":"13"},{"postalcode":"13047","name":"Bouhlou","wilayacode":"13"},{"postalcode":"13048","name":"Souk El Khemis","wilayacode":"13"},{"postalcode":"13049","name":"Ain Ghoraba","wilayacode":"13"},{"postalcode":"13050","name":"Chetouane","wilayacode":"13"},{"postalcode":"13051","name":"Mansourah","wilayacode":"13"},{"postalcode":"13052","name":"Beni Semiel","wilayacode":"13"},{"postalcode":"13053","name":"Ain Kebira","wilayacode":"13"},{"postalcode":"14001","name":"Tiaret","wilayacode":"14"},{"postalcode":"14002","name":"Medroussa","wilayacode":"14"},{"postalcode":"14003","name":"Ain Bouchekif","wilayacode":"14"},{"postalcode":"14004","name":"Sidi Ali Mellal","wilayacode":"14"},{"postalcode":"14005","name":"Ain Zarit","wilayacode":"14"},{"postalcode":"14006","name":"Ain Deheb","wilayacode":"14"},{"postalcode":"14007","name":"Sidi Bakhti","wilayacode":"14"},{"postalcode":"14008","name":"Medrissa","wilayacode":"14"},{"postalcode":"14009","name":"Zmalet El Emir Aek","wilayacode":"14"},{"postalcode":"14010","name":"Madna","wilayacode":"14"},{"postalcode":"14011","name":"Sebt","wilayacode":"14"},{"postalcode":"14012","name":"Mellakou","wilayacode":"14"},{"postalcode":"14013","name":"Dahmouni","wilayacode":"14"},{"postalcode":"14014","name":"Rahouia","wilayacode":"14"},{"postalcode":"14015","name":"Mahdia","wilayacode":"14"},{"postalcode":"14016","name":"Sougueur","wilayacode":"14"},{"postalcode":"14017","name":"Sidi Abdelghani","wilayacode":"14"},{"postalcode":"14018","name":"Ain El Hadid","wilayacode":"14"},{"postalcode":"14019","name":"Ouled Djerad","wilayacode":"14"},{"postalcode":"14020","name":"Naima","wilayacode":"14"},{"postalcode":"14021","name":"Meghila","wilayacode":"14"},{"postalcode":"14022","name":"Guertoufa","wilayacode":"14"},{"postalcode":"14023","name":"Sidi Hosni","wilayacode":"14"},{"postalcode":"14024","name":"Djillali Ben Amar","wilayacode":"14"},{"postalcode":"14025","name":"Sebaine","wilayacode":"14"},{"postalcode":"14026","name":"Tousnina","wilayacode":"14"},{"postalcode":"14027","name":"Frenda","wilayacode":"14"},{"postalcode":"14028","name":"Ain Kermes","wilayacode":"14"},{"postalcode":"14029","name":"Ksar Chellala","wilayacode":"14"},{"postalcode":"14030","name":"Rechaiga","wilayacode":"14"},{"postalcode":"14031","name":"Nadorah","wilayacode":"14"},{"postalcode":"14032","name":"Tagdemt","wilayacode":"14"},{"postalcode":"14033","name":"Oued Lilli","wilayacode":"14"},{"postalcode":"14034","name":"Mechraa Safa","wilayacode":"14"},{"postalcode":"14035","name":"Hamadia","wilayacode":"14"},{"postalcode":"14036","name":"Chehaima","wilayacode":"14"},{"postalcode":"14037","name":"Takhemaret","wilayacode":"14"},{"postalcode":"14038","name":"Sidi Abderrahmane","wilayacode":"14"},{"postalcode":"14039","name":"Serghine","wilayacode":"14"},{"postalcode":"14040","name":"Bougara","wilayacode":"14"},{"postalcode":"14041","name":"Faidja","wilayacode":"14"},{"postalcode":"14042","name":"Tidda","wilayacode":"14"},{"postalcode":"15001","name":"Tizi Ouzou","wilayacode":"15"},{"postalcode":"15002","name":"Ain El Hammam","wilayacode":"15"},{"postalcode":"15003","name":"Akbil","wilayacode":"15"},{"postalcode":"15004","name":"Freha","wilayacode":"15"},{"postalcode":"15005","name":"Souamaa","wilayacode":"15"},{"postalcode":"15006","name":"Mechtrass","wilayacode":"15"},{"postalcode":"15007","name":"Irdjen","wilayacode":"15"},{"postalcode":"15008","name":"Timizart","wilayacode":"15"},{"postalcode":"15009","name":"Makouda","wilayacode":"15"},{"postalcode":"15010","name":"Draa El Mizan","wilayacode":"15"},{"postalcode":"15011","name":"Tizi Ghenif","wilayacode":"15"},{"postalcode":"15012","name":"Bounouh","wilayacode":"15"},{"postalcode":"15013","name":"Ait Chaffaa","wilayacode":"15"},{"postalcode":"15014","name":"Frikat","wilayacode":"15"},{"postalcode":"15015","name":"Beni Aissi","wilayacode":"15"},{"postalcode":"15016","name":"Beni Zmenzer","wilayacode":"15"},{"postalcode":"15017","name":"Iferhounene","wilayacode":"15"},{"postalcode":"15018","name":"Azazga","wilayacode":"15"},{"postalcode":"15019","name":"Iloula Oumalou","wilayacode":"15"},{"postalcode":"15020","name":"Yakouren","wilayacode":"15"},{"postalcode":"15021","name":"Larba Nait Irathen","wilayacode":"15"},{"postalcode":"15022","name":"Tizi Rached","wilayacode":"15"},{"postalcode":"15023","name":"Zekri","wilayacode":"15"},{"postalcode":"15024","name":"Ouaguenoun","wilayacode":"15"},{"postalcode":"15025","name":"Ain Zaouia","wilayacode":"15"},{"postalcode":"15026","name":"Mkira","wilayacode":"15"},{"postalcode":"15027","name":"Ait Yahia","wilayacode":"15"},{"postalcode":"15028","name":"Ait Mahmoud","wilayacode":"15"},{"postalcode":"15029","name":"Maatka","wilayacode":"15"},{"postalcode":"15030","name":"Ait Boumehdi","wilayacode":"15"},{"postalcode":"15031","name":"Abi Youcef","wilayacode":"15"},{"postalcode":"15032","name":"Beni Douala","wilayacode":"15"},{"postalcode":"15033","name":"Illilten","wilayacode":"15"},{"postalcode":"15034","name":"Bouzguen","wilayacode":"15"},{"postalcode":"15035","name":"Ait Aggouacha","wilayacode":"15"},{"postalcode":"15036","name":"Ouadhia","wilayacode":"15"},{"postalcode":"15037","name":"Azzefoun","wilayacode":"15"},{"postalcode":"15038","name":"Tigzirt","wilayacode":"15"},{"postalcode":"15039","name":"Ait Aissa Mimoun","wilayacode":"15"},{"postalcode":"15040","name":"Boghni","wilayacode":"15"},{"postalcode":"15041","name":"Ifigha","wilayacode":"15"},{"postalcode":"15042","name":"Ait Oumalou","wilayacode":"15"},{"postalcode":"15043","name":"Tirmitine","wilayacode":"15"},{"postalcode":"15044","name":"Akerrou","wilayacode":"15"},{"postalcode":"15045","name":"Yatafen","wilayacode":"15"},{"postalcode":"15046","name":"Beni Ziki","wilayacode":"15"},{"postalcode":"15047","name":"Draa Ben Khedda","wilayacode":"15"},{"postalcode":"15048","name":"Ouacif","wilayacode":"15"},{"postalcode":"15049","name":"Idjeur","wilayacode":"15"},{"postalcode":"15050","name":"Mekla","wilayacode":"15"},{"postalcode":"15051","name":"Tizi Nthlata","wilayacode":"15"},{"postalcode":"15052","name":"Beni Yenni","wilayacode":"15"},{"postalcode":"15053","name":"Aghrib","wilayacode":"15"},{"postalcode":"15054","name":"Iflissen","wilayacode":"15"},{"postalcode":"15055","name":"Boudjima","wilayacode":"15"},{"postalcode":"15056","name":"Ait Yahia Moussa","wilayacode":"15"},{"postalcode":"15057","name":"Souk El Thenine","wilayacode":"15"},{"postalcode":"15058","name":"Ait Khelil","wilayacode":"15"},{"postalcode":"15059","name":"Sidi Naamane","wilayacode":"15"},{"postalcode":"15060","name":"Iboudraren","wilayacode":"15"},{"postalcode":"15061","name":"Aghni Goughran","wilayacode":"15"},{"postalcode":"15062","name":"Mizrana","wilayacode":"15"},{"postalcode":"15063","name":"Imsouhal","wilayacode":"15"},{"postalcode":"15064","name":"Tadmait","wilayacode":"15"},{"postalcode":"15065","name":"Ait Bouadou","wilayacode":"15"},{"postalcode":"15066","name":"Assi Youcef","wilayacode":"15"},{"postalcode":"15067","name":"Ait Toudert","wilayacode":"15"},{"postalcode":"16001","name":"Alger Centre","wilayacode":"16"},{"postalcode":"16002","name":"Sidi Mhamed","wilayacode":"16"},{"postalcode":"16003","name":"El Madania","wilayacode":"16"},{"postalcode":"16004","name":"Hamma Anassers","wilayacode":"16"},{"postalcode":"16005","name":"Bab El Oued","wilayacode":"16"},{"postalcode":"16006","name":"Bologhine Ibn Ziri","wilayacode":"16"},{"postalcode":"16007","name":"Casbah","wilayacode":"16"},{"postalcode":"16008","name":"Oued Koriche","wilayacode":"16"},{"postalcode":"16009","name":"Bir Mourad Rais","wilayacode":"16"},{"postalcode":"16010","name":"El Biar","wilayacode":"16"},{"postalcode":"16011","name":"Bouzareah","wilayacode":"16"},{"postalcode":"16012","name":"Birkhadem","wilayacode":"16"},{"postalcode":"16013","name":"El Harrach","wilayacode":"16"},{"postalcode":"16014","name":"Baraki","wilayacode":"16"},{"postalcode":"16015","name":"Oued Smar","wilayacode":"16"},{"postalcode":"16016","name":"Bourouba","wilayacode":"16"},{"postalcode":"16017","name":"Hussein Dey","wilayacode":"16"},{"postalcode":"16018","name":"Kouba","wilayacode":"16"},{"postalcode":"16019","name":"Bachedjerah","wilayacode":"16"},{"postalcode":"16020","name":"Dar El Beida","wilayacode":"16"},{"postalcode":"16021","name":"Bab Azzouar","wilayacode":"16"},{"postalcode":"16022","name":"Ben Aknoun","wilayacode":"16"},{"postalcode":"16023","name":"Dely Ibrahim","wilayacode":"16"},{"postalcode":"16024","name":"Bains Romains","wilayacode":"16"},{"postalcode":"16025","name":"Rais Hamidou","wilayacode":"16"},{"postalcode":"16026","name":"Djasr Kasentina","wilayacode":"16"},{"postalcode":"16027","name":"El Mouradia","wilayacode":"16"},{"postalcode":"16028","name":"Hydra","wilayacode":"16"},{"postalcode":"16029","name":"Mohammadia","wilayacode":"16"},{"postalcode":"16030","name":"Bordj El Kiffan","wilayacode":"16"},{"postalcode":"16031","name":"El Magharia","wilayacode":"16"},{"postalcode":"16032","name":"Beni Messous","wilayacode":"16"},{"postalcode":"16033","name":"Les Eucalyptus","wilayacode":"16"},{"postalcode":"16034","name":"Birtouta","wilayacode":"16"},{"postalcode":"16035","name":"Tassala El Merdja","wilayacode":"16"},{"postalcode":"16036","name":"Ouled Chebel","wilayacode":"16"},{"postalcode":"16037","name":"Sidi Moussa","wilayacode":"16"},{"postalcode":"16038","name":"Ain Taya","wilayacode":"16"},{"postalcode":"16039","name":"Bordj El Bahri","wilayacode":"16"},{"postalcode":"16040","name":"Marsa","wilayacode":"16"},{"postalcode":"16041","name":"Haraoua","wilayacode":"16"},{"postalcode":"16042","name":"Rouiba","wilayacode":"16"},{"postalcode":"16043","name":"Reghaia","wilayacode":"16"},{"postalcode":"16044","name":"Ain Benian","wilayacode":"16"},{"postalcode":"16045","name":"Staoueli","wilayacode":"16"},{"postalcode":"16046","name":"Zeralda","wilayacode":"16"},{"postalcode":"16047","name":"Mahelma","wilayacode":"16"},{"postalcode":"16048","name":"Rahmania","wilayacode":"16"},{"postalcode":"16049","name":"Souidania","wilayacode":"16"},{"postalcode":"16050","name":"Cheraga","wilayacode":"16"},{"postalcode":"16051","name":"Ouled Fayet","wilayacode":"16"},{"postalcode":"16052","name":"El Achour","wilayacode":"16"},{"postalcode":"16053","name":"Draria","wilayacode":"16"},{"postalcode":"16054","name":"Douera","wilayacode":"16"},{"postalcode":"16055","name":"Baba Hassen","wilayacode":"16"},{"postalcode":"16056","name":"Khracia","wilayacode":"16"},{"postalcode":"16057","name":"Saoula","wilayacode":"16"},{"postalcode":"17001","name":"Djelfa","wilayacode":"17"},{"postalcode":"17002","name":"Moudjebara","wilayacode":"17"},{"postalcode":"17003","name":"El Guedid","wilayacode":"17"},{"postalcode":"17004","name":"Hassi Bahbah","wilayacode":"17"},{"postalcode":"17005","name":"Ain Maabed","wilayacode":"17"},{"postalcode":"17006","name":"Sed Rahal","wilayacode":"17"},{"postalcode":"17007","name":"Feidh El Botma","wilayacode":"17"},{"postalcode":"17008","name":"Birine","wilayacode":"17"},{"postalcode":"17009","name":"Bouira Lahdeb","wilayacode":"17"},{"postalcode":"17010","name":"Zaccar","wilayacode":"17"},{"postalcode":"17011","name":"El Khemis","wilayacode":"17"},{"postalcode":"17012","name":"Sidi Baizid","wilayacode":"17"},{"postalcode":"17013","name":"Mliliha","wilayacode":"17"},{"postalcode":"17014","name":"El Idrissia","wilayacode":"17"},{"postalcode":"17015","name":"Douis","wilayacode":"17"},{"postalcode":"17016","name":"Hassi El Euch","wilayacode":"17"},{"postalcode":"17017","name":"Messaad","wilayacode":"17"},{"postalcode":"17018","name":"Guettara","wilayacode":"17"},{"postalcode":"17019","name":"Sidi Ladjel","wilayacode":"17"},{"postalcode":"17020","name":"Had Sahary","wilayacode":"17"},{"postalcode":"17021","name":"Guernini","wilayacode":"17"},{"postalcode":"17022","name":"Selmana","wilayacode":"17"},{"postalcode":"17023","name":"Ain Chouhada","wilayacode":"17"},{"postalcode":"17024","name":"Oum Laadham","wilayacode":"17"},{"postalcode":"17025","name":"Dar Chouikh","wilayacode":"17"},{"postalcode":"17026","name":"Charef","wilayacode":"17"},{"postalcode":"17027","name":"Beni Yacoub","wilayacode":"17"},{"postalcode":"17028","name":"Zaafrane","wilayacode":"17"},{"postalcode":"17029","name":"Deldoul","wilayacode":"17"},{"postalcode":"17030","name":"Ain El Ibel","wilayacode":"17"},{"postalcode":"17031","name":"Ain Oussera","wilayacode":"17"},{"postalcode":"17032","name":"Benhar","wilayacode":"17"},{"postalcode":"17033","name":"Hassi Fedoul","wilayacode":"17"},{"postalcode":"17034","name":"Amourah","wilayacode":"17"},{"postalcode":"17035","name":"Ain Fekka","wilayacode":"17"},{"postalcode":"17036","name":"Tadmit","wilayacode":"17"},{"postalcode":"18001","name":"Jijel","wilayacode":"18"},{"postalcode":"18002","name":"Erraguene","wilayacode":"18"},{"postalcode":"18003","name":"El Aouana","wilayacode":"18"},{"postalcode":"18004","name":"Ziamma Mansouriah","wilayacode":"18"},{"postalcode":"18005","name":"Taher","wilayacode":"18"},{"postalcode":"18006","name":"Emir Abdelkader","wilayacode":"18"},{"postalcode":"18007","name":"Chekfa","wilayacode":"18"},{"postalcode":"18008","name":"Chahna","wilayacode":"18"},{"postalcode":"18009","name":"El Milia","wilayacode":"18"},{"postalcode":"18010","name":"Sidi Maarouf","wilayacode":"18"},{"postalcode":"18011","name":"Settara","wilayacode":"18"},{"postalcode":"18012","name":"El Ancer","wilayacode":"18"},{"postalcode":"18013","name":"Sidi Abdelaziz","wilayacode":"18"},{"postalcode":"18014","name":"Kaous","wilayacode":"18"},{"postalcode":"18015","name":"Ghebala","wilayacode":"18"},{"postalcode":"18016","name":"Bouraoui Belhadef","wilayacode":"18"},{"postalcode":"18017","name":"Djmila","wilayacode":"18"},{"postalcode":"18018","name":"Selma Benziada","wilayacode":"18"},{"postalcode":"18019","name":"Boussif Ouled Askeur","wilayacode":"18"},{"postalcode":"18020","name":"El Kennar Nouchfi","wilayacode":"18"},{"postalcode":"18021","name":"Ouled Yahia Khadrouch","wilayacode":"18"},{"postalcode":"18022","name":"Boudria Beni Yadjis","wilayacode":"18"},{"postalcode":"18023","name":"Kemir Oued Adjoul","wilayacode":"18"},{"postalcode":"18024","name":"Texena","wilayacode":"18"},{"postalcode":"18025","name":"Djemaa Beni Habibi","wilayacode":"18"},{"postalcode":"18026","name":"Bordj Taher","wilayacode":"18"},{"postalcode":"18027","name":"Ouled Rabah","wilayacode":"18"},{"postalcode":"18028","name":"Ouadjana","wilayacode":"18"},{"postalcode":"19001","name":"Setif","wilayacode":"19"},{"postalcode":"19002","name":"Ain El Kebira","wilayacode":"19"},{"postalcode":"19003","name":"Beni Aziz","wilayacode":"19"},{"postalcode":"19004","name":"Ouled Sidi Ahmed","wilayacode":"19"},{"postalcode":"19005","name":"Boutaleb","wilayacode":"19"},{"postalcode":"19006","name":"Ain Roua","wilayacode":"19"},{"postalcode":"19007","name":"Draa Kebila","wilayacode":"19"},{"postalcode":"19008","name":"Bir El Arch","wilayacode":"19"},{"postalcode":"19009","name":"Beni Chebana","wilayacode":"19"},{"postalcode":"19010","name":"Ouled Tebben","wilayacode":"19"},{"postalcode":"19011","name":"Hamma","wilayacode":"19"},{"postalcode":"19012","name":"Maaouia","wilayacode":"19"},{"postalcode":"19013","name":"Ain Legraj","wilayacode":"19"},{"postalcode":"19014","name":"Ain Abessa","wilayacode":"19"},{"postalcode":"19015","name":"Dehamcha","wilayacode":"19"},{"postalcode":"19016","name":"Babor","wilayacode":"19"},{"postalcode":"19017","name":"Guidjel","wilayacode":"19"},{"postalcode":"19018","name":"Ain Lahdjar","wilayacode":"19"},{"postalcode":"19019","name":"Bousselam","wilayacode":"19"},{"postalcode":"19020","name":"El Eulma","wilayacode":"19"},{"postalcode":"19021","name":"Djemila","wilayacode":"19"},{"postalcode":"19022","name":"Beni Ouartilane","wilayacode":"19"},{"postalcode":"19023","name":"Rosfa","wilayacode":"19"},{"postalcode":"19024","name":"Ouled Addouane","wilayacode":"19"},{"postalcode":"19025","name":"Belaa","wilayacode":"19"},{"postalcode":"19026","name":"Ain Arnat","wilayacode":"19"},{"postalcode":"19027","name":"Amoucha","wilayacode":"19"},{"postalcode":"19028","name":"Ain Oulmane","wilayacode":"19"},{"postalcode":"19029","name":"Beidha Bordj","wilayacode":"19"},{"postalcode":"19030","name":"Bouandas","wilayacode":"19"},{"postalcode":"19031","name":"Bazer Sakhra","wilayacode":"19"},{"postalcode":"19032","name":"Hammam Essokhna","wilayacode":"19"},{"postalcode":"19033","name":"Mezloug","wilayacode":"19"},{"postalcode":"19034","name":"Bir Haddada","wilayacode":"19"},{"postalcode":"19035","name":"Serdj El Ghoul","wilayacode":"19"},{"postalcode":"19036","name":"Harbil","wilayacode":"19"},{"postalcode":"19037","name":"El Ouricia","wilayacode":"19"},{"postalcode":"19038","name":"Tizi Nbechar","wilayacode":"19"},{"postalcode":"19039","name":"Salah Bey","wilayacode":"19"},{"postalcode":"19040","name":"Ain Azal","wilayacode":"19"},{"postalcode":"19041","name":"Guenzet","wilayacode":"19"},{"postalcode":"19042","name":"Talaifacene","wilayacode":"19"},{"postalcode":"19043","name":"Bougaa","wilayacode":"19"},{"postalcode":"19044","name":"Beni Fouda","wilayacode":"19"},{"postalcode":"19045","name":"Tachouda","wilayacode":"19"},{"postalcode":"19046","name":"Beni Mouhli","wilayacode":"19"},{"postalcode":"19047","name":"Ouled Sabor","wilayacode":"19"},{"postalcode":"19048","name":"Guellal","wilayacode":"19"},{"postalcode":"19049","name":"Ain Sebt","wilayacode":"19"},{"postalcode":"19050","name":"Hammam Guergour","wilayacode":"19"},{"postalcode":"19051","name":"Ait Naoual Mezada","wilayacode":"19"},{"postalcode":"19052","name":"Ksar El Abtal","wilayacode":"19"},{"postalcode":"19053","name":"Beni Hocine","wilayacode":"19"},{"postalcode":"19054","name":"Ait Tizi","wilayacode":"19"},{"postalcode":"19055","name":"Maouklane","wilayacode":"19"},{"postalcode":"19056","name":"Guelta Zerka","wilayacode":"19"},{"postalcode":"19057","name":"Oued El Barad","wilayacode":"19"},{"postalcode":"19058","name":"Taya","wilayacode":"19"},{"postalcode":"19059","name":"El Ouldja","wilayacode":"19"},{"postalcode":"19060","name":"Tella","wilayacode":"19"},{"postalcode":"20001","name":"Saida","wilayacode":"20"},{"postalcode":"20002","name":"Doui Thabet","wilayacode":"20"},{"postalcode":"20003","name":"Ain El Hadjar","wilayacode":"20"},{"postalcode":"20004","name":"Ouled Khaled","wilayacode":"20"},{"postalcode":"20005","name":"Moulay Larbi","wilayacode":"20"},{"postalcode":"20006","name":"Youb","wilayacode":"20"},{"postalcode":"20007","name":"Hounet","wilayacode":"20"},{"postalcode":"20008","name":"Sidi Amar","wilayacode":"20"},{"postalcode":"20009","name":"Sidi Boubekeur","wilayacode":"20"},{"postalcode":"20010","name":"El Hassasna","wilayacode":"20"},{"postalcode":"20011","name":"Maamora","wilayacode":"20"},{"postalcode":"20012","name":"Sidi Ahmed","wilayacode":"20"},{"postalcode":"20013","name":"Ain Sekhouna","wilayacode":"20"},{"postalcode":"20014","name":"Ouled Brahim","wilayacode":"20"},{"postalcode":"20015","name":"Tircine","wilayacode":"20"},{"postalcode":"20016","name":"Ain Soltane","wilayacode":"20"},{"postalcode":"21001","name":"Skikda","wilayacode":"21"},{"postalcode":"21002","name":"Ain Zouit","wilayacode":"21"},{"postalcode":"21003","name":"El Hadaik","wilayacode":"21"},{"postalcode":"21004","name":"Azzaba","wilayacode":"21"},{"postalcode":"21005","name":"Djendel Saadi Mohamed","wilayacode":"21"},{"postalcode":"21006","name":"Ain Cherchar","wilayacode":"21"},{"postalcode":"21007","name":"Bekkouche Lakhdar","wilayacode":"21"},{"postalcode":"21008","name":"Benazouz","wilayacode":"21"},{"postalcode":"21009","name":"Es Sebt","wilayacode":"21"},{"postalcode":"21010","name":"Collo","wilayacode":"21"},{"postalcode":"21011","name":"Beni Zid","wilayacode":"21"},{"postalcode":"21012","name":"Kerkera","wilayacode":"21"},{"postalcode":"21013","name":"Ouled Attia","wilayacode":"21"},{"postalcode":"21014","name":"Oued Zehour","wilayacode":"21"},{"postalcode":"21015","name":"Zitouna","wilayacode":"21"},{"postalcode":"21016","name":"El Harrouch","wilayacode":"21"},{"postalcode":"21017","name":"Zerdazas","wilayacode":"21"},{"postalcode":"21018","name":"Ouled Hebaba","wilayacode":"21"},{"postalcode":"21019","name":"Sidi Mezghiche","wilayacode":"21"},{"postalcode":"21020","name":"Emdjez Edchich","wilayacode":"21"},{"postalcode":"21021","name":"Beni Oulbane","wilayacode":"21"},{"postalcode":"21022","name":"Ain Bouziane","wilayacode":"21"},{"postalcode":"21023","name":"Ramdane Djamel","wilayacode":"21"},{"postalcode":"21024","name":"Beni Bachir","wilayacode":"21"},{"postalcode":"21025","name":"Salah Bouchaour","wilayacode":"21"},{"postalcode":"21026","name":"Tamalous","wilayacode":"21"},{"postalcode":"21027","name":"Ain Kechra","wilayacode":"21"},{"postalcode":"21028","name":"Oum Toub","wilayacode":"21"},{"postalcode":"21029","name":"Bein El Ouiden","wilayacode":"21"},{"postalcode":"21030","name":"Fil Fila","wilayacode":"21"},{"postalcode":"21031","name":"Cheraia","wilayacode":"21"},{"postalcode":"21032","name":"Kanoua","wilayacode":"21"},{"postalcode":"21033","name":"El Ghedir","wilayacode":"21"},{"postalcode":"21034","name":"Bouchtata","wilayacode":"21"},{"postalcode":"21035","name":"Ouldja Boulbalout","wilayacode":"21"},{"postalcode":"21036","name":"Kheneg Mayoum","wilayacode":"21"},{"postalcode":"21037","name":"Hamadi Krouma","wilayacode":"21"},{"postalcode":"21038","name":"El Marsa","wilayacode":"21"},{"postalcode":"22001","name":"Sidi Bel Abbes","wilayacode":"22"},{"postalcode":"22002","name":"Tessala","wilayacode":"22"},{"postalcode":"22003","name":"Sidi Brahim","wilayacode":"22"},{"postalcode":"22004","name":"Mostefa Ben Brahim","wilayacode":"22"},{"postalcode":"22005","name":"Telagh","wilayacode":"22"},{"postalcode":"22006","name":"Mezaourou","wilayacode":"22"},{"postalcode":"22007","name":"Boukhanafis","wilayacode":"22"},{"postalcode":"22008","name":"Sidi Ali Boussidi","wilayacode":"22"},{"postalcode":"22009","name":"Badredine El Mokrani","wilayacode":"22"},{"postalcode":"22010","name":"Marhoum","wilayacode":"22"},{"postalcode":"22011","name":"Tafissour","wilayacode":"22"},{"postalcode":"22012","name":"Amarnas","wilayacode":"22"},{"postalcode":"22013","name":"Tilmouni","wilayacode":"22"},{"postalcode":"22014","name":"Sidi Lahcene","wilayacode":"22"},{"postalcode":"22015","name":"Ain Thrid","wilayacode":"22"},{"postalcode":"22016","name":"Makedra","wilayacode":"22"},{"postalcode":"22017","name":"Tenira","wilayacode":"22"},{"postalcode":"22018","name":"Moulay Slissen","wilayacode":"22"},{"postalcode":"22019","name":"El Hacaiba","wilayacode":"22"},{"postalcode":"22020","name":"Hassi Zehana","wilayacode":"22"},{"postalcode":"22021","name":"Tabia","wilayacode":"22"},{"postalcode":"22022","name":"Merine","wilayacode":"22"},{"postalcode":"22023","name":"Ras El Ma","wilayacode":"22"},{"postalcode":"22024","name":"Ain Tindamine","wilayacode":"22"},{"postalcode":"22025","name":"Ain Kada","wilayacode":"22"},{"postalcode":"22026","name":"Mcid","wilayacode":"22"},{"postalcode":"22027","name":"Sidi Khaled","wilayacode":"22"},{"postalcode":"22028","name":"Ain El Berd","wilayacode":"22"},{"postalcode":"22029","name":"Sfissef","wilayacode":"22"},{"postalcode":"22030","name":"Ain Adden","wilayacode":"22"},{"postalcode":"22031","name":"Oued Taourira","wilayacode":"22"},{"postalcode":"22032","name":"Dhaya","wilayacode":"22"},{"postalcode":"22033","name":"Zerouala","wilayacode":"22"},{"postalcode":"22034","name":"Lamtar","wilayacode":"22"},{"postalcode":"22035","name":"Sidi Chaib","wilayacode":"22"},{"postalcode":"22036","name":"Sidi Dahou Dezairs","wilayacode":"22"},{"postalcode":"22037","name":"Oued Sbaa","wilayacode":"22"},{"postalcode":"22038","name":"Boudjebaa El Bordj","wilayacode":"22"},{"postalcode":"22039","name":"Sehala Thaoura","wilayacode":"22"},{"postalcode":"22040","name":"Sidi Yacoub","wilayacode":"22"},{"postalcode":"22041","name":"Sidi Hamadouche","wilayacode":"22"},{"postalcode":"22042","name":"Belarbi","wilayacode":"22"},{"postalcode":"22043","name":"Oued Sefioun","wilayacode":"22"},{"postalcode":"22044","name":"Teghalimet","wilayacode":"22"},{"postalcode":"22045","name":"Ben Badis","wilayacode":"22"},{"postalcode":"22046","name":"Sidi Ali Benyoub","wilayacode":"22"},{"postalcode":"22047","name":"Chetouane Belaila","wilayacode":"22"},{"postalcode":"22048","name":"Bir El Hammam","wilayacode":"22"},{"postalcode":"22049","name":"Taoudmout","wilayacode":"22"},{"postalcode":"22050","name":"Redjem Demouche","wilayacode":"22"},{"postalcode":"22051","name":"Benachiba Chelia","wilayacode":"22"},{"postalcode":"22052","name":"Hassi Dahou","wilayacode":"22"},{"postalcode":"23001","name":"Annaba","wilayacode":"23"},{"postalcode":"23002","name":"Berrahel","wilayacode":"23"},{"postalcode":"23003","name":"El Hadjar","wilayacode":"23"},{"postalcode":"23004","name":"Eulma","wilayacode":"23"},{"postalcode":"23005","name":"El Bouni","wilayacode":"23"},{"postalcode":"23006","name":"Oued El Aneb","wilayacode":"23"},{"postalcode":"23007","name":"Cheurfa","wilayacode":"23"},{"postalcode":"23008","name":"Seraidi","wilayacode":"23"},{"postalcode":"23009","name":"Ain Berda","wilayacode":"23"},{"postalcode":"23010","name":"Chetaibi","wilayacode":"23"},{"postalcode":"23011","name":"Sidi Amer","wilayacode":"23"},{"postalcode":"23012","name":"Treat","wilayacode":"23"},{"postalcode":"24001","name":"Guelma","wilayacode":"24"},{"postalcode":"24002","name":"Nechmaya","wilayacode":"24"},{"postalcode":"24003","name":"Bouati Mahmoud","wilayacode":"24"},{"postalcode":"24004","name":"Oued Zenati","wilayacode":"24"},{"postalcode":"24005","name":"Tamlouka","wilayacode":"24"},{"postalcode":"24006","name":"Oued Fragha","wilayacode":"24"},{"postalcode":"24007","name":"Ain Sandel","wilayacode":"24"},{"postalcode":"24008","name":"Ras El Agba","wilayacode":"24"},{"postalcode":"24009","name":"Dahouara","wilayacode":"24"},{"postalcode":"24010","name":"Belkhir","wilayacode":"24"},{"postalcode":"24011","name":"Ben Djarah","wilayacode":"24"},{"postalcode":"24012","name":"Bou Hamdane","wilayacode":"24"},{"postalcode":"24013","name":"Ain Makhlouf","wilayacode":"24"},{"postalcode":"24014","name":"Ain Ben Beida","wilayacode":"24"},{"postalcode":"24015","name":"Khezara","wilayacode":"24"},{"postalcode":"24016","name":"Beni Mezline","wilayacode":"24"},{"postalcode":"24017","name":"Bou Hachana","wilayacode":"24"},{"postalcode":"24018","name":"Guelaat Bou Sbaa","wilayacode":"24"},{"postalcode":"24019","name":"Hammam Maskhoutine","wilayacode":"24"},{"postalcode":"24020","name":"El Fedjoudj","wilayacode":"24"},{"postalcode":"24021","name":"Bordj Sabat","wilayacode":"24"},{"postalcode":"24022","name":"Hamman Nbail","wilayacode":"24"},{"postalcode":"24023","name":"Ain Larbi","wilayacode":"24"},{"postalcode":"24024","name":"Medjez Amar","wilayacode":"24"},{"postalcode":"24025","name":"Bouchegouf","wilayacode":"24"},{"postalcode":"24026","name":"Heliopolis","wilayacode":"24"},{"postalcode":"24027","name":"Ain Hessania","wilayacode":"24"},{"postalcode":"24028","name":"Roknia","wilayacode":"24"},{"postalcode":"24029","name":"Salaoua Announa","wilayacode":"24"},{"postalcode":"24030","name":"Medjez Sfa","wilayacode":"24"},{"postalcode":"24031","name":"Boumahra Ahmed","wilayacode":"24"},{"postalcode":"24032","name":"Ain Reggada","wilayacode":"24"},{"postalcode":"24033","name":"Oued Cheham","wilayacode":"24"},{"postalcode":"24034","name":"Djeballah Khemissi","wilayacode":"24"},{"postalcode":"25001","name":"Constantine","wilayacode":"25"},{"postalcode":"25002","name":"Hamma Bouziane","wilayacode":"25"},{"postalcode":"25003","name":"El Haria","wilayacode":"25"},{"postalcode":"25004","name":"Zighoud Youcef","wilayacode":"25"},{"postalcode":"25005","name":"Didouche Mourad","wilayacode":"25"},{"postalcode":"25006","name":"El Khroub","wilayacode":"25"},{"postalcode":"25007","name":"Ain Abid","wilayacode":"25"},{"postalcode":"25008","name":"Beni Hamiden","wilayacode":"25"},{"postalcode":"25009","name":"Ouled Rahmoune","wilayacode":"25"},{"postalcode":"25010","name":"Ain Smara","wilayacode":"25"},{"postalcode":"25011","name":"Mesaoud Boudjeriou","wilayacode":"25"},{"postalcode":"25012","name":"Ibn Ziad","wilayacode":"25"},{"postalcode":"26001","name":"Medea","wilayacode":"26"},{"postalcode":"26002","name":"Ouzera","wilayacode":"26"},{"postalcode":"26003","name":"Ouled Maaref","wilayacode":"26"},{"postalcode":"26004","name":"Ain Boucif","wilayacode":"26"},{"postalcode":"26005","name":"Aissaouia","wilayacode":"26"},{"postalcode":"26006","name":"Ouled Deide","wilayacode":"26"},{"postalcode":"26007","name":"El Omaria","wilayacode":"26"},{"postalcode":"26008","name":"Derrag","wilayacode":"26"},{"postalcode":"26009","name":"El Guelbelkebir","wilayacode":"26"},{"postalcode":"26010","name":"Bouaiche","wilayacode":"26"},{"postalcode":"26011","name":"Mezerena","wilayacode":"26"},{"postalcode":"26012","name":"Ouled Brahim","wilayacode":"26"},{"postalcode":"26013","name":"Damiat","wilayacode":"26"},{"postalcode":"26014","name":"Sidi Ziane","wilayacode":"26"},{"postalcode":"26015","name":"Tamesguida","wilayacode":"26"},{"postalcode":"26016","name":"El Hamdania","wilayacode":"26"},{"postalcode":"26017","name":"Kef Lakhdar","wilayacode":"26"},{"postalcode":"26018","name":"Chelalet El Adhaoura","wilayacode":"26"},{"postalcode":"26019","name":"Bouskene","wilayacode":"26"},{"postalcode":"26020","name":"Rebaia","wilayacode":"26"},{"postalcode":"26021","name":"Bouchrahil","wilayacode":"26"},{"postalcode":"26022","name":"Ouled Hellal","wilayacode":"26"},{"postalcode":"26023","name":"Tafraout","wilayacode":"26"},{"postalcode":"26024","name":"Baata","wilayacode":"26"},{"postalcode":"26025","name":"Boghar","wilayacode":"26"},{"postalcode":"26026","name":"Sidi Naamane","wilayacode":"26"},{"postalcode":"26027","name":"Ouled Bouachra","wilayacode":"26"},{"postalcode":"26028","name":"Sidi Zahar","wilayacode":"26"},{"postalcode":"26029","name":"Oued Harbil","wilayacode":"26"},{"postalcode":"26030","name":"Benchicao","wilayacode":"26"},{"postalcode":"26031","name":"Sidi Damed","wilayacode":"26"},{"postalcode":"26032","name":"Aziz","wilayacode":"26"},{"postalcode":"26033","name":"Souagui","wilayacode":"26"},{"postalcode":"26034","name":"Zoubiria","wilayacode":"26"},{"postalcode":"26035","name":"Ksar El Boukhari","wilayacode":"26"},{"postalcode":"26036","name":"El Azizia","wilayacode":"26"},{"postalcode":"26037","name":"Djouab","wilayacode":"26"},{"postalcode":"26038","name":"Chahbounia","wilayacode":"26"},{"postalcode":"26039","name":"Meghraoua","wilayacode":"26"},{"postalcode":"26040","name":"Cheniguel","wilayacode":"26"},{"postalcode":"26041","name":"Ain Ouksir","wilayacode":"26"},{"postalcode":"26042","name":"Oum El Djalil","wilayacode":"26"},{"postalcode":"26043","name":"Ouamri","wilayacode":"26"},{"postalcode":"26044","name":"Si Mahdjoub","wilayacode":"26"},{"postalcode":"26045","name":"Tlatet Eddoair","wilayacode":"26"},{"postalcode":"26046","name":"Beni Slimane","wilayacode":"26"},{"postalcode":"26047","name":"Berrouaghia","wilayacode":"26"},{"postalcode":"26048","name":"Seghouane","wilayacode":"26"},{"postalcode":"26049","name":"Meftaha","wilayacode":"26"},{"postalcode":"26050","name":"Mihoub","wilayacode":"26"},{"postalcode":"26051","name":"Boughezoul","wilayacode":"26"},{"postalcode":"26052","name":"Tablat","wilayacode":"26"},{"postalcode":"26053","name":"Deux Bassins","wilayacode":"26"},{"postalcode":"26054","name":"Draa Essamar","wilayacode":"26"},{"postalcode":"26055","name":"Sidi Errabia","wilayacode":"26"},{"postalcode":"26056","name":"Bir Ben Laabed","wilayacode":"26"},{"postalcode":"26057","name":"El Ouinet","wilayacode":"26"},{"postalcode":"26058","name":"Ouled Antar","wilayacode":"26"},{"postalcode":"26059","name":"Bouaichoune","wilayacode":"26"},{"postalcode":"26060","name":"Hannacha","wilayacode":"26"},{"postalcode":"26061","name":"Sedraia","wilayacode":"26"},{"postalcode":"26062","name":"Medjebar","wilayacode":"26"},{"postalcode":"26063","name":"Khams Djouamaa","wilayacode":"26"},{"postalcode":"26064","name":"Saneg","wilayacode":"26"},{"postalcode":"27001","name":"Mostaganem","wilayacode":"27"},{"postalcode":"27002","name":"Sayada","wilayacode":"27"},{"postalcode":"27003","name":"Fornaka","wilayacode":"27"},{"postalcode":"27004","name":"Stidia","wilayacode":"27"},{"postalcode":"27005","name":"Ain Nouissy","wilayacode":"27"},{"postalcode":"27006","name":"Hassi Maameche","wilayacode":"27"},{"postalcode":"27007","name":"Ain Tadles","wilayacode":"27"},{"postalcode":"27008","name":"Sour","wilayacode":"27"},{"postalcode":"27009","name":"Oued El Kheir","wilayacode":"27"},{"postalcode":"27010","name":"Sidi Bellater","wilayacode":"27"},{"postalcode":"27011","name":"Kheiredine","wilayacode":"27"},{"postalcode":"27012","name":"Sidi Ali","wilayacode":"27"},{"postalcode":"27013","name":"Abdelmalek Ramdane","wilayacode":"27"},{"postalcode":"27014","name":"Hadjadj","wilayacode":"27"},{"postalcode":"27015","name":"Nekmaria","wilayacode":"27"},{"postalcode":"27016","name":"Sidi Lakhdar","wilayacode":"27"},{"postalcode":"27017","name":"Achaacha","wilayacode":"27"},{"postalcode":"27018","name":"Khadra","wilayacode":"27"},{"postalcode":"27019","name":"Bouguirat","wilayacode":"27"},{"postalcode":"27020","name":"Sirat","wilayacode":"27"},{"postalcode":"27021","name":"Ain Sidi Cherif","wilayacode":"27"},{"postalcode":"27022","name":"Mesra","wilayacode":"27"},{"postalcode":"27023","name":"Mansourah","wilayacode":"27"},{"postalcode":"27024","name":"Souaflia","wilayacode":"27"},{"postalcode":"27025","name":"Ouled Boughalem","wilayacode":"27"},{"postalcode":"27026","name":"Ouled Maallah","wilayacode":"27"},{"postalcode":"27027","name":"Mezghrane","wilayacode":"27"},{"postalcode":"27028","name":"Ain Boudinar","wilayacode":"27"},{"postalcode":"27029","name":"Tazgait","wilayacode":"27"},{"postalcode":"27030","name":"Safsaf","wilayacode":"27"},{"postalcode":"27031","name":"Touahria","wilayacode":"27"},{"postalcode":"27032","name":"El Hassiane","wilayacode":"27"},{"postalcode":"28001","name":"Msila","wilayacode":"28"},{"postalcode":"28002","name":"Maadid","wilayacode":"28"},{"postalcode":"28003","name":"Hammam Dhalaa","wilayacode":"28"},{"postalcode":"28004","name":"Ouled Derradj","wilayacode":"28"},{"postalcode":"28005","name":"Tarmount","wilayacode":"28"},{"postalcode":"28006","name":"Mtarfa","wilayacode":"28"},{"postalcode":"28007","name":"Khoubana","wilayacode":"28"},{"postalcode":"28008","name":"Mcif","wilayacode":"28"},{"postalcode":"28009","name":"Chellal","wilayacode":"28"},{"postalcode":"28010","name":"Ouled Madhi","wilayacode":"28"},{"postalcode":"28011","name":"Magra","wilayacode":"28"},{"postalcode":"28012","name":"Berhoum","wilayacode":"28"},{"postalcode":"28013","name":"Ain Khadra","wilayacode":"28"},{"postalcode":"28014","name":"Ouled Addi Guebala","wilayacode":"28"},{"postalcode":"28015","name":"Belaiba","wilayacode":"28"},{"postalcode":"28016","name":"Sidi Aissa","wilayacode":"28"},{"postalcode":"28017","name":"Ain El Hadjel","wilayacode":"28"},{"postalcode":"28018","name":"Sidi Hadjeres","wilayacode":"28"},{"postalcode":"28019","name":"Ouanougha","wilayacode":"28"},{"postalcode":"28020","name":"Bou Saada","wilayacode":"28"},{"postalcode":"28021","name":"Ouled Sidi Brahim","wilayacode":"28"},{"postalcode":"28022","name":"Sidi Ameur","wilayacode":"28"},{"postalcode":"28023","name":"Tamsa","wilayacode":"28"},{"postalcode":"28024","name":"Ben Srour","wilayacode":"28"},{"postalcode":"28025","name":"Ouled Slimane","wilayacode":"28"},{"postalcode":"28026","name":"El Houamed","wilayacode":"28"},{"postalcode":"28027","name":"El Hamel","wilayacode":"28"},{"postalcode":"28028","name":"Ouled Mansour","wilayacode":"28"},{"postalcode":"28029","name":"Maarif","wilayacode":"28"},{"postalcode":"28030","name":"Dehahna","wilayacode":"28"},{"postalcode":"28031","name":"Bouti Sayah","wilayacode":"28"},{"postalcode":"28032","name":"Khettouti Sed Djir","wilayacode":"28"},{"postalcode":"28033","name":"Zarzour","wilayacode":"28"},{"postalcode":"28034","name":"Oued Chair","wilayacode":"28"},{"postalcode":"28035","name":"Benzouh","wilayacode":"28"},{"postalcode":"28036","name":"Bir Foda","wilayacode":"28"},{"postalcode":"28037","name":"Ain Fares","wilayacode":"28"},{"postalcode":"28038","name":"Sidi Mhamed","wilayacode":"28"},{"postalcode":"28039","name":"Ouled Atia","wilayacode":"28"},{"postalcode":"28040","name":"Souamaa","wilayacode":"28"},{"postalcode":"28041","name":"Ain El Melh","wilayacode":"28"},{"postalcode":"28042","name":"Medjedel","wilayacode":"28"},{"postalcode":"28043","name":"Slim","wilayacode":"28"},{"postalcode":"28044","name":"Ain Errich","wilayacode":"28"},{"postalcode":"28045","name":"Beni Ilmane","wilayacode":"28"},{"postalcode":"28046","name":"Oultene","wilayacode":"28"},{"postalcode":"28047","name":"Djebel Messaad","wilayacode":"28"},{"postalcode":"29001","name":"Mascara","wilayacode":"29"},{"postalcode":"29002","name":"Bou Hanifia","wilayacode":"29"},{"postalcode":"29003","name":"Tizi","wilayacode":"29"},{"postalcode":"29004","name":"Hacine","wilayacode":"29"},{"postalcode":"29005","name":"Maoussa","wilayacode":"29"},{"postalcode":"29006","name":"Teghennif","wilayacode":"29"},{"postalcode":"29007","name":"El Hachem","wilayacode":"29"},{"postalcode":"29008","name":"Sidi Kada","wilayacode":"29"},{"postalcode":"29009","name":"Zelmata","wilayacode":"29"},{"postalcode":"29010","name":"Oued El Abtal","wilayacode":"29"},{"postalcode":"29011","name":"Ain Ferah","wilayacode":"29"},{"postalcode":"29012","name":"Ghriss","wilayacode":"29"},{"postalcode":"29013","name":"Froha","wilayacode":"29"},{"postalcode":"29014","name":"Matemore","wilayacode":"29"},{"postalcode":"29015","name":"Makdha","wilayacode":"29"},{"postalcode":"29016","name":"Sidi Boussaid","wilayacode":"29"},{"postalcode":"29017","name":"El Bordj","wilayacode":"29"},{"postalcode":"29018","name":"Ain Fekan","wilayacode":"29"},{"postalcode":"29019","name":"Benian","wilayacode":"29"},{"postalcode":"29020","name":"Khalouia","wilayacode":"29"},{"postalcode":"29021","name":"El Menaouer","wilayacode":"29"},{"postalcode":"29022","name":"Oued Taria","wilayacode":"29"},{"postalcode":"29023","name":"Aouf","wilayacode":"29"},{"postalcode":"29024","name":"Ain Fares","wilayacode":"29"},{"postalcode":"29025","name":"Ain Frass","wilayacode":"29"},{"postalcode":"29026","name":"Sig","wilayacode":"29"},{"postalcode":"29027","name":"Oggaz","wilayacode":"29"},{"postalcode":"29028","name":"Alaimia","wilayacode":"29"},{"postalcode":"29029","name":"El Gaada","wilayacode":"29"},{"postalcode":"29030","name":"Zahana","wilayacode":"29"},{"postalcode":"29031","name":"Mohammadia","wilayacode":"29"},{"postalcode":"29032","name":"Sidi Abdelmoumene","wilayacode":"29"},{"postalcode":"29033","name":"Ferraguig","wilayacode":"29"},{"postalcode":"29034","name":"El Ghomri","wilayacode":"29"},{"postalcode":"29035","name":"Sedjerara","wilayacode":"29"},{"postalcode":"29036","name":"Moctadouz","wilayacode":"29"},{"postalcode":"29037","name":"Bou Henni","wilayacode":"29"},{"postalcode":"29038","name":"Guettena","wilayacode":"29"},{"postalcode":"29039","name":"El Mamounia","wilayacode":"29"},{"postalcode":"29040","name":"El Keurt","wilayacode":"29"},{"postalcode":"29041","name":"Gharrous","wilayacode":"29"},{"postalcode":"29042","name":"Gherdjoum","wilayacode":"29"},{"postalcode":"29043","name":"Chorfa","wilayacode":"29"},{"postalcode":"29044","name":"Ras Ain Amirouche","wilayacode":"29"},{"postalcode":"29045","name":"Nesmot","wilayacode":"29"},{"postalcode":"29046","name":"Sidi Abdeldjebar","wilayacode":"29"},{"postalcode":"29047","name":"Sehailia","wilayacode":"29"},{"postalcode":"30001","name":"Ouargla","wilayacode":"30"},{"postalcode":"30002","name":"Ain Beida","wilayacode":"30"},{"postalcode":"30003","name":"Ngoussa","wilayacode":"30"},{"postalcode":"30004","name":"Hassi Messaoud","wilayacode":"30"},{"postalcode":"30005","name":"Rouissat","wilayacode":"30"},{"postalcode":"30006","name":"Balidat Ameur","wilayacode":"30"},{"postalcode":"30007","name":"Tebesbest","wilayacode":"30"},{"postalcode":"30008","name":"Nezla","wilayacode":"30"},{"postalcode":"30009","name":"Zaouia El Abidia","wilayacode":"30"},{"postalcode":"30010","name":"Sidi Slimane","wilayacode":"30"},{"postalcode":"30011","name":"Sidi Khouiled","wilayacode":"30"},{"postalcode":"30012","name":"Hassi Ben Abdellah","wilayacode":"30"},{"postalcode":"30013","name":"Touggourt","wilayacode":"30"},{"postalcode":"30014","name":"El Hadjira","wilayacode":"30"},{"postalcode":"30015","name":"Taibet","wilayacode":"30"},{"postalcode":"30016","name":"Tamacine","wilayacode":"30"},{"postalcode":"30017","name":"Benaceur","wilayacode":"30"},{"postalcode":"30018","name":"Mnaguer","wilayacode":"30"},{"postalcode":"30019","name":"Megarine","wilayacode":"30"},{"postalcode":"30020","name":"El Allia","wilayacode":"30"},{"postalcode":"30021","name":"El Borma","wilayacode":"30"},{"postalcode":"31001","name":"Oran","wilayacode":"31"},{"postalcode":"31002","name":"Gdyel","wilayacode":"31"},{"postalcode":"31003","name":"Bir El Djir","wilayacode":"31"},{"postalcode":"31004","name":"Hassi Bounif","wilayacode":"31"},{"postalcode":"31005","name":"Es Senia","wilayacode":"31"},{"postalcode":"31006","name":"Arzew","wilayacode":"31"},{"postalcode":"31007","name":"Bethioua","wilayacode":"31"},{"postalcode":"31008","name":"Marsat El Hadjadj","wilayacode":"31"},{"postalcode":"31009","name":"Ain Turk","wilayacode":"31"},{"postalcode":"31010","name":"El Ancar","wilayacode":"31"},{"postalcode":"31011","name":"Oued Tlelat","wilayacode":"31"},{"postalcode":"31012","name":"Tafraoui","wilayacode":"31"},{"postalcode":"31013","name":"Sidi Chami","wilayacode":"31"},{"postalcode":"31014","name":"Boufatis","wilayacode":"31"},{"postalcode":"31015","name":"Mers El Kebir","wilayacode":"31"},{"postalcode":"31016","name":"Bousfer","wilayacode":"31"},{"postalcode":"31017","name":"El Karma","wilayacode":"31"},{"postalcode":"31018","name":"El Braya","wilayacode":"31"},{"postalcode":"31019","name":"Hassi Ben Okba","wilayacode":"31"},{"postalcode":"31020","name":"Ben Freha","wilayacode":"31"},{"postalcode":"31021","name":"Hassi Mefsoukh","wilayacode":"31"},{"postalcode":"31022","name":"Sidi Ben Yabka","wilayacode":"31"},{"postalcode":"31023","name":"Messerghin","wilayacode":"31"},{"postalcode":"31024","name":"Boutlelis","wilayacode":"31"},{"postalcode":"31025","name":"Ain Kerma","wilayacode":"31"},{"postalcode":"31026","name":"Ain Biya","wilayacode":"31"},{"postalcode":"32001","name":"El Bayadh","wilayacode":"32"},{"postalcode":"32002","name":"Rogassa","wilayacode":"32"},{"postalcode":"32003","name":"Stitten","wilayacode":"32"},{"postalcode":"32004","name":"Brezina","wilayacode":"32"},{"postalcode":"32005","name":"Ghassoul","wilayacode":"32"},{"postalcode":"32006","name":"Boualem","wilayacode":"32"},{"postalcode":"32007","name":"El Abiodh Sidi Cheikh","wilayacode":"32"},{"postalcode":"32008","name":"Ain El Orak","wilayacode":"32"},{"postalcode":"32009","name":"Arbaouat","wilayacode":"32"},{"postalcode":"32010","name":"Bougtoub","wilayacode":"32"},{"postalcode":"32011","name":"El Kheither","wilayacode":"32"},{"postalcode":"32012","name":"Kef El Ahmar","wilayacode":"32"},{"postalcode":"32013","name":"Boussemghoun","wilayacode":"32"},{"postalcode":"32014","name":"Chellala","wilayacode":"32"},{"postalcode":"32015","name":"Krakda","wilayacode":"32"},{"postalcode":"32016","name":"El Bnoud","wilayacode":"32"},{"postalcode":"32017","name":"Cheguig","wilayacode":"32"},{"postalcode":"32018","name":"Sidi Ameur","wilayacode":"32"},{"postalcode":"32019","name":"El Mehara","wilayacode":"32"},{"postalcode":"32020","name":"Tousmouline","wilayacode":"32"},{"postalcode":"32021","name":"Sidi Slimane","wilayacode":"32"},{"postalcode":"32022","name":"Sidi Tifour","wilayacode":"32"},{"postalcode":"33001","name":"Illizi","wilayacode":"33"},{"postalcode":"33002","name":"Djanet","wilayacode":"33"},{"postalcode":"33003","name":"Debdeb","wilayacode":"33"},{"postalcode":"33004","name":"Bordj Omar Driss","wilayacode":"33"},{"postalcode":"33005","name":"Bordj El Haouasse","wilayacode":"33"},{"postalcode":"33006","name":"In Amenas","wilayacode":"33"},{"postalcode":"34001","name":"Bordj Bou Arreridj","wilayacode":"34"},{"postalcode":"34002","name":"Ras El Oued","wilayacode":"34"},{"postalcode":"34003","name":"Bordj Zemoura","wilayacode":"34"},{"postalcode":"34004","name":"Mansoura","wilayacode":"34"},{"postalcode":"34005","name":"El Mhir","wilayacode":"34"},{"postalcode":"34006","name":"Ben Daoud","wilayacode":"34"},{"postalcode":"34007","name":"El Achir","wilayacode":"34"},{"postalcode":"34008","name":"Ain Taghrout","wilayacode":"34"},{"postalcode":"34009","name":"Bordj Ghdir","wilayacode":"34"},{"postalcode":"34010","name":"Sidi Embarek","wilayacode":"34"},{"postalcode":"34011","name":"El Hamadia","wilayacode":"34"},{"postalcode":"34012","name":"Belimour","wilayacode":"34"},{"postalcode":"34013","name":"Medjana","wilayacode":"34"},{"postalcode":"34014","name":"Teniet En Nasr","wilayacode":"34"},{"postalcode":"34015","name":"Djaafra","wilayacode":"34"},{"postalcode":"34016","name":"El Main","wilayacode":"34"},{"postalcode":"34017","name":"Ouled Brahem","wilayacode":"34"},{"postalcode":"34018","name":"Ouled Dahmane","wilayacode":"34"},{"postalcode":"34019","name":"Hasnaoua","wilayacode":"34"},{"postalcode":"34020","name":"Khelil","wilayacode":"34"},{"postalcode":"34021","name":"Taglait","wilayacode":"34"},{"postalcode":"34022","name":"Ksour","wilayacode":"34"},{"postalcode":"34023","name":"Ouled Sidi Brahim","wilayacode":"34"},{"postalcode":"34024","name":"Tafreg","wilayacode":"34"},{"postalcode":"34025","name":"Colla","wilayacode":"34"},{"postalcode":"34026","name":"Tixter","wilayacode":"34"},{"postalcode":"34027","name":"El Ach","wilayacode":"34"},{"postalcode":"34028","name":"El Anseur","wilayacode":"34"},{"postalcode":"34029","name":"Tesmart","wilayacode":"34"},{"postalcode":"34030","name":"Ain Tesra","wilayacode":"34"},{"postalcode":"34031","name":"Bir Kasdali","wilayacode":"34"},{"postalcode":"34032","name":"Ghilassa","wilayacode":"34"},{"postalcode":"34033","name":"Rabta","wilayacode":"34"},{"postalcode":"34034","name":"Haraza","wilayacode":"34"},{"postalcode":"35001","name":"Boumerdes","wilayacode":"35"},{"postalcode":"35002","name":"Boudouaou","wilayacode":"35"},{"postalcode":"35004","name":"Afir","wilayacode":"35"},{"postalcode":"35005","name":"Bordj Menaiel","wilayacode":"35"},{"postalcode":"35006","name":"Baghlia","wilayacode":"35"},{"postalcode":"35007","name":"Sidi Daoud","wilayacode":"35"},{"postalcode":"35008","name":"Naciria","wilayacode":"35"},{"postalcode":"35009","name":"Djinet","wilayacode":"35"},{"postalcode":"35010","name":"Isser","wilayacode":"35"},{"postalcode":"35011","name":"Zemmouri","wilayacode":"35"},{"postalcode":"35012","name":"Si Mustapha","wilayacode":"35"},{"postalcode":"35013","name":"Tidjelabine","wilayacode":"35"},{"postalcode":"35014","name":"Chabet El Ameur","wilayacode":"35"},{"postalcode":"35015","name":"Thenia","wilayacode":"35"},{"postalcode":"35018","name":"Timezrit","wilayacode":"35"},{"postalcode":"35019","name":"Corso","wilayacode":"35"},{"postalcode":"35020","name":"Ouled Moussa","wilayacode":"35"},{"postalcode":"35021","name":"Larbatache","wilayacode":"35"},{"postalcode":"35022","name":"Bouzegza Keddara","wilayacode":"35"},{"postalcode":"35025","name":"Taourga","wilayacode":"35"},{"postalcode":"35026","name":"Ouled Aissa","wilayacode":"35"},{"postalcode":"35027","name":"Ben Choud","wilayacode":"35"},{"postalcode":"35028","name":"Dellys","wilayacode":"35"},{"postalcode":"35029","name":"Ammal","wilayacode":"35"},{"postalcode":"35030","name":"Beni Amrane","wilayacode":"35"},{"postalcode":"35031","name":"Souk El Had","wilayacode":"35"},{"postalcode":"35032","name":"Boudouaou El Bahri","wilayacode":"35"},{"postalcode":"35033","name":"Ouled Hedadj","wilayacode":"35"},{"postalcode":"35035","name":"Laghata","wilayacode":"35"},{"postalcode":"35036","name":"Hammedi","wilayacode":"35"},{"postalcode":"35037","name":"Khemis El Khechna","wilayacode":"35"},{"postalcode":"35038","name":"El Kharrouba","wilayacode":"35"},{"postalcode":"36001","name":"El Tarf","wilayacode":"36"},{"postalcode":"36002","name":"Bouhadjar","wilayacode":"36"},{"postalcode":"36003","name":"Ben Mhidi","wilayacode":"36"},{"postalcode":"36004","name":"Bougous","wilayacode":"36"},{"postalcode":"36005","name":"El Kala","wilayacode":"36"},{"postalcode":"36006","name":"Ain El Assel","wilayacode":"36"},{"postalcode":"36007","name":"El Aioun","wilayacode":"36"},{"postalcode":"36008","name":"Bouteldja","wilayacode":"36"},{"postalcode":"36009","name":"Souarekh","wilayacode":"36"},{"postalcode":"36010","name":"Berrihane","wilayacode":"36"},{"postalcode":"36011","name":"Lac Des Oiseaux","wilayacode":"36"},{"postalcode":"36012","name":"Chefia","wilayacode":"36"},{"postalcode":"36013","name":"Drean","wilayacode":"36"},{"postalcode":"36014","name":"Chihani","wilayacode":"36"},{"postalcode":"36015","name":"Chebaita Mokhtar","wilayacode":"36"},{"postalcode":"36016","name":"Besbes","wilayacode":"36"},{"postalcode":"36017","name":"Asfour","wilayacode":"36"},{"postalcode":"36018","name":"Echatt","wilayacode":"36"},{"postalcode":"36019","name":"Zerizer","wilayacode":"36"},{"postalcode":"36020","name":"Zitouna","wilayacode":"36"},{"postalcode":"36021","name":"Ain Kerma","wilayacode":"36"},{"postalcode":"36022","name":"Oued Zitoun","wilayacode":"36"},{"postalcode":"36023","name":"Hammam Beni Salah","wilayacode":"36"},{"postalcode":"36024","name":"Raml Souk","wilayacode":"36"},{"postalcode":"37001","name":"Tindouf","wilayacode":"37"},{"postalcode":"37002","name":"Oum El Assel","wilayacode":"37"},{"postalcode":"38001","name":"Tissemsilt","wilayacode":"38"},{"postalcode":"38002","name":"Bordj Bou Naama","wilayacode":"38"},{"postalcode":"38003","name":"Theniet El Had","wilayacode":"38"},{"postalcode":"38004","name":"Lazharia","wilayacode":"38"},{"postalcode":"38005","name":"Beni Chaib","wilayacode":"38"},{"postalcode":"38006","name":"Lardjem","wilayacode":"38"},{"postalcode":"38007","name":"Melaab","wilayacode":"38"},{"postalcode":"38008","name":"Sidi Lantri","wilayacode":"38"},{"postalcode":"38009","name":"Bordj El Emir Abdelkader","wilayacode":"38"},{"postalcode":"38010","name":"Layoune","wilayacode":"38"},{"postalcode":"38011","name":"Khemisti","wilayacode":"38"},{"postalcode":"38012","name":"Ouled Bessem","wilayacode":"38"},{"postalcode":"38013","name":"Ammari","wilayacode":"38"},{"postalcode":"38014","name":"Youssoufia","wilayacode":"38"},{"postalcode":"38015","name":"Sidi Boutouchent","wilayacode":"38"},{"postalcode":"38016","name":"Larbaa","wilayacode":"38"},{"postalcode":"38017","name":"Maasem","wilayacode":"38"},{"postalcode":"38018","name":"Sidi Abed","wilayacode":"38"},{"postalcode":"38019","name":"Tamalaht","wilayacode":"38"},{"postalcode":"38020","name":"Sidi Slimane","wilayacode":"38"},{"postalcode":"38021","name":"Boucaid","wilayacode":"38"},{"postalcode":"38022","name":"Beni Lahcene","wilayacode":"38"},{"postalcode":"39001","name":"El Oued","wilayacode":"39"},{"postalcode":"39002","name":"Robbah","wilayacode":"39"},{"postalcode":"39003","name":"Oued El Alenda","wilayacode":"39"},{"postalcode":"39004","name":"Bayadha","wilayacode":"39"},{"postalcode":"39005","name":"Nakhla","wilayacode":"39"},{"postalcode":"39006","name":"Guemar","wilayacode":"39"},{"postalcode":"39007","name":"Kouinine","wilayacode":"39"},{"postalcode":"39008","name":"Reguiba","wilayacode":"39"},{"postalcode":"39009","name":"Hamraia","wilayacode":"39"},{"postalcode":"39010","name":"Taghzout","wilayacode":"39"},{"postalcode":"39011","name":"Debila","wilayacode":"39"},{"postalcode":"39012","name":"Hassani Abdelkrim","wilayacode":"39"},{"postalcode":"39013","name":"Hassi Khelifa","wilayacode":"39"},{"postalcode":"39014","name":"Taleb Larbi","wilayacode":"39"},{"postalcode":"39015","name":"Douar El Ma","wilayacode":"39"},{"postalcode":"39016","name":"Sidi Aoun","wilayacode":"39"},{"postalcode":"39017","name":"Trifaoui","wilayacode":"39"},{"postalcode":"39018","name":"Magrane","wilayacode":"39"},{"postalcode":"39019","name":"Beni Guecha","wilayacode":"39"},{"postalcode":"39020","name":"Ourmas","wilayacode":"39"},{"postalcode":"39021","name":"Still","wilayacode":"39"},{"postalcode":"39022","name":"Mrara","wilayacode":"39"},{"postalcode":"39023","name":"Sidi Khellil","wilayacode":"39"},{"postalcode":"39024","name":"Tendla","wilayacode":"39"},{"postalcode":"39025","name":"El Ogla","wilayacode":"39"},{"postalcode":"39026","name":"Mih Ouansa","wilayacode":"39"},{"postalcode":"39027","name":"El Mghair","wilayacode":"39"},{"postalcode":"39028","name":"Djamaa","wilayacode":"39"},{"postalcode":"39029","name":"Oum Touyour","wilayacode":"39"},{"postalcode":"39030","name":"Sidi Amrane","wilayacode":"39"},{"postalcode":"40001","name":"Khenchela","wilayacode":"40"},{"postalcode":"40002","name":"Mtoussa","wilayacode":"40"},{"postalcode":"40003","name":"Kais","wilayacode":"40"},{"postalcode":"40004","name":"Baghai","wilayacode":"40"},{"postalcode":"40005","name":"El Hamma","wilayacode":"40"},{"postalcode":"40006","name":"Ain Touila","wilayacode":"40"},{"postalcode":"40007","name":"Taouzianat","wilayacode":"40"},{"postalcode":"40008","name":"Bouhmama","wilayacode":"40"},{"postalcode":"40009","name":"El Oueldja","wilayacode":"40"},{"postalcode":"40010","name":"Remila","wilayacode":"40"},{"postalcode":"40011","name":"Cherchar","wilayacode":"40"},{"postalcode":"40012","name":"Djellal","wilayacode":"40"},{"postalcode":"40013","name":"Babar","wilayacode":"40"},{"postalcode":"40014","name":"Tamza","wilayacode":"40"},{"postalcode":"40015","name":"Ensigha","wilayacode":"40"},{"postalcode":"40016","name":"Ouled Rechache","wilayacode":"40"},{"postalcode":"40017","name":"El Mahmal","wilayacode":"40"},{"postalcode":"40018","name":"Msara","wilayacode":"40"},{"postalcode":"40019","name":"Yabous","wilayacode":"40"},{"postalcode":"40020","name":"Khirane","wilayacode":"40"},{"postalcode":"40021","name":"Chelia","wilayacode":"40"},{"postalcode":"41001","name":"Souk Ahras","wilayacode":"41"},{"postalcode":"41002","name":"Sedrata","wilayacode":"41"},{"postalcode":"41003","name":"Hanancha","wilayacode":"41"},{"postalcode":"41004","name":"Mechroha","wilayacode":"41"},{"postalcode":"41005","name":"Ouled Driss","wilayacode":"41"},{"postalcode":"41006","name":"Tiffech","wilayacode":"41"},{"postalcode":"41007","name":"Zaarouria","wilayacode":"41"},{"postalcode":"41008","name":"Taoura","wilayacode":"41"},{"postalcode":"41009","name":"Drea","wilayacode":"41"},{"postalcode":"41010","name":"Haddada","wilayacode":"41"},{"postalcode":"41011","name":"Khedara","wilayacode":"41"},{"postalcode":"41012","name":"Merahna","wilayacode":"41"},{"postalcode":"41013","name":"Ouled Moumen","wilayacode":"41"},{"postalcode":"41014","name":"Bir Bouhouche","wilayacode":"41"},{"postalcode":"41015","name":"Mdaourouche","wilayacode":"41"},{"postalcode":"41016","name":"Oum El Adhaim","wilayacode":"41"},{"postalcode":"41017","name":"Ain Zana","wilayacode":"41"},{"postalcode":"41018","name":"Ain Soltane","wilayacode":"41"},{"postalcode":"41019","name":"Quillen","wilayacode":"41"},{"postalcode":"41020","name":"Sidi Fredj","wilayacode":"41"},{"postalcode":"41021","name":"Safel El Ouiden","wilayacode":"41"},{"postalcode":"41022","name":"Ragouba","wilayacode":"41"},{"postalcode":"41023","name":"Khemissa","wilayacode":"41"},{"postalcode":"41024","name":"Oued Keberit","wilayacode":"41"},{"postalcode":"41025","name":"Terraguelt","wilayacode":"41"},{"postalcode":"41026","name":"Zouabi","wilayacode":"41"},{"postalcode":"42001","name":"Tipaza","wilayacode":"42"},{"postalcode":"42002","name":"Menaceur","wilayacode":"42"},{"postalcode":"42003","name":"Larhat","wilayacode":"42"},{"postalcode":"42004","name":"Douaouda","wilayacode":"42"},{"postalcode":"42005","name":"Bourkika","wilayacode":"42"},{"postalcode":"42006","name":"Khemisti","wilayacode":"42"},{"postalcode":"42010","name":"Aghabal","wilayacode":"42"},{"postalcode":"42012","name":"Hadjout","wilayacode":"42"},{"postalcode":"42013","name":"Sidi Amar","wilayacode":"42"},{"postalcode":"42014","name":"Gouraya","wilayacode":"42"},{"postalcode":"42015","name":"Nodor","wilayacode":"42"},{"postalcode":"42016","name":"Chaiba","wilayacode":"42"},{"postalcode":"42017","name":"Ain Tagourait","wilayacode":"42"},{"postalcode":"42022","name":"Cherchel","wilayacode":"42"},{"postalcode":"42023","name":"Damous","wilayacode":"42"},{"postalcode":"42024","name":"Meurad","wilayacode":"42"},{"postalcode":"42025","name":"Fouka","wilayacode":"42"},{"postalcode":"42026","name":"Bou Ismail","wilayacode":"42"},{"postalcode":"42027","name":"Ahmer El Ain","wilayacode":"42"},{"postalcode":"42030","name":"Bou Haroun","wilayacode":"42"},{"postalcode":"42032","name":"Sidi Ghiles","wilayacode":"42"},{"postalcode":"42033","name":"Messelmoun","wilayacode":"42"},{"postalcode":"42034","name":"Sidi Rached","wilayacode":"42"},{"postalcode":"42035","name":"Kolea","wilayacode":"42"},{"postalcode":"42036","name":"Attatba","wilayacode":"42"},{"postalcode":"42040","name":"Sidi Semiane","wilayacode":"42"},{"postalcode":"42041","name":"Beni Milleuk","wilayacode":"42"},{"postalcode":"42042","name":"Hadjerat Ennous","wilayacode":"42"},{"postalcode":"43001","name":"Mila","wilayacode":"43"},{"postalcode":"43002","name":"Ferdjioua","wilayacode":"43"},{"postalcode":"43003","name":"Chelghoum Laid","wilayacode":"43"},{"postalcode":"43004","name":"Oued Athmenia","wilayacode":"43"},{"postalcode":"43005","name":"Ain Mellouk","wilayacode":"43"},{"postalcode":"43006","name":"Telerghma","wilayacode":"43"},{"postalcode":"43007","name":"Oued Seguen","wilayacode":"43"},{"postalcode":"43008","name":"Tadjenanet","wilayacode":"43"},{"postalcode":"43009","name":"Benyahia Abderrahmane","wilayacode":"43"},{"postalcode":"43010","name":"Oued Endja","wilayacode":"43"},{"postalcode":"43011","name":"Ahmed Rachedi","wilayacode":"43"},{"postalcode":"43012","name":"Ouled Khalouf","wilayacode":"43"},{"postalcode":"43013","name":"Tiberguent","wilayacode":"43"},{"postalcode":"43014","name":"Bouhatem","wilayacode":"43"},{"postalcode":"43015","name":"Rouached","wilayacode":"43"},{"postalcode":"43016","name":"Tessala Lamatai","wilayacode":"43"},{"postalcode":"43017","name":"Grarem Gouga","wilayacode":"43"},{"postalcode":"43018","name":"Sidi Merouane","wilayacode":"43"},{"postalcode":"43019","name":"Tassadane Haddada","wilayacode":"43"},{"postalcode":"43020","name":"Derradji Bousselah","wilayacode":"43"},{"postalcode":"43021","name":"Minar Zarza","wilayacode":"43"},{"postalcode":"43022","name":"Amira Arras","wilayacode":"43"},{"postalcode":"43023","name":"Terrai Bainen","wilayacode":"43"},{"postalcode":"43024","name":"Hamala","wilayacode":"43"},{"postalcode":"43025","name":"Ain Tine","wilayacode":"43"},{"postalcode":"43026","name":"El Mechira","wilayacode":"43"},{"postalcode":"43027","name":"Sidi Khelifa","wilayacode":"43"},{"postalcode":"43028","name":"Zeghaia","wilayacode":"43"},{"postalcode":"43029","name":"Elayadi Barbes","wilayacode":"43"},{"postalcode":"43030","name":"Ain Beida Harriche","wilayacode":"43"},{"postalcode":"43031","name":"Yahia Beniguecha","wilayacode":"43"},{"postalcode":"43032","name":"Chigara","wilayacode":"43"},{"postalcode":"44001","name":"Ain Defla","wilayacode":"44"},{"postalcode":"44002","name":"Miliana","wilayacode":"44"},{"postalcode":"44003","name":"Boumedfaa","wilayacode":"44"},{"postalcode":"44004","name":"Khemis Miliana","wilayacode":"44"},{"postalcode":"44005","name":"Hammam Righa","wilayacode":"44"},{"postalcode":"44006","name":"Arib","wilayacode":"44"},{"postalcode":"44007","name":"Djelida","wilayacode":"44"},{"postalcode":"44008","name":"El Amra","wilayacode":"44"},{"postalcode":"44009","name":"Bourached","wilayacode":"44"},{"postalcode":"44010","name":"El Attaf","wilayacode":"44"},{"postalcode":"44011","name":"El Abadia","wilayacode":"44"},{"postalcode":"44012","name":"Djendel","wilayacode":"44"},{"postalcode":"44013","name":"Oued Chorfa","wilayacode":"44"},{"postalcode":"44014","name":"Ain Lechiakh","wilayacode":"44"},{"postalcode":"44015","name":"Oued Djemaa","wilayacode":"44"},{"postalcode":"44016","name":"Rouina","wilayacode":"44"},{"postalcode":"44017","name":"Zeddine","wilayacode":"44"},{"postalcode":"44018","name":"El Hassania","wilayacode":"44"},{"postalcode":"44019","name":"Bir Ouled Khelifa","wilayacode":"44"},{"postalcode":"44020","name":"Ain Soltane","wilayacode":"44"},{"postalcode":"44021","name":"Tarik Ibn Ziad","wilayacode":"44"},{"postalcode":"44022","name":"Bordj Emir Khaled","wilayacode":"44"},{"postalcode":"44023","name":"Ain Torki","wilayacode":"44"},{"postalcode":"44024","name":"Sidi Lakhdar","wilayacode":"44"},{"postalcode":"44025","name":"Ben Allal","wilayacode":"44"},{"postalcode":"44026","name":"Ain Benian","wilayacode":"44"},{"postalcode":"44027","name":"Hoceinia","wilayacode":"44"},{"postalcode":"44028","name":"Barbouche","wilayacode":"44"},{"postalcode":"44029","name":"Djemaa Ouled Chikh","wilayacode":"44"},{"postalcode":"44030","name":"Mekhatria","wilayacode":"44"},{"postalcode":"44031","name":"Bathia","wilayacode":"44"},{"postalcode":"44032","name":"Tachta Zegagha","wilayacode":"44"},{"postalcode":"44033","name":"Ain Bouyahia","wilayacode":"44"},{"postalcode":"44034","name":"El Maine","wilayacode":"44"},{"postalcode":"44035","name":"Tiberkanine","wilayacode":"44"},{"postalcode":"44036","name":"Belaas","wilayacode":"44"},{"postalcode":"45001","name":"Naama","wilayacode":"45"},{"postalcode":"45002","name":"Mechria","wilayacode":"45"},{"postalcode":"45003","name":"Ain Sefra","wilayacode":"45"},{"postalcode":"45004","name":"Tiout","wilayacode":"45"},{"postalcode":"45005","name":"Sfissifa","wilayacode":"45"},{"postalcode":"45006","name":"Moghrar","wilayacode":"45"},{"postalcode":"45007","name":"Assela","wilayacode":"45"},{"postalcode":"45008","name":"Djeniane Bourzeg","wilayacode":"45"},{"postalcode":"45009","name":"Ain Ben Khelil","wilayacode":"45"},{"postalcode":"45010","name":"Makman Ben Amer","wilayacode":"45"},{"postalcode":"45011","name":"Kasdir","wilayacode":"45"},{"postalcode":"45012","name":"El Biod","wilayacode":"45"},{"postalcode":"46001","name":"Ain Temouchent","wilayacode":"46"},{"postalcode":"46002","name":"Chaabet El Ham","wilayacode":"46"},{"postalcode":"46003","name":"Ain Kihal","wilayacode":"46"},{"postalcode":"46004","name":"Hammam Bouhadjar","wilayacode":"46"},{"postalcode":"46005","name":"Bou Zedjar","wilayacode":"46"},{"postalcode":"46006","name":"Oued Berkeche","wilayacode":"46"},{"postalcode":"46007","name":"Aghlal","wilayacode":"46"},{"postalcode":"46008","name":"Terga","wilayacode":"46"},{"postalcode":"46009","name":"Ain El Arbaa","wilayacode":"46"},{"postalcode":"46010","name":"Tamzoura","wilayacode":"46"},{"postalcode":"46011","name":"Chentouf","wilayacode":"46"},{"postalcode":"46012","name":"Sidi Ben Adda","wilayacode":"46"},{"postalcode":"46013","name":"Aoubellil","wilayacode":"46"},{"postalcode":"46014","name":"El Malah","wilayacode":"46"},{"postalcode":"46015","name":"Sidi Boumediene","wilayacode":"46"},{"postalcode":"46016","name":"Oued Sabah","wilayacode":"46"},{"postalcode":"46017","name":"Ouled Boudjemaa","wilayacode":"46"},{"postalcode":"46018","name":"Ain Tolba","wilayacode":"46"},{"postalcode":"46019","name":"El Amria","wilayacode":"46"},{"postalcode":"46020","name":"Hassi El Ghella","wilayacode":"46"},{"postalcode":"46021","name":"Hassasna","wilayacode":"46"},{"postalcode":"46022","name":"Ouled Kihal","wilayacode":"46"},{"postalcode":"46023","name":"Beni Saf","wilayacode":"46"},{"postalcode":"46024","name":"Sidi Safi","wilayacode":"46"},{"postalcode":"46025","name":"Oulhaca El Gheraba","wilayacode":"46"},{"postalcode":"46026","name":"Tadmaya","wilayacode":"46"},{"postalcode":"46027","name":"El Emir Abdelkader","wilayacode":"46"},{"postalcode":"46028","name":"El Messaid","wilayacode":"46"},{"postalcode":"47001","name":"Ghardaia","wilayacode":"47"},{"postalcode":"47002","name":"El Meniaa","wilayacode":"47"},{"postalcode":"47003","name":"Dhayet Bendhahoua","wilayacode":"47"},{"postalcode":"47004","name":"Berriane","wilayacode":"47"},{"postalcode":"47005","name":"Metlili","wilayacode":"47"},{"postalcode":"47006","name":"El Guerrara","wilayacode":"47"},{"postalcode":"47007","name":"El Atteuf","wilayacode":"47"},{"postalcode":"47008","name":"Zelfana","wilayacode":"47"},{"postalcode":"47009","name":"Sebseb","wilayacode":"47"},{"postalcode":"47010","name":"Bounoura","wilayacode":"47"},{"postalcode":"47011","name":"Hassi Fehal","wilayacode":"47"},{"postalcode":"47012","name":"Hassi Gara","wilayacode":"47"},{"postalcode":"47013","name":"Mansoura","wilayacode":"47"},{"postalcode":"48001","name":"Relizane","wilayacode":"48"},{"postalcode":"48002","name":"Oued Rhiou","wilayacode":"48"},{"postalcode":"48003","name":"Belaassel Bouzegza","wilayacode":"48"},{"postalcode":"48004","name":"Sidi Saada","wilayacode":"48"},{"postalcode":"48005","name":"Ouled Aiche","wilayacode":"48"},{"postalcode":"48006","name":"Sidi Lazreg","wilayacode":"48"},{"postalcode":"48007","name":"El Hamadna","wilayacode":"48"},{"postalcode":"48008","name":"Sidi Mhamed Ben Ali","wilayacode":"48"},{"postalcode":"48009","name":"Mediouna","wilayacode":"48"},{"postalcode":"48010","name":"Sidi Khettab","wilayacode":"48"},{"postalcode":"48011","name":"Ammi Moussa","wilayacode":"48"},{"postalcode":"48012","name":"Zemmoura","wilayacode":"48"},{"postalcode":"48013","name":"Beni Dergoun","wilayacode":"48"},{"postalcode":"48014","name":"Djidiouia","wilayacode":"48"},{"postalcode":"48015","name":"El Guettar","wilayacode":"48"},{"postalcode":"48016","name":"Hamri","wilayacode":"48"},{"postalcode":"48017","name":"El Matmar","wilayacode":"48"},{"postalcode":"48018","name":"Sidi Mhamed Ben Aouda","wilayacode":"48"},{"postalcode":"48019","name":"Ain Tarek","wilayacode":"48"},{"postalcode":"48020","name":"Oued Essalem","wilayacode":"48"},{"postalcode":"48021","name":"Ouarizane","wilayacode":"48"},{"postalcode":"48022","name":"Mazouna","wilayacode":"48"},{"postalcode":"48023","name":"Kalaa","wilayacode":"48"},{"postalcode":"48024","name":"Ain Rahma","wilayacode":"48"},{"postalcode":"48025","name":"Yellel","wilayacode":"48"},{"postalcode":"48026","name":"Oued El Djemaa","wilayacode":"48"},{"postalcode":"48027","name":"Ramka","wilayacode":"48"},{"postalcode":"48028","name":"Mendes","wilayacode":"48"},{"postalcode":"48029","name":"Lahlef","wilayacode":"48"},{"postalcode":"48030","name":"Beni Zentis","wilayacode":"48"},{"postalcode":"48031","name":"Souk El Haad","wilayacode":"48"},{"postalcode":"48032","name":"Dar Ben Abdellah","wilayacode":"48"},{"postalcode":"48033","name":"El Hassi","wilayacode":"48"},{"postalcode":"48034","name":"Had Echkalla","wilayacode":"48"},{"postalcode":"48035","name":"Bendaoud","wilayacode":"48"},{"postalcode":"48036","name":"El Ouldja","wilayacode":"48"},{"postalcode":"48037","name":"Merdja Sidi Abed","wilayacode":"48"},{"postalcode":"48038","name":"Ouled Sidi Mihoub","wilayacode":"48"}]