[{"name":"Adrar","wilayacode":"1","communes":[{"postalcode":"01001","name":"Adrar"},{"postalcode":"01002","name":"Tamest"},{"postalcode":"01003","name":"Charouine"},{"postalcode":"01004","name":"Reggane"},{"postalcode":"01005","name":"Inozghmir"},{"postalcode":"01006","name":"Tit"},{"postalcode":"01007","name":"Ksar Kaddour"},{"postalcode":"01008","name":"Tsabit"},{"postalcode":"01009","name":"Timimoun"},{"postalcode":"01010","name":"Ouled Said"},{"postalcode":"01011","name":"Zaouiet Kounta"},{"postalcode":"01012","name":"Aoulef"},{"postalcode":"01013","name":"Timokten"},{"postalcode":"01014","name":"Tamentit"},{"postalcode":"01015","name":"Fenoughil"},{"postalcode":"01016","name":"Tinerkouk"},{"postalcode":"01017","name":"Deldoul"},{"postalcode":"01018","name":"Sali"},{"postalcode":"01019","name":"Akabli"},{"postalcode":"01020","name":"Metarfa"},{"postalcode":"01021","name":"O Ahmed Timmi"},{"postalcode":"01022","name":"Bouda"},{"postalcode":"01023","name":"Aougrout"},{"postalcode":"01024","name":"Talmine"},{"postalcode":"01025","name":"B Badji Mokhtar"},{"postalcode":"01026","name":"Sbaa"},{"postalcode":"01027","name":"Ouled Aissa"},{"postalcode":"01028","name":"Timiaouine"}]},{"name":"Chlef","wilayacode":"2","communes":[{"postalcode":"02001","name":"Chlef"},{"postalcode":"02002","name":"Tenes"},{"postalcode":"02003","name":"Benairia"},{"postalcode":"02004","name":"El Karimia"},{"postalcode":"02005","name":"Tadjna"},{"postalcode":"02006","name":"Taougrite"},{"postalcode":"02007","name":"Beni Haoua"},{"postalcode":"02008","name":"Sobha"},{"postalcode":"02009","name":"Harchoun"},{"postalcode":"02010","name":"Ouled Fares"},{"postalcode":"02011","name":"Sidi Akacha"},{"postalcode":"02012","name":"Boukadir"},{"postalcode":"02013","name":"Beni Rached"},{"postalcode":"02014","name":"Talassa"},{"postalcode":"02015","name":"Herenfa"},{"postalcode":"02016","name":"Oued Goussine"},{"postalcode":"02017","name":"Dahra"},{"postalcode":"02018","name":"Ouled Abbes"},{"postalcode":"02019","name":"Sendjas"},{"postalcode":"02020","name":"Zeboudja"},{"postalcode":"02021","name":"Oued Sly"},{"postalcode":"02022","name":"Abou El Hassen"},{"postalcode":"02023","name":"El Marsa"},{"postalcode":"02024","name":"Chettia"},{"postalcode":"02025","name":"Sidi Abderrahmane"},{"postalcode":"02026","name":"Moussadek"},{"postalcode":"02027","name":"El Hadjadj"},{"postalcode":"02028","name":"Labiod Medjadja"},{"postalcode":"02029","name":"Oued Fodda"},{"postalcode":"02030","name":"Ouled Ben Abdelkader"},{"postalcode":"02031","name":"Bouzghaia"},{"postalcode":"02032","name":"Ain Merane"},{"postalcode":"02033","name":"Oum Drou"},{"postalcode":"02034","name":"Breira"},{"postalcode":"02035","name":"Ben Boutaleb"}]},{"name":"Laghouat","wilayacode":"3","communes":[{"postalcode":"03001","name":"Laghouat"},{"postalcode":"03002","name":"Ksar El Hirane"},{"postalcode":"03003","name":"Benacer Ben Chohra"},{"postalcode":"03004","name":"Sidi Makhlouf"},{"postalcode":"03005","name":"Hassi Delaa"},{"postalcode":"03006","name":"Hassi R Mel"},{"postalcode":"03007","name":"Ain Mahdi"},{"postalcode":"03008","name":"Tadjmout"},{"postalcode":"03009","name":"Kheneg"},{"postalcode":"03010","name":"Gueltat Sidi Saad"},{"postalcode":"03011","name":"Ain Sidi Ali"},{"postalcode":"03012","name":"Beidha"},{"postalcode":"03013","name":"Brida"},{"postalcode":"03014","name":"El Ghicha"},{"postalcode":"03015","name":"Hadj Mechri"},{"postalcode":"03016","name":"Sebgag"},{"postalcode":"03017","name":"Taouiala"},{"postalcode":"03018","name":"Tadjrouna"},{"postalcode":"03019","name":"Aflou"},{"postalcode":"03020","name":"El Assafia"},{"postalcode":"03021","name":"Oued Morra"},{"postalcode":"03022","name":"Oued M Zi"},{"postalcode":"03023","name":"El Haouaita"},{"postalcode":"03024","name":"Sidi Bouzid"}]},{"name":"Oum El Bouaghi","wilayacode":"4","communes":[{"postalcode":"04001","name":"Oum El Bouaghi"},{"postalcode":"04002","name":"Ain Beida"},{"postalcode":"04003","name":"Ainmlila"},{"postalcode":"04004","name":"Behir Chergui"},{"postalcode":"04005","name":"El Amiria"},{"postalcode":"04006","name":"Sigus"},{"postalcode":"04007","name":"El Belala"},{"postalcode":"04008","name":"Ain Babouche"},{"postalcode":"04009","name":"Berriche"},{"postalcode":"04010","name":"Ouled Hamla"},{"postalcode":"04011","name":"Dhala"},{"postalcode":"04012","name":"Ain Kercha"},{"postalcode":"04013","name":"Hanchir Toumghani"},{"postalcode":"04014","name":"El Djazia"},{"postalcode":"04015","name":"Ain Diss"},{"postalcode":"04016","name":"Fkirina"},{"postalcode":"04017","name":"Souk Naamane"},{"postalcode":"04018","name":"Zorg"},{"postalcode":"04019","name":"El Fedjoudj Boughrar"},{"postalcode":"04020","name":"Ouled Zouai"},{"postalcode":"04021","name":"Bir Chouhada"},{"postalcode":"04022","name":"Ksar Sbahi"},{"postalcode":"04023","name":"Oued Nini"},{"postalcode":"04024","name":"Meskiana"},{"postalcode":"04025","name":"Ain Fekroune"},{"postalcode":"04026","name":"Rahia"},{"postalcode":"04027","name":"Ain Zitoun"},{"postalcode":"04028","name":"Ouled Gacem"},{"postalcode":"04029","name":"El Harmilia"}]},{"name":"Batna","wilayacode":"5","communes":[{"postalcode":"05001","name":"Batna"},{"postalcode":"05002","name":"Ghassira"},{"postalcode":"05003","name":"Maafa"},{"postalcode":"05004","name":"Merouana"},{"postalcode":"05005","name":"Seriana"},{"postalcode":"05006","name":"Menaa"},{"postalcode":"05007","name":"El Madher"},{"postalcode":"05008","name":"Tazoult"},{"postalcode":"05009","name":"Ngaous"},{"postalcode":"05010","name":"Guigba"},{"postalcode":"05011","name":"Inoughissen"},{"postalcode":"05012","name":"Ouyoun El Assafir"},{"postalcode":"05013","name":"Djerma"},{"postalcode":"05014","name":"Bitam"},{"postalcode":"05015","name":"Metkaouak"},{"postalcode":"05016","name":"Arris"},{"postalcode":"05017","name":"Kimmel"},{"postalcode":"05018","name":"Tilatou"},{"postalcode":"05019","name":"Ain Djasser"},{"postalcode":"05020","name":"Ouled Selam"},{"postalcode":"05021","name":"Tigherghar"},{"postalcode":"05022","name":"Ain Yagout"},{"postalcode":"05023","name":"Fesdis"},{"postalcode":"05024","name":"Sefiane"},{"postalcode":"05025","name":"Rahbat"},{"postalcode":"05026","name":"Tighanimine"},{"postalcode":"05027","name":"Lemsane"},{"postalcode":"05028","name":"Ksar Belezma"},{"postalcode":"05029","name":"Seggana"},{"postalcode":"05030","name":"Ichmoul"},{"postalcode":"05031","name":"Foum Toub"},{"postalcode":"05032","name":"Beni Foudhala El Hakania"},{"postalcode":"05033","name":"Oued El Ma"},{"postalcode":"05034","name":"Talkhamt"},{"postalcode":"05035","name":"Bouzina"},{"postalcode":"05036","name":"Chemora"},{"postalcode":"05037","name":"Oued Chaaba"},{"postalcode":"05038","name":"Taxlent"},{"postalcode":"05039","name":"Gosbat"},{"postalcode":"05040","name":"Ouled Aouf"},{"postalcode":"05041","name":"Boumagueur"},{"postalcode":"05042","name":"Barika"},{"postalcode":"05043","name":"Djezzar"},{"postalcode":"05044","name":"Tkout"},{"postalcode":"05045","name":"Ain Touta"},{"postalcode":"05046","name":"Hidoussa"},{"postalcode":"05047","name":"Teniet El Abed"},{"postalcode":"05048","name":"Oued Taga"},{"postalcode":"05049","name":"Ouled Fadel"},{"postalcode":"05050","name":"Timgad"},{"postalcode":"05051","name":"Ras El Aioun"},{"postalcode":"05052","name":"Chir"},{"postalcode":"05053","name":"Ouled Si Slimane"},{"postalcode":"05054","name":"Zanat El Beida"},{"postalcode":"05055","name":"Amdoukal"},{"postalcode":"05056","name":"Ouled Ammar"},{"postalcode":"05057","name":"El Hassi"},{"postalcode":"05058","name":"Lazrou"},{"postalcode":"05059","name":"Boumia"},{"postalcode":"05060","name":"Boulhilat"},{"postalcode":"05061","name":"Larbaa"}]},{"name":"Béjaïa","wilayacode":"6","communes":[{"postalcode":"06001","name":"Bejaia"},{"postalcode":"06002","name":"Amizour"},{"postalcode":"06003","name":"Ferraoun"},{"postalcode":"06004","name":"Taourirt Ighil"},{"postalcode":"06005","name":"Chelata"},{"postalcode":"06006","name":"Tamokra"},{"postalcode":"06007","name":"Timzrit"},{"postalcode":"06008","name":"Souk El Thenine"},{"postalcode":"06009","name":"Mcisna"},{"postalcode":"06010","name":"Thinabdher"},{"postalcode":"06011","name":"Tichi"},{"postalcode":"06012","name":"Semaoun"},{"postalcode":"06013","name":"Kendira"},{"postalcode":"06014","name":"Tifra"},{"postalcode":"06015","name":"Ighram"},{"postalcode":"06016","name":"Amalou"},{"postalcode":"06017","name":"Ighil Ali"},{"postalcode":"06018","name":"Ifelain Ilmathen"},{"postalcode":"06019","name":"Toudja"},{"postalcode":"06020","name":"Darguina"},{"postalcode":"06021","name":"Sidi Ayad"},{"postalcode":"06022","name":"Aokas"},{"postalcode":"06023","name":"Beni Djellil"},{"postalcode":"06024","name":"Adekar"},{"postalcode":"06025","name":"Akbou"},{"postalcode":"06026","name":"Seddouk"},{"postalcode":"06027","name":"Tazmalt"},{"postalcode":"06028","name":"Ait Rizine"},{"postalcode":"06029","name":"Chemini"},{"postalcode":"06030","name":"Souk Oufella"},{"postalcode":"06031","name":"Taskriout"},{"postalcode":"06032","name":"Tibane"},{"postalcode":"06033","name":"Tala Hamza"},{"postalcode":"06034","name":"Barbacha"},{"postalcode":"06035","name":"Beni Ksila"},{"postalcode":"06036","name":"Ouzallaguen"},{"postalcode":"06037","name":"Bouhamza"},{"postalcode":"06038","name":"Beni Melikeche"},{"postalcode":"06039","name":"Sidi Aich"},{"postalcode":"06040","name":"El Kseur"},{"postalcode":"06041","name":"Melbou"},{"postalcode":"06042","name":"Akfadou"},{"postalcode":"06043","name":"Leflaye"},{"postalcode":"06044","name":"Kherrata"},{"postalcode":"06045","name":"Draa Kaid"},{"postalcode":"06046","name":"Tamridjet"},{"postalcode":"06047","name":"Ait Smail"},{"postalcode":"06048","name":"Boukhelifa"},{"postalcode":"06049","name":"Tizi Nberber"},{"postalcode":"06050","name":"Beni Maouch"},{"postalcode":"06051","name":"Oued Ghir"},{"postalcode":"06052","name":"Boudjellil"}]},{"name":"Biskra","wilayacode":"7","communes":[{"postalcode":"07001","name":"Biskra"},{"postalcode":"07002","name":"Oumache"},{"postalcode":"07003","name":"Branis"},{"postalcode":"07004","name":"Chetma"},{"postalcode":"07005","name":"Ouled Djellal"},{"postalcode":"07006","name":"Ras El Miaad"},{"postalcode":"07007","name":"Besbes"},{"postalcode":"07008","name":"Sidi Khaled"},{"postalcode":"07009","name":"Doucen"},{"postalcode":"07010","name":"Ech Chaiba"},{"postalcode":"07011","name":"Sidi Okba"},{"postalcode":"07012","name":"Mchouneche"},{"postalcode":"07013","name":"El Haouch"},{"postalcode":"07014","name":"Ain Naga"},{"postalcode":"07015","name":"Zeribet El Oued"},{"postalcode":"07016","name":"El Feidh"},{"postalcode":"07017","name":"El Kantara"},{"postalcode":"07018","name":"Ain Zaatout"},{"postalcode":"07019","name":"El Outaya"},{"postalcode":"07020","name":"Djemorah"},{"postalcode":"07021","name":"Tolga"},{"postalcode":"07022","name":"Lioua"},{"postalcode":"07023","name":"Lichana"},{"postalcode":"07024","name":"Ourlal"},{"postalcode":"07025","name":"Mlili"},{"postalcode":"07026","name":"Foughala"},{"postalcode":"07027","name":"Bordj Ben Azzouz"},{"postalcode":"07028","name":"Meziraa"},{"postalcode":"07029","name":"Bouchagroun"},{"postalcode":"07030","name":"Mekhadma"},{"postalcode":"07031","name":"El Ghrous"},{"postalcode":"07032","name":"El Hadjab"},{"postalcode":"07033","name":"Khanguet Sidinadji"}]},{"name":"Béchar","wilayacode":"8","communes":[{"postalcode":"08001","name":"Bechar"},{"postalcode":"08002","name":"Erg Ferradj"},{"postalcode":"08003","name":"Ouled Khoudir"},{"postalcode":"08004","name":"Meridja"},{"postalcode":"08005","name":"Timoudi"},{"postalcode":"08006","name":"Lahmar"},{"postalcode":"08007","name":"Beni Abbes"},{"postalcode":"08008","name":"Beni Ikhlef"},{"postalcode":"08009","name":"Mechraa Houari B"},{"postalcode":"08010","name":"Kenedsa"},{"postalcode":"08011","name":"Igli"},{"postalcode":"08012","name":"Tabalbala"},{"postalcode":"08013","name":"Taghit"},{"postalcode":"08014","name":"El Ouata"},{"postalcode":"08015","name":"Boukais"},{"postalcode":"08016","name":"Mogheul"},{"postalcode":"08017","name":"Abadla"},{"postalcode":"08018","name":"Kerzaz"},{"postalcode":"08019","name":"Ksabi"},{"postalcode":"08020","name":"Tamtert"},{"postalcode":"08021","name":"Beni Ounif"}]},{"name":"Blida","wilayacode":"9","communes":[{"postalcode":"09001","name":"Blida"},{"postalcode":"09002","name":"Chebli"},{"postalcode":"09003","name":"Bouinan"},{"postalcode":"09004","name":"Oued El Alleug"},{"postalcode":"09007","name":"Ouled Yaich"},{"postalcode":"09008","name":"Chrea"},{"postalcode":"09010","name":"El Affroun"},{"postalcode":"09011","name":"Chiffa"},{"postalcode":"09012","name":"Hammam Melouane"},{"postalcode":"09013","name":"Ben Khlil"},{"postalcode":"09014","name":"Soumaa"},{"postalcode":"09016","name":"Mouzaia"},{"postalcode":"09017","name":"Souhane"},{"postalcode":"09018","name":"Meftah"},{"postalcode":"09019","name":"Ouled Selama"},{"postalcode":"09020","name":"Boufarik"},{"postalcode":"09021","name":"Larbaa"},{"postalcode":"09022","name":"Oued Djer"},{"postalcode":"09023","name":"Beni Tamou"},{"postalcode":"09024","name":"Bouarfa"},{"postalcode":"09025","name":"Beni Mered"},{"postalcode":"09026","name":"Bougara"},{"postalcode":"09027","name":"Guerrouaou"},{"postalcode":"09028","name":"Ain Romana"},{"postalcode":"09029","name":"Djebabra"}]},{"name":"Bouira","wilayacode":"10","communes":[{"postalcode":"10001","name":"Bouira"},{"postalcode":"10002","name":"El Asnam"},{"postalcode":"10003","name":"Guerrouma"},{"postalcode":"10004","name":"Souk El Khemis"},{"postalcode":"10005","name":"Kadiria"},{"postalcode":"10006","name":"Hanif"},{"postalcode":"10007","name":"Dirah"},{"postalcode":"10008","name":"Ait Laaziz"},{"postalcode":"10009","name":"Taghzout"},{"postalcode":"10010","name":"Raouraoua"},{"postalcode":"10011","name":"Mezdour"},{"postalcode":"10012","name":"Haizer"},{"postalcode":"10013","name":"Lakhdaria"},{"postalcode":"10014","name":"Maala"},{"postalcode":"10015","name":"El Hachimia"},{"postalcode":"10016","name":"Aomar"},{"postalcode":"10017","name":"Chorfa"},{"postalcode":"10018","name":"Bordj Oukhriss"},{"postalcode":"10019","name":"El Adjiba"},{"postalcode":"10020","name":"El Hakimia"},{"postalcode":"10021","name":"El Khebouzia"},{"postalcode":"10022","name":"Ahl El Ksar"},{"postalcode":"10023","name":"Bouderbala"},{"postalcode":"10024","name":"Zbarbar"},{"postalcode":"10025","name":"Ain El Hadjar"},{"postalcode":"10026","name":"Djebahia"},{"postalcode":"10027","name":"Aghbalou"},{"postalcode":"10028","name":"Taguedit"},{"postalcode":"10029","name":"Ain Turk"},{"postalcode":"10030","name":"Saharidj"},{"postalcode":"10031","name":"Dechmia"},{"postalcode":"10032","name":"Ridane"},{"postalcode":"10033","name":"Bechloul"},{"postalcode":"10034","name":"Boukram"},{"postalcode":"10035","name":"Ain Bessam"},{"postalcode":"10036","name":"Bir Ghbalou"},{"postalcode":"10037","name":"Mchedallah"},{"postalcode":"10038","name":"Sour El Ghozlane"},{"postalcode":"10039","name":"Maamora"},{"postalcode":"10040","name":"Ouled Rached"},{"postalcode":"10041","name":"Ain Laloui"},{"postalcode":"10042","name":"Hadjera Zerga"},{"postalcode":"10043","name":"Ath Mansour"},{"postalcode":"10044","name":"El Mokrani"},{"postalcode":"10045","name":"Oued El Berdi"}]},{"name":"Tamanrasset","wilayacode":"11","communes":[{"postalcode":"11001","name":"Tamanghasset"},{"postalcode":"11002","name":"Abalessa"},{"postalcode":"11003","name":"In Ghar"},{"postalcode":"11004","name":"In Guezzam"},{"postalcode":"11005","name":"Idles"},{"postalcode":"11006","name":"Tazouk"},{"postalcode":"11007","name":"Tinzaouatine"},{"postalcode":"11008","name":"In Salah"},{"postalcode":"11009","name":"In Amguel"},{"postalcode":"11010","name":"Foggaret Ezzaouia"}]},{"name":"Tébessa","wilayacode":"12","communes":[{"postalcode":"12001","name":"Tebessa"},{"postalcode":"12002","name":"Bir El Ater"},{"postalcode":"12003","name":"Cheria"},{"postalcode":"12004","name":"Stah Guentis"},{"postalcode":"12005","name":"El Aouinet"},{"postalcode":"12006","name":"Lahouidjbet"},{"postalcode":"12007","name":"Safsaf El Ouesra"},{"postalcode":"12008","name":"Hammamet"},{"postalcode":"12009","name":"Negrine"},{"postalcode":"12010","name":"Bir El Mokadem"},{"postalcode":"12011","name":"El Kouif"},{"postalcode":"12012","name":"Morsott"},{"postalcode":"12013","name":"El Ogla"},{"postalcode":"12014","name":"Bir Dheheb"},{"postalcode":"12015","name":"El Ogla El Malha"},{"postalcode":"12016","name":"Gorriguer"},{"postalcode":"12017","name":"Bekkaria"},{"postalcode":"12018","name":"Boukhadra"},{"postalcode":"12019","name":"Ouenza"},{"postalcode":"12020","name":"El Ma El Biodh"},{"postalcode":"12021","name":"Oum Ali"},{"postalcode":"12022","name":"Thlidjene"},{"postalcode":"12023","name":"Ain Zerga"},{"postalcode":"12024","name":"El Meridj"},{"postalcode":"12025","name":"Boulhaf Dyr"},{"postalcode":"12026","name":"Bedjene"},{"postalcode":"12027","name":"El Mazeraa"},{"postalcode":"12028","name":"Ferkane"}]},{"name":"Tlemcen","wilayacode":"13","communes":[{"postalcode":"13001","name":"Tlemcen"},{"postalcode":"13002","name":"Beni Mester"},{"postalcode":"13003","name":"Ain Tallout"},{"postalcode":"13004","name":"Remchi"},{"postalcode":"13005","name":"El Fehoul"},{"postalcode":"13006","name":"Sabra"},{"postalcode":"13007","name":"Ghazaouet"},{"postalcode":"13008","name":"Souani"},{"postalcode":"13009","name":"Djebala"},{"postalcode":"13010","name":"El Gor"},{"postalcode":"13011","name":"Oued Chouly"},{"postalcode":"13012","name":"Ain Fezza"},{"postalcode":"13013","name":"Ouled Mimoun"},{"postalcode":"13014","name":"Amieur"},{"postalcode":"13015","name":"Ain Youcef"},{"postalcode":"13016","name":"Zenata"},{"postalcode":"13017","name":"Beni Snous"},{"postalcode":"13018","name":"Bab El Assa"},{"postalcode":"13019","name":"Dar Yaghmouracene"},{"postalcode":"13020","name":"Fellaoucene"},{"postalcode":"13021","name":"Azails"},{"postalcode":"13022","name":"Sebbaa Chioukh"},{"postalcode":"13023","name":"Terni Beni Hediel"},{"postalcode":"13024","name":"Bensekrane"},{"postalcode":"13025","name":"Ain Nehala"},{"postalcode":"13026","name":"Hennaya"},{"postalcode":"13027","name":"Maghnia"},{"postalcode":"13028","name":"Hammam Boughrara"},{"postalcode":"13029","name":"Souahlia"},{"postalcode":"13030","name":"Msirda Fouaga"},{"postalcode":"13031","name":"Ain Fetah"},{"postalcode":"13032","name":"El Aricha"},{"postalcode":"13033","name":"Souk Thlata"},{"postalcode":"13034","name":"Sidi Abdelli"},{"postalcode":"13035","name":"Sebdou"},{"postalcode":"13036","name":"Beni Ouarsous"},{"postalcode":"13037","name":"Sidi Medjahed"},{"postalcode":"13038","name":"Beni Boussaid"},{"postalcode":"13039","name":"Marsa Ben Mhidi"},{"postalcode":"13040","name":"Nedroma"},{"postalcode":"13041","name":"Sidi Djillali"},{"postalcode":"13042","name":"Beni Bahdel"},{"postalcode":"13043","name":"El Bouihi"},{"postalcode":"13044","name":"Honaine"},{"postalcode":"13045","name":"Tianet"},{"postalcode":"13046","name":"Ouled Riyah"},{"postalcode":"13047","name":"Bouhlou"},{"postalcode":"13048","name":"Souk El Khemis"},{"postalcode":"13049","name":"Ain Ghoraba"},{"postalcode":"13050","name":"Chetouane"},{"postalcode":"13051","name":"Mansourah"},{"postalcode":"13052","name":"Beni Semiel"},{"postalcode":"13053","name":"Ain Kebira"}]},{"name":"Tiaret","wilayacode":"14","communes":[{"postalcode":"14001","name":"Tiaret"},{"postalcode":"14002","name":"Medroussa"},{"postalcode":"14003","name":"Ain Bouchekif"},{"postalcode":"14004","name":"Sidi Ali Mellal"},{"postalcode":"14005","name":"Ain Zarit"},{"postalcode":"14006","name":"Ain Deheb"},{"postalcode":"14007","name":"Sidi Bakhti"},{"postalcode":"14008","name":"Medrissa"},{"postalcode":"14009","name":"Zmalet El Emir Aek"},{"postalcode":"14010","name":"Madna"},{"postalcode":"14011","name":"Sebt"},{"postalcode":"14012","name":"Mellakou"},{"postalcode":"14013","name":"Dahmouni"},{"postalcode":"14014","name":"Rahouia"},{"postalcode":"14015","name":"Mahdia"},{"postalcode":"14016","name":"Sougueur"},{"postalcode":"14017","name":"Sidi Abdelghani"},{"postalcode":"14018","name":"Ain El Hadid"},{"postalcode":"14019","name":"Ouled Djerad"},{"postalcode":"14020","name":"Naima"},{"postalcode":"14021","name":"Meghila"},{"postalcode":"14022","name":"Guertoufa"},{"postalcode":"14023","name":"Sidi Hosni"},{"postalcode":"14024","name":"Djillali Ben Amar"},{"postalcode":"14025","name":"Sebaine"},{"postalcode":"14026","name":"Tousnina"},{"postalcode":"14027","name":"Frenda"},{"postalcode":"14028","name":"Ain Kermes"},{"postalcode":"14029","name":"Ksar Chellala"},{"postalcode":"14030","name":"Rechaiga"},{"postalcode":"14031","name":"Nadorah"},{"postalcode":"14032","name":"Tagdemt"},{"postalcode":"14033","name":"Oued Lilli"},{"postalcode":"14034","name":"Mechraa Safa"},{"postalcode":"14035","name":"Hamadia"},{"postalcode":"14036","name":"Chehaima"},{"postalcode":"14037","name":"Takhemaret"},{"postalcode":"14038","name":"Sidi Abderrahmane"},{"postalcode":"14039","name":"Serghine"},{"postalcode":"14040","name":"Bougara"},{"postalcode":"14041","name":"Faidja"},{"postalcode":"14042","name":"Tidda"}]},{"name":"Tizi Ouzou","wilayacode":"15","communes":[{"postalcode":"15001","name":"Tizi Ouzou"},{"postalcode":"15002","name":"Ain El Hammam"},{"postalcode":"15003","name":"Akbil"},{"postalcode":"15004","name":"Freha"},{"postalcode":"15005","name":"Souamaa"},{"postalcode":"15006","name":"Mechtrass"},{"postalcode":"15007","name":"Irdjen"},{"postalcode":"15008","name":"Timizart"},{"postalcode":"15009","name":"Makouda"},{"postalcode":"15010","name":"Draa El Mizan"},{"postalcode":"15011","name":"Tizi Ghenif"},{"postalcode":"15012","name":"Bounouh"},{"postalcode":"15013","name":"Ait Chaffaa"},{"postalcode":"15014","name":"Frikat"},{"postalcode":"15015","name":"Beni Aissi"},{"postalcode":"15016","name":"Beni Zmenzer"},{"postalcode":"15017","name":"Iferhounene"},{"postalcode":"15018","name":"Azazga"},{"postalcode":"15019","name":"Iloula Oumalou"},{"postalcode":"15020","name":"Yakouren"},{"postalcode":"15021","name":"Larba Nait Irathen"},{"postalcode":"15022","name":"Tizi Rached"},{"postalcode":"15023","name":"Zekri"},{"postalcode":"15024","name":"Ouaguenoun"},{"postalcode":"15025","name":"Ain Zaouia"},{"postalcode":"15026","name":"Mkira"},{"postalcode":"15027","name":"Ait Yahia"},{"postalcode":"15028","name":"Ait Mahmoud"},{"postalcode":"15029","name":"Maatka"},{"postalcode":"15030","name":"Ait Boumehdi"},{"postalcode":"15031","name":"Abi Youcef"},{"postalcode":"15032","name":"Beni Douala"},{"postalcode":"15033","name":"Illilten"},{"postalcode":"15034","name":"Bouzguen"},{"postalcode":"15035","name":"Ait Aggouacha"},{"postalcode":"15036","name":"Ouadhia"},{"postalcode":"15037","name":"Azzefoun"},{"postalcode":"15038","name":"Tigzirt"},{"postalcode":"15039","name":"Ait Aissa Mimoun"},{"postalcode":"15040","name":"Boghni"},{"postalcode":"15041","name":"Ifigha"},{"postalcode":"15042","name":"Ait Oumalou"},{"postalcode":"15043","name":"Tirmitine"},{"postalcode":"15044","name":"Akerrou"},{"postalcode":"15045","name":"Yatafen"},{"postalcode":"15046","name":"Beni Ziki"},{"postalcode":"15047","name":"Draa Ben Khedda"},{"postalcode":"15048","name":"Ouacif"},{"postalcode":"15049","name":"Idjeur"},{"postalcode":"15050","name":"Mekla"},{"postalcode":"15051","name":"Tizi Nthlata"},{"postalcode":"15052","name":"Beni Yenni"},{"postalcode":"15053","name":"Aghrib"},{"postalcode":"15054","name":"Iflissen"},{"postalcode":"15055","name":"Boudjima"},{"postalcode":"15056","name":"Ait Yahia Moussa"},{"postalcode":"15057","name":"Souk El Thenine"},{"postalcode":"15058","name":"Ait Khelil"},{"postalcode":"15059","name":"Sidi Naamane"},{"postalcode":"15060","name":"Iboudraren"},{"postalcode":"15061","name":"Aghni Goughran"},{"postalcode":"15062","name":"Mizrana"},{"postalcode":"15063","name":"Imsouhal"},{"postalcode":"15064","name":"Tadmait"},{"postalcode":"15065","name":"Ait Bouadou"},{"postalcode":"15066","name":"Assi Youcef"},{"postalcode":"15067","name":"Ait Toudert"}]},{"name":"Alger","wilayacode":"16","communes":[{"postalcode":"16001","name":"Alger Centre"},{"postalcode":"16002","name":"Sidi Mhamed"},{"postalcode":"16003","name":"El Madania"},{"postalcode":"16004","name":"Hamma Anassers"},{"postalcode":"16005","name":"Bab El Oued"},{"postalcode":"16006","name":"Bologhine Ibn Ziri"},{"postalcode":"16007","name":"Casbah"},{"postalcode":"16008","name":"Oued Koriche"},{"postalcode":"16009","name":"Bir Mourad Rais"},{"postalcode":"16010","name":"El Biar"},{"postalcode":"16011","name":"Bouzareah"},{"postalcode":"16012","name":"Birkhadem"},{"postalcode":"16013","name":"El Harrach"},{"postalcode":"16014","name":"Baraki"},{"postalcode":"16015","name":"Oued Smar"},{"postalcode":"16016","name":"Bourouba"},{"postalcode":"16017","name":"Hussein Dey"},{"postalcode":"16018","name":"Kouba"},{"postalcode":"16019","name":"Bachedjerah"},{"postalcode":"16020","name":"Dar El Beida"},{"postalcode":"16021","name":"Bab Azzouar"},{"postalcode":"16022","name":"Ben Aknoun"},{"postalcode":"16023","name":"Dely Ibrahim"},{"postalcode":"16024","name":"Bains Romains"},{"postalcode":"16025","name":"Rais Hamidou"},{"postalcode":"16026","name":"Djasr Kasentina"},{"postalcode":"16027","name":"El Mouradia"},{"postalcode":"16028","name":"Hydra"},{"postalcode":"16029","name":"Mohammadia"},{"postalcode":"16030","name":"Bordj El Kiffan"},{"postalcode":"16031","name":"El Magharia"},{"postalcode":"16032","name":"Beni Messous"},{"postalcode":"16033","name":"Les Eucalyptus"},{"postalcode":"16034","name":"Birtouta"},{"postalcode":"16035","name":"Tassala El Merdja"},{"postalcode":"16036","name":"Ouled Chebel"},{"postalcode":"16037","name":"Sidi Moussa"},{"postalcode":"16038","name":"Ain Taya"},{"postalcode":"16039","name":"Bordj El Bahri"},{"postalcode":"16040","name":"Marsa"},{"postalcode":"16041","name":"Haraoua"},{"postalcode":"16042","name":"Rouiba"},{"postalcode":"16043","name":"Reghaia"},{"postalcode":"16044","name":"Ain Benian"},{"postalcode":"16045","name":"Staoueli"},{"postalcode":"16046","name":"Zeralda"},{"postalcode":"16047","name":"Mahelma"},{"postalcode":"16048","name":"Rahmania"},{"postalcode":"16049","name":"Souidania"},{"postalcode":"16050","name":"Cheraga"},{"postalcode":"16051","name":"Ouled Fayet"},{"postalcode":"16052","name":"El Achour"},{"postalcode":"16053","name":"Draria"},{"postalcode":"16054","name":"Douera"},{"postalcode":"16055","name":"Baba Hassen"},{"postalcode":"16056","name":"Khracia"},{"postalcode":"16057","name":"Saoula"}]},{"name":"Djelfa","wilayacode":"17","communes":[{"postalcode":"17001","name":"Djelfa"},{"postalcode":"17002","name":"Moudjebara"},{"postalcode":"17003","name":"El Guedid"},{"postalcode":"17004","name":"Hassi Bahbah"},{"postalcode":"17005","name":"Ain Maabed"},{"postalcode":"17006","name":"Sed Rahal"},{"postalcode":"17007","name":"Feidh El Botma"},{"postalcode":"17008","name":"Birine"},{"postalcode":"17009","name":"Bouira Lahdeb"},{"postalcode":"17010","name":"Zaccar"},{"postalcode":"17011","name":"El Khemis"},{"postalcode":"17012","name":"Sidi Baizid"},{"postalcode":"17013","name":"Mliliha"},{"postalcode":"17014","name":"El Idrissia"},{"postalcode":"17015","name":"Douis"},{"postalcode":"17016","name":"Hassi El Euch"},{"postalcode":"17017","name":"Messaad"},{"postalcode":"17018","name":"Guettara"},{"postalcode":"17019","name":"Sidi Ladjel"},{"postalcode":"17020","name":"Had Sahary"},{"postalcode":"17021","name":"Guernini"},{"postalcode":"17022","name":"Selmana"},{"postalcode":"17023","name":"Ain Chouhada"},{"postalcode":"17024","name":"Oum Laadham"},{"postalcode":"17025","name":"Dar Chouikh"},{"postalcode":"17026","name":"Charef"},{"postalcode":"17027","name":"Beni Yacoub"},{"postalcode":"17028","name":"Zaafrane"},{"postalcode":"17029","name":"Deldoul"},{"postalcode":"17030","name":"Ain El Ibel"},{"postalcode":"17031","name":"Ain Oussera"},{"postalcode":"17032","name":"Benhar"},{"postalcode":"17033","name":"Hassi Fedoul"},{"postalcode":"17034","name":"Amourah"},{"postalcode":"17035","name":"Ain Fekka"},{"postalcode":"17036","name":"Tadmit"}]},{"name":"Jijel","wilayacode":"18","communes":[{"postalcode":"18001","name":"Jijel"},{"postalcode":"18002","name":"Erraguene"},{"postalcode":"18003","name":"El Aouana"},{"postalcode":"18004","name":"Ziamma Mansouriah"},{"postalcode":"18005","name":"Taher"},{"postalcode":"18006","name":"Emir Abdelkader"},{"postalcode":"18007","name":"Chekfa"},{"postalcode":"18008","name":"Chahna"},{"postalcode":"18009","name":"El Milia"},{"postalcode":"18010","name":"Sidi Maarouf"},{"postalcode":"18011","name":"Settara"},{"postalcode":"18012","name":"El Ancer"},{"postalcode":"18013","name":"Sidi Abdelaziz"},{"postalcode":"18014","name":"Kaous"},{"postalcode":"18015","name":"Ghebala"},{"postalcode":"18016","name":"Bouraoui Belhadef"},{"postalcode":"18017","name":"Djmila"},{"postalcode":"18018","name":"Selma Benziada"},{"postalcode":"18019","name":"Boussif Ouled Askeur"},{"postalcode":"18020","name":"El Kennar Nouchfi"},{"postalcode":"18021","name":"Ouled Yahia Khadrouch"},{"postalcode":"18022","name":"Boudria Beni Yadjis"},{"postalcode":"18023","name":"Kemir Oued Adjoul"},{"postalcode":"18024","name":"Texena"},{"postalcode":"18025","name":"Djemaa Beni Habibi"},{"postalcode":"18026","name":"Bordj Taher"},{"postalcode":"18027","name":"Ouled Rabah"},{"postalcode":"18028","name":"Ouadjana"}]},{"name":"Sétif","wilayacode":"19","communes":[{"postalcode":"19001","name":"Setif"},{"postalcode":"19002","name":"Ain El Kebira"},{"postalcode":"19003","name":"Beni Aziz"},{"postalcode":"19004","name":"Ouled Sidi Ahmed"},{"postalcode":"19005","name":"Boutaleb"},{"postalcode":"19006","name":"Ain Roua"},{"postalcode":"19007","name":"Draa Kebila"},{"postalcode":"19008","name":"Bir El Arch"},{"postalcode":"19009","name":"Beni Chebana"},{"postalcode":"19010","name":"Ouled Tebben"},{"postalcode":"19011","name":"Hamma"},{"postalcode":"19012","name":"Maaouia"},{"postalcode":"19013","name":"Ain Legraj"},{"postalcode":"19014","name":"Ain Abessa"},{"postalcode":"19015","name":"Dehamcha"},{"postalcode":"19016","name":"Babor"},{"postalcode":"19017","name":"Guidjel"},{"postalcode":"19018","name":"Ain Lahdjar"},{"postalcode":"19019","name":"Bousselam"},{"postalcode":"19020","name":"El Eulma"},{"postalcode":"19021","name":"Djemila"},{"postalcode":"19022","name":"Beni Ouartilane"},{"postalcode":"19023","name":"Rosfa"},{"postalcode":"19024","name":"Ouled Addouane"},{"postalcode":"19025","name":"Belaa"},{"postalcode":"19026","name":"Ain Arnat"},{"postalcode":"19027","name":"Amoucha"},{"postalcode":"19028","name":"Ain Oulmane"},{"postalcode":"19029","name":"Beidha Bordj"},{"postalcode":"19030","name":"Bouandas"},{"postalcode":"19031","name":"Bazer Sakhra"},{"postalcode":"19032","name":"Hammam Essokhna"},{"postalcode":"19033","name":"Mezloug"},{"postalcode":"19034","name":"Bir Haddada"},{"postalcode":"19035","name":"Serdj El Ghoul"},{"postalcode":"19036","name":"Harbil"},{"postalcode":"19037","name":"El Ouricia"},{"postalcode":"19038","name":"Tizi Nbechar"},{"postalcode":"19039","name":"Salah Bey"},{"postalcode":"19040","name":"Ain Azal"},{"postalcode":"19041","name":"Guenzet"},{"postalcode":"19042","name":"Talaifacene"},{"postalcode":"19043","name":"Bougaa"},{"postalcode":"19044","name":"Beni Fouda"},{"postalcode":"19045","name":"Tachouda"},{"postalcode":"19046","name":"Beni Mouhli"},{"postalcode":"19047","name":"Ouled Sabor"},{"postalcode":"19048","name":"Guellal"},{"postalcode":"19049","name":"Ain Sebt"},{"postalcode":"19050","name":"Hammam Guergour"},{"postalcode":"19051","name":"Ait Naoual Mezada"},{"postalcode":"19052","name":"Ksar El Abtal"},{"postalcode":"19053","name":"Beni Hocine"},{"postalcode":"19054","name":"Ait Tizi"},{"postalcode":"19055","name":"Maouklane"},{"postalcode":"19056","name":"Guelta Zerka"},{"postalcode":"19057","name":"Oued El Barad"},{"postalcode":"19058","name":"Taya"},{"postalcode":"19059","name":"El Ouldja"},{"postalcode":"19060","name":"Tella"}]},{"name":"Saïda","wilayacode":"20","communes":[{"postalcode":"20001","name":"Saida"},{"postalcode":"20002","name":"Doui Thabet"},{"postalcode":"20003","name":"Ain El Hadjar"},{"postalcode":"20004","name":"Ouled Khaled"},{"postalcode":"20005","name":"Moulay Larbi"},{"postalcode":"20006","name":"Youb"},{"postalcode":"20007","name":"Hounet"},{"postalcode":"20008","name":"Sidi Amar"},{"postalcode":"20009","name":"Sidi Boubekeur"},{"postalcode":"20010","name":"El Hassasna"},{"postalcode":"20011","name":"Maamora"},{"postalcode":"20012","name":"Sidi Ahmed"},{"postalcode":"20013","name":"Ain Sekhouna"},{"postalcode":"20014","name":"Ouled Brahim"},{"postalcode":"20015","name":"Tircine"},{"postalcode":"20016","name":"Ain Soltane"}]},{"name":"Skikda","wilayacode":"21","communes":[{"postalcode":"21001","name":"Skikda"},{"postalcode":"21002","name":"Ain Zouit"},{"postalcode":"21003","name":"El Hadaik"},{"postalcode":"21004","name":"Azzaba"},{"postalcode":"21005","name":"Djendel Saadi Mohamed"},{"postalcode":"21006","name":"Ain Cherchar"},{"postalcode":"21007","name":"Bekkouche Lakhdar"},{"postalcode":"21008","name":"Benazouz"},{"postalcode":"21009","name":"Es Sebt"},{"postalcode":"21010","name":"Collo"},{"postalcode":"21011","name":"Beni Zid"},{"postalcode":"21012","name":"Kerkera"},{"postalcode":"21013","name":"Ouled Attia"},{"postalcode":"21014","name":"Oued Zehour"},{"postalcode":"21015","name":"Zitouna"},{"postalcode":"21016","name":"El Harrouch"},{"postalcode":"21017","name":"Zerdazas"},{"postalcode":"21018","name":"Ouled Hebaba"},{"postalcode":"21019","name":"Sidi Mezghiche"},{"postalcode":"21020","name":"Emdjez Edchich"},{"postalcode":"21021","name":"Beni Oulbane"},{"postalcode":"21022","name":"Ain Bouziane"},{"postalcode":"21023","name":"Ramdane Djamel"},{"postalcode":"21024","name":"Beni Bachir"},{"postalcode":"21025","name":"Salah Bouchaour"},{"postalcode":"21026","name":"Tamalous"},{"postalcode":"21027","name":"Ain Kechra"},{"postalcode":"21028","name":"Oum Toub"},{"postalcode":"21029","name":"Bein El Ouiden"},{"postalcode":"21030","name":"Fil Fila"},{"postalcode":"21031","name":"Cheraia"},{"postalcode":"21032","name":"Kanoua"},{"postalcode":"21033","name":"El Ghedir"},{"postalcode":"21034","name":"Bouchtata"},{"postalcode":"21035","name":"Ouldja Boulbalout"},{"postalcode":"21036","name":"Kheneg Mayoum"},{"postalcode":"21037","name":"Hamadi Krouma"},{"postalcode":"21038","name":"El Marsa"}]},{"name":"Sidi Bel Abbès","wilayacode":"22","communes":[{"postalcode":"22001","name":"Sidi Bel Abbes"},{"postalcode":"22002","name":"Tessala"},{"postalcode":"22003","name":"Sidi Brahim"},{"postalcode":"22004","name":"Mostefa Ben Brahim"},{"postalcode":"22005","name":"Telagh"},{"postalcode":"22006","name":"Mezaourou"},{"postalcode":"22007","name":"Boukhanafis"},{"postalcode":"22008","name":"Sidi Ali Boussidi"},{"postalcode":"22009","name":"Badredine El Mokrani"},{"postalcode":"22010","name":"Marhoum"},{"postalcode":"22011","name":"Tafissour"},{"postalcode":"22012","name":"Amarnas"},{"postalcode":"22013","name":"Tilmouni"},{"postalcode":"22014","name":"Sidi Lahcene"},{"postalcode":"22015","name":"Ain Thrid"},{"postalcode":"22016","name":"Makedra"},{"postalcode":"22017","name":"Tenira"},{"postalcode":"22018","name":"Moulay Slissen"},{"postalcode":"22019","name":"El Hacaiba"},{"postalcode":"22020","name":"Hassi Zehana"},{"postalcode":"22021","name":"Tabia"},{"postalcode":"22022","name":"Merine"},{"postalcode":"22023","name":"Ras El Ma"},{"postalcode":"22024","name":"Ain Tindamine"},{"postalcode":"22025","name":"Ain Kada"},{"postalcode":"22026","name":"Mcid"},{"postalcode":"22027","name":"Sidi Khaled"},{"postalcode":"22028","name":"Ain El Berd"},{"postalcode":"22029","name":"Sfissef"},{"postalcode":"22030","name":"Ain Adden"},{"postalcode":"22031","name":"Oued Taourira"},{"postalcode":"22032","name":"Dhaya"},{"postalcode":"22033","name":"Zerouala"},{"postalcode":"22034","name":"Lamtar"},{"postalcode":"22035","name":"Sidi Chaib"},{"postalcode":"22036","name":"Sidi Dahou Dezairs"},{"postalcode":"22037","name":"Oued Sbaa"},{"postalcode":"22038","name":"Boudjebaa El Bordj"},{"postalcode":"22039","name":"Sehala Thaoura"},{"postalcode":"22040","name":"Sidi Yacoub"},{"postalcode":"22041","name":"Sidi Hamadouche"},{"postalcode":"22042","name":"Belarbi"},{"postalcode":"22043","name":"Oued Sefioun"},{"postalcode":"22044","name":"Teghalimet"},{"postalcode":"22045","name":"Ben Badis"},{"postalcode":"22046","name":"Sidi Ali Benyoub"},{"postalcode":"22047","name":"Chetouane Belaila"},{"postalcode":"22048","name":"Bir El Hammam"},{"postalcode":"22049","name":"Taoudmout"},{"postalcode":"22050","name":"Redjem Demouche"},{"postalcode":"22051","name":"Benachiba Chelia"},{"postalcode":"22052","name":"Hassi Dahou"}]},{"name":"Annaba","wilayacode":"23","communes":[{"postalcode":"23001","name":"Annaba"},{"postalcode":"23002","name":"Berrahel"},{"postalcode":"23003","name":"El Hadjar"},{"postalcode":"23004","name":"Eulma"},{"postalcode":"23005","name":"El Bouni"},{"postalcode":"23006","name":"Oued El Aneb"},{"postalcode":"23007","name":"Cheurfa"},{"postalcode":"23008","name":"Seraidi"},{"postalcode":"23009","name":"Ain Berda"},{"postalcode":"23010","name":"Chetaibi"},{"postalcode":"23011","name":"Sidi Amer"},{"postalcode":"23012","name":"Treat"}]},{"name":"Guelma","wilayacode":"24","communes":[{"postalcode":"24001","name":"Guelma"},{"postalcode":"24002","name":"Nechmaya"},{"postalcode":"24003","name":"Bouati Mahmoud"},{"postalcode":"24004","name":"Oued Zenati"},{"postalcode":"24005","name":"Tamlouka"},{"postalcode":"24006","name":"Oued Fragha"},{"postalcode":"24007","name":"Ain Sandel"},{"postalcode":"24008","name":"Ras El Agba"},{"postalcode":"24009","name":"Dahouara"},{"postalcode":"24010","name":"Belkhir"},{"postalcode":"24011","name":"Ben Djarah"},{"postalcode":"24012","name":"Bou Hamdane"},{"postalcode":"24013","name":"Ain Makhlouf"},{"postalcode":"24014","name":"Ain Ben Beida"},{"postalcode":"24015","name":"Khezara"},{"postalcode":"24016","name":"Beni Mezline"},{"postalcode":"24017","name":"Bou Hachana"},{"postalcode":"24018","name":"Guelaat Bou Sbaa"},{"postalcode":"24019","name":"Hammam Maskhoutine"},{"postalcode":"24020","name":"El Fedjoudj"},{"postalcode":"24021","name":"Bordj Sabat"},{"postalcode":"24022","name":"Hamman Nbail"},{"postalcode":"24023","name":"Ain Larbi"},{"postalcode":"24024","name":"Medjez Amar"},{"postalcode":"24025","name":"Bouchegouf"},{"postalcode":"24026","name":"Heliopolis"},{"postalcode":"24027","name":"Ain Hessania"},{"postalcode":"24028","name":"Roknia"},{"postalcode":"24029","name":"Salaoua Announa"},{"postalcode":"24030","name":"Medjez Sfa"},{"postalcode":"24031","name":"Boumahra Ahmed"},{"postalcode":"24032","name":"Ain Reggada"},{"postalcode":"24033","name":"Oued Cheham"},{"postalcode":"24034","name":"Djeballah Khemissi"}]},{"name":"Constantine","wilayacode":"25","communes":[{"postalcode":"25001","name":"Constantine"},{"postalcode":"25002","name":"Hamma Bouziane"},{"postalcode":"25003","name":"El Haria"},{"postalcode":"25004","name":"Zighoud Youcef"},{"postalcode":"25005","name":"Didouche Mourad"},{"postalcode":"25006","name":"El Khroub"},{"postalcode":"25007","name":"Ain Abid"},{"postalcode":"25008","name":"Beni Hamiden"},{"postalcode":"25009","name":"Ouled Rahmoune"},{"postalcode":"25010","name":"Ain Smara"},{"postalcode":"25011","name":"Mesaoud Boudjeriou"},{"postalcode":"25012","name":"Ibn Ziad"}]},{"name":"Médéa","wilayacode":"26","communes":[{"postalcode":"26001","name":"Medea"},{"postalcode":"26002","name":"Ouzera"},{"postalcode":"26003","name":"Ouled Maaref"},{"postalcode":"26004","name":"Ain Boucif"},{"postalcode":"26005","name":"Aissaouia"},{"postalcode":"26006","name":"Ouled Deide"},{"postalcode":"26007","name":"El Omaria"},{"postalcode":"26008","name":"Derrag"},{"postalcode":"26009","name":"El Guelbelkebir"},{"postalcode":"26010","name":"Bouaiche"},{"postalcode":"26011","name":"Mezerena"},{"postalcode":"26012","name":"Ouled Brahim"},{"postalcode":"26013","name":"Damiat"},{"postalcode":"26014","name":"Sidi Ziane"},{"postalcode":"26015","name":"Tamesguida"},{"postalcode":"26016","name":"El Hamdania"},{"postalcode":"26017","name":"Kef Lakhdar"},{"postalcode":"26018","name":"Chelalet El Adhaoura"},{"postalcode":"26019","name":"Bouskene"},{"postalcode":"26020","name":"Rebaia"},{"postalcode":"26021","name":"Bouchrahil"},{"postalcode":"26022","name":"Ouled Hellal"},{"postalcode":"26023","name":"Tafraout"},{"postalcode":"26024","name":"Baata"},{"postalcode":"26025","name":"Boghar"},{"postalcode":"26026","name":"Sidi Naamane"},{"postalcode":"26027","name":"Ouled Bouachra"},{"postalcode":"26028","name":"Sidi Zahar"},{"postalcode":"26029","name":"Oued Harbil"},{"postalcode":"26030","name":"Benchicao"},{"postalcode":"26031","name":"Sidi Damed"},{"postalcode":"26032","name":"Aziz"},{"postalcode":"26033","name":"Souagui"},{"postalcode":"26034","name":"Zoubiria"},{"postalcode":"26035","name":"Ksar El Boukhari"},{"postalcode":"26036","name":"El Azizia"},{"postalcode":"26037","name":"Djouab"},{"postalcode":"26038","name":"Chahbounia"},{"postalcode":"26039","name":"Meghraoua"},{"postalcode":"26040","name":"Cheniguel"},{"postalcode":"26041","name":"Ain Ouksir"},{"postalcode":"26042","name":"Oum El Djalil"},{"postalcode":"26043","name":"Ouamri"},{"postalcode":"26044","name":"Si Mahdjoub"},{"postalcode":"26045","name":"Tlatet Eddoair"},{"postalcode":"26046","name":"Beni Slimane"},{"postalcode":"26047","name":"Berrouaghia"},{"postalcode":"26048","name":"Seghouane"},{"postalcode":"26049","name":"Meftaha"},{"postalcode":"26050","name":"Mihoub"},{"postalcode":"26051","name":"Boughezoul"},{"postalcode":"26052","name":"Tablat"},{"postalcode":"26053","name":"Deux Bassins"},{"postalcode":"26054","name":"Draa Essamar"},{"postalcode":"26055","name":"Sidi Errabia"},{"postalcode":"26056","name":"Bir Ben Laabed"},{"postalcode":"26057","name":"El Ouinet"},{"postalcode":"26058","name":"Ouled Antar"},{"postalcode":"26059","name":"Bouaichoune"},{"postalcode":"26060","name":"Hannacha"},{"postalcode":"26061","name":"Sedraia"},{"postalcode":"26062","name":"Medjebar"},{"postalcode":"26063","name":"Khams Djouamaa"},{"postalcode":"26064","name":"Saneg"}]},{"name":"Mostaganem","wilayacode":"27","communes":[{"postalcode":"27001","name":"Mostaganem"},{"postalcode":"27002","name":"Sayada"},{"postalcode":"27003","name":"Fornaka"},{"postalcode":"27004","name":"Stidia"},{"postalcode":"27005","name":"Ain Nouissy"},{"postalcode":"27006","name":"Hassi Maameche"},{"postalcode":"27007","name":"Ain Tadles"},{"postalcode":"27008","name":"Sour"},{"postalcode":"27009","name":"Oued El Kheir"},{"postalcode":"27010","name":"Sidi Bellater"},{"postalcode":"27011","name":"Kheiredine "},{"postalcode":"27012","name":"Sidi Ali"},{"postalcode":"27013","name":"Abdelmalek Ramdane"},{"postalcode":"27014","name":"Hadjadj"},{"postalcode":"27015","name":"Nekmaria"},{"postalcode":"27016","name":"Sidi Lakhdar"},{"postalcode":"27017","name":"Achaacha"},{"postalcode":"27018","name":"Khadra"},{"postalcode":"27019","name":"Bouguirat"},{"postalcode":"27020","name":"Sirat"},{"postalcode":"27021","name":"Ain Sidi Cherif"},{"postalcode":"27022","name":"Mesra"},{"postalcode":"27023","name":"Mansourah"},{"postalcode":"27024","name":"Souaflia"},{"postalcode":"27025","name":"Ouled Boughalem"},{"postalcode":"27026","name":"Ouled Maallah"},{"postalcode":"27027","name":"Mezghrane"},{"postalcode":"27028","name":"Ain Boudinar"},{"postalcode":"27029","name":"Tazgait"},{"postalcode":"27030","name":"Safsaf"},{"postalcode":"27031","name":"Touahria"},{"postalcode":"27032","name":"El Hassiane"}]},{"name":"M'Sila","wilayacode":"28","communes":[{"postalcode":"28001","name":"Msila"},{"postalcode":"28002","name":"Maadid"},{"postalcode":"28003","name":"Hammam Dhalaa"},{"postalcode":"28004","name":"Ouled Derradj"},{"postalcode":"28005","name":"Tarmount"},{"postalcode":"28006","name":"Mtarfa"},{"postalcode":"28007","name":"Khoubana"},{"postalcode":"28008","name":"Mcif"},{"postalcode":"28009","name":"Chellal"},{"postalcode":"28010","name":"Ouled Madhi"},{"postalcode":"28011","name":"Magra"},{"postalcode":"28012","name":"Berhoum"},{"postalcode":"28013","name":"Ain Khadra"},{"postalcode":"28014","name":"Ouled Addi Guebala"},{"postalcode":"28015","name":"Belaiba"},{"postalcode":"28016","name":"Sidi Aissa"},{"postalcode":"28017","name":"Ain El Hadjel"},{"postalcode":"28018","name":"Sidi Hadjeres"},{"postalcode":"28019","name":"Ouanougha"},{"postalcode":"28020","name":"Bou Saada"},{"postalcode":"28021","name":"Ouled Sidi Brahim"},{"postalcode":"28022","name":"Sidi Ameur"},{"postalcode":"28023","name":"Tamsa"},{"postalcode":"28024","name":"Ben Srour"},{"postalcode":"28025","name":"Ouled Slimane"},{"postalcode":"28026","name":"El Houamed"},{"postalcode":"28027","name":"El Hamel"},{"postalcode":"28028","name":"Ouled Mansour"},{"postalcode":"28029","name":"Maarif"},{"postalcode":"28030","name":"Dehahna"},{"postalcode":"28031","name":"Bouti Sayah"},{"postalcode":"28032","name":"Khettouti Sed Djir"},{"postalcode":"28033","name":"Zarzour"},{"postalcode":"28034","name":"Oued Chair"},{"postalcode":"28035","name":"Benzouh"},{"postalcode":"28036","name":"Bir Foda"},{"postalcode":"28037","name":"Ain Fares"},{"postalcode":"28038","name":"Sidi Mhamed"},{"postalcode":"28039","name":"Ouled Atia"},{"postalcode":"28040","name":"Souamaa"},{"postalcode":"28041","name":"Ain El Melh"},{"postalcode":"28042","name":"Medjedel"},{"postalcode":"28043","name":"Slim"},{"postalcode":"28044","name":"Ain Errich"},{"postalcode":"28045","name":"Beni Ilmane"},{"postalcode":"28046","name":"Oultene"},{"postalcode":"28047","name":"Djebel Messaad"}]},{"name":"Mascara","wilayacode":"29","communes":[{"postalcode":"29001","name":"Mascara"},{"postalcode":"29002","name":"Bou Hanifia"},{"postalcode":"29003","name":"Tizi"},{"postalcode":"29004","name":"Hacine"},{"postalcode":"29005","name":"Maoussa"},{"postalcode":"29006","name":"Teghennif"},{"postalcode":"29007","name":"El Hachem"},{"postalcode":"29008","name":"Sidi Kada"},{"postalcode":"29009","name":"Zelmata"},{"postalcode":"29010","name":"Oued El Abtal"},{"postalcode":"29011","name":"Ain Ferah"},{"postalcode":"29012","name":"Ghriss"},{"postalcode":"29013","name":"Froha"},{"postalcode":"29014","name":"Matemore"},{"postalcode":"29015","name":"Makdha"},{"postalcode":"29016","name":"Sidi Boussaid"},{"postalcode":"29017","name":"El Bordj"},{"postalcode":"29018","name":"Ain Fekan"},{"postalcode":"29019","name":"Benian"},{"postalcode":"29020","name":"Khalouia"},{"postalcode":"29021","name":"El Menaouer"},{"postalcode":"29022","name":"Oued Taria"},{"postalcode":"29023","name":"Aouf"},{"postalcode":"29024","name":"Ain Fares"},{"postalcode":"29025","name":"Ain Frass"},{"postalcode":"29026","name":"Sig"},{"postalcode":"29027","name":"Oggaz"},{"postalcode":"29028","name":"Alaimia"},{"postalcode":"29029","name":"El Gaada"},{"postalcode":"29030","name":"Zahana"},{"postalcode":"29031","name":"Mohammadia"},{"postalcode":"29032","name":"Sidi Abdelmoumene"},{"postalcode":"29033","name":"Ferraguig"},{"postalcode":"29034","name":"El Ghomri"},{"postalcode":"29035","name":"Sedjerara"},{"postalcode":"29036","name":"Moctadouz"},{"postalcode":"29037","name":"Bou Henni"},{"postalcode":"29038","name":"Guettena"},{"postalcode":"29039","name":"El Mamounia"},{"postalcode":"29040","name":"El Keurt"},{"postalcode":"29041","name":"Gharrous"},{"postalcode":"29042","name":"Gherdjoum"},{"postalcode":"29043","name":"Chorfa"},{"postalcode":"29044","name":"Ras Ain Amirouche"},{"postalcode":"29045","name":"Nesmot"},{"postalcode":"29046","name":"Sidi Abdeldjebar"},{"postalcode":"29047","name":"Sehailia"}]},{"name":"Ouargla","wilayacode":"30","communes":[{"postalcode":"30001","name":"Ouargla"},{"postalcode":"30002","name":"Ain Beida"},{"postalcode":"30003","name":"Ngoussa"},{"postalcode":"30004","name":"Hassi Messaoud"},{"postalcode":"30005","name":"Rouissat"},{"postalcode":"30006","name":"Balidat Ameur"},{"postalcode":"30007","name":"Tebesbest"},{"postalcode":"30008","name":"Nezla"},{"postalcode":"30009","name":"Zaouia El Abidia"},{"postalcode":"30010","name":"Sidi Slimane"},{"postalcode":"30011","name":"Sidi Khouiled"},{"postalcode":"30012","name":"Hassi Ben Abdellah"},{"postalcode":"30013","name":"Touggourt"},{"postalcode":"30014","name":"El Hadjira"},{"postalcode":"30015","name":"Taibet"},{"postalcode":"30016","name":"Tamacine"},{"postalcode":"30017","name":"Benaceur"},{"postalcode":"30018","name":"Mnaguer"},{"postalcode":"30019","name":"Megarine"},{"postalcode":"30020","name":"El Allia"},{"postalcode":"30021","name":"El Borma"}]},{"name":"Oran","wilayacode":"31","communes":[{"postalcode":"31001","name":"Oran"},{"postalcode":"31002","name":"Gdyel"},{"postalcode":"31003","name":"Bir El Djir"},{"postalcode":"31004","name":"Hassi Bounif"},{"postalcode":"31005","name":"Es Senia"},{"postalcode":"31006","name":"Arzew"},{"postalcode":"31007","name":"Bethioua"},{"postalcode":"31008","name":"Marsat El Hadjadj"},{"postalcode":"31009","name":"Ain Turk"},{"postalcode":"31010","name":"El Ancar"},{"postalcode":"31011","name":"Oued Tlelat"},{"postalcode":"31012","name":"Tafraoui"},{"postalcode":"31013","name":"Sidi Chami"},{"postalcode":"31014","name":"Boufatis"},{"postalcode":"31015","name":"Mers El Kebir"},{"postalcode":"31016","name":"Bousfer"},{"postalcode":"31017","name":"El Karma"},{"postalcode":"31018","name":"El Braya"},{"postalcode":"31019","name":"Hassi Ben Okba"},{"postalcode":"31020","name":"Ben Freha"},{"postalcode":"31021","name":"Hassi Mefsoukh"},{"postalcode":"31022","name":"Sidi Ben Yabka"},{"postalcode":"31023","name":"Messerghin"},{"postalcode":"31024","name":"Boutlelis"},{"postalcode":"31025","name":"Ain Kerma"},{"postalcode":"31026","name":"Ain Biya"}]},{"name":"El Bayadh","wilayacode":"32","communes":[{"postalcode":"32001","name":"El Bayadh"},{"postalcode":"32002","name":"Rogassa"},{"postalcode":"32003","name":"Stitten"},{"postalcode":"32004","name":"Brezina"},{"postalcode":"32005","name":"Ghassoul"},{"postalcode":"32006","name":"Boualem"},{"postalcode":"32007","name":"El Abiodh Sidi Cheikh"},{"postalcode":"32008","name":"Ain El Orak"},{"postalcode":"32009","name":"Arbaouat"},{"postalcode":"32010","name":"Bougtoub"},{"postalcode":"32011","name":"El Kheither"},{"postalcode":"32012","name":"Kef El Ahmar"},{"postalcode":"32013","name":"Boussemghoun"},{"postalcode":"32014","name":"Chellala"},{"postalcode":"32015","name":"Krakda"},{"postalcode":"32016","name":"El Bnoud"},{"postalcode":"32017","name":"Cheguig"},{"postalcode":"32018","name":"Sidi Ameur"},{"postalcode":"32019","name":"El Mehara"},{"postalcode":"32020","name":"Tousmouline"},{"postalcode":"32021","name":"Sidi Slimane"},{"postalcode":"32022","name":"Sidi Tifour"}]},{"name":"Illizi","wilayacode":"33","communes":[{"postalcode":"33001","name":"Illizi"},{"postalcode":"33002","name":"Djanet"},{"postalcode":"33003","name":"Debdeb"},{"postalcode":"33004","name":"Bordj Omar Driss"},{"postalcode":"33005","name":"Bordj El Haouasse"},{"postalcode":"33006","name":"In Amenas"}]},{"name":"Bordj Bou Arreridj","wilayacode":"34","communes":[{"postalcode":"34001","name":"Bordj Bou Arreridj"},{"postalcode":"34002","name":"Ras El Oued"},{"postalcode":"34003","name":"Bordj Zemoura"},{"postalcode":"34004","name":"Mansoura"},{"postalcode":"34005","name":"El Mhir"},{"postalcode":"34006","name":"Ben Daoud"},{"postalcode":"34007","name":"El Achir"},{"postalcode":"34008","name":"Ain Taghrout"},{"postalcode":"34009","name":"Bordj Ghdir"},{"postalcode":"34010","name":"Sidi Embarek"},{"postalcode":"34011","name":"El Hamadia"},{"postalcode":"34012","name":"Belimour"},{"postalcode":"34013","name":"Medjana"},{"postalcode":"34014","name":"Teniet En Nasr"},{"postalcode":"34015","name":"Djaafra"},{"postalcode":"34016","name":"El Main"},{"postalcode":"34017","name":"Ouled Brahem"},{"postalcode":"34018","name":"Ouled Dahmane"},{"postalcode":"34019","name":"Hasnaoua"},{"postalcode":"34020","name":"Khelil"},{"postalcode":"34021","name":"Taglait"},{"postalcode":"34022","name":"Ksour"},{"postalcode":"34023","name":"Ouled Sidi Brahim"},{"postalcode":"34024","name":"Tafreg"},{"postalcode":"34025","name":"Colla"},{"postalcode":"34026","name":"Tixter"},{"postalcode":"34027","name":"El Ach"},{"postalcode":"34028","name":"El Anseur"},{"postalcode":"34029","name":"Tesmart"},{"postalcode":"34030","name":"Ain Tesra"},{"postalcode":"34031","name":"Bir Kasdali"},{"postalcode":"34032","name":"Ghilassa"},{"postalcode":"34033","name":"Rabta"},{"postalcode":"34034","name":"Haraza"}]},{"name":"Boumerdès","wilayacode":"35","communes":[{"postalcode":"35001","name":"Boumerdes"},{"postalcode":"35002","name":"Boudouaou"},{"postalcode":"35004","name":"Afir"},{"postalcode":"35005","name":"Bordj Menaiel"},{"postalcode":"35006","name":"Baghlia"},{"postalcode":"35007","name":"Sidi Daoud"},{"postalcode":"35008","name":"Naciria"},{"postalcode":"35009","name":"Djinet"},{"postalcode":"35010","name":"Isser"},{"postalcode":"35011","name":"Zemmouri"},{"postalcode":"35012","name":"Si Mustapha"},{"postalcode":"35013","name":"Tidjelabine"},{"postalcode":"35014","name":"Chabet El Ameur"},{"postalcode":"35015","name":"Thenia"},{"postalcode":"35018","name":"Timezrit"},{"postalcode":"35019","name":"Corso"},{"postalcode":"35020","name":"Ouled Moussa"},{"postalcode":"35021","name":"Larbatache"},{"postalcode":"35022","name":"Bouzegza Keddara"},{"postalcode":"35025","name":"Taourga"},{"postalcode":"35026","name":"Ouled Aissa"},{"postalcode":"35027","name":"Ben Choud"},{"postalcode":"35028","name":"Dellys"},{"postalcode":"35029","name":"Ammal"},{"postalcode":"35030","name":"Beni Amrane"},{"postalcode":"35031","name":"Souk El Had"},{"postalcode":"35032","name":"Boudouaou El Bahri"},{"postalcode":"35033","name":"Ouled Hedadj"},{"postalcode":"35035","name":"Laghata"},{"postalcode":"35036","name":"Hammedi"},{"postalcode":"35037","name":"Khemis El Khechna"},{"postalcode":"35038","name":"El Kharrouba"}]},{"name":"El Tarf","wilayacode":"36","communes":[{"postalcode":"36001","name":"El Tarf"},{"postalcode":"36002","name":"Bouhadjar"},{"postalcode":"36003","name":"Ben Mhidi"},{"postalcode":"36004","name":"Bougous"},{"postalcode":"36005","name":"El Kala"},{"postalcode":"36006","name":"Ain El Assel"},{"postalcode":"36007","name":"El Aioun"},{"postalcode":"36008","name":"Bouteldja"},{"postalcode":"36009","name":"Souarekh"},{"postalcode":"36010","name":"Berrihane"},{"postalcode":"36011","name":"Lac Des Oiseaux"},{"postalcode":"36012","name":"Chefia"},{"postalcode":"36013","name":"Drean"},{"postalcode":"36014","name":"Chihani"},{"postalcode":"36015","name":"Chebaita Mokhtar"},{"postalcode":"36016","name":"Besbes"},{"postalcode":"36017","name":"Asfour"},{"postalcode":"36018","name":"Echatt"},{"postalcode":"36019","name":"Zerizer"},{"postalcode":"36020","name":"Zitouna"},{"postalcode":"36021","name":"Ain Kerma"},{"postalcode":"36022","name":"Oued Zitoun"},{"postalcode":"36023","name":"Hammam Beni Salah"},{"postalcode":"36024","name":"Raml Souk"}]},{"name":"Tindouf","wilayacode":"37","communes":[{"postalcode":"37001","name":"Tindouf"},{"postalcode":"37002","name":"Oum El Assel"}]},{"name":"Tissemsilt","wilayacode":"38","communes":[{"postalcode":"38001","name":"Tissemsilt"},{"postalcode":"38002","name":"Bordj Bou Naama"},{"postalcode":"38003","name":"Theniet El Had"},{"postalcode":"38004","name":"Lazharia"},{"postalcode":"38005","name":"Beni Chaib"},{"postalcode":"38006","name":"Lardjem"},{"postalcode":"38007","name":"Melaab"},{"postalcode":"38008","name":"Sidi Lantri"},{"postalcode":"38009","name":"Bordj El Emir Abdelkader"},{"postalcode":"38010","name":"Layoune"},{"postalcode":"38011","name":"Khemisti"},{"postalcode":"38012","name":"Ouled Bessem"},{"postalcode":"38013","name":"Ammari"},{"postalcode":"38014","name":"Youssoufia"},{"postalcode":"38015","name":"Sidi Boutouchent"},{"postalcode":"38016","name":"Larbaa"},{"postalcode":"38017","name":"Maasem"},{"postalcode":"38018","name":"Sidi Abed"},{"postalcode":"38019","name":"Tamalaht"},{"postalcode":"38020","name":"Sidi Slimane"},{"postalcode":"38021","name":"Boucaid"},{"postalcode":"38022","name":"Beni Lahcene"}]},{"name":"El Oued","wilayacode":"39","communes":[{"postalcode":"39001","name":"El Oued"},{"postalcode":"39002","name":"Robbah"},{"postalcode":"39003","name":"Oued El Alenda"},{"postalcode":"39004","name":"Bayadha"},{"postalcode":"39005","name":"Nakhla"},{"postalcode":"39006","name":"Guemar"},{"postalcode":"39007","name":"Kouinine"},{"postalcode":"39008","name":"Reguiba"},{"postalcode":"39009","name":"Hamraia"},{"postalcode":"39010","name":"Taghzout"},{"postalcode":"39011","name":"Debila"},{"postalcode":"39012","name":"Hassani Abdelkrim"},{"postalcode":"39013","name":"Hassi Khelifa"},{"postalcode":"39014","name":"Taleb Larbi"},{"postalcode":"39015","name":"Douar El Ma"},{"postalcode":"39016","name":"Sidi Aoun"},{"postalcode":"39017","name":"Trifaoui"},{"postalcode":"39018","name":"Magrane"},{"postalcode":"39019","name":"Beni Guecha"},{"postalcode":"39020","name":"Ourmas"},{"postalcode":"39021","name":"Still"},{"postalcode":"39022","name":"Mrara"},{"postalcode":"39023","name":"Sidi Khellil"},{"postalcode":"39024","name":"Tendla"},{"postalcode":"39025","name":"El Ogla"},{"postalcode":"39026","name":"Mih Ouansa"},{"postalcode":"39027","name":"El Mghair"},{"postalcode":"39028","name":"Djamaa"},{"postalcode":"39029","name":"Oum Touyour"},{"postalcode":"39030","name":"Sidi Amrane"}]},{"name":"Khenchela","wilayacode":"40","communes":[{"postalcode":"40001","name":"Khenchela"},{"postalcode":"40002","name":"Mtoussa"},{"postalcode":"40003","name":"Kais"},{"postalcode":"40004","name":"Baghai"},{"postalcode":"40005","name":"El Hamma"},{"postalcode":"40006","name":"Ain Touila"},{"postalcode":"40007","name":"Taouzianat"},{"postalcode":"40008","name":"Bouhmama"},{"postalcode":"40009","name":"El Oueldja"},{"postalcode":"40010","name":"Remila"},{"postalcode":"40011","name":"Cherchar"},{"postalcode":"40012","name":"Djellal"},{"postalcode":"40013","name":"Babar"},{"postalcode":"40014","name":"Tamza"},{"postalcode":"40015","name":"Ensigha"},{"postalcode":"40016","name":"Ouled Rechache"},{"postalcode":"40017","name":"El Mahmal"},{"postalcode":"40018","name":"Msara"},{"postalcode":"40019","name":"Yabous"},{"postalcode":"40020","name":"Khirane"},{"postalcode":"40021","name":"Chelia"}]},{"name":"Souk Ahras","wilayacode":"41","communes":[{"postalcode":"41001","name":"Souk Ahras"},{"postalcode":"41002","name":"Sedrata"},{"postalcode":"41003","name":"Hanancha"},{"postalcode":"41004","name":"Mechroha"},{"postalcode":"41005","name":"Ouled Driss"},{"postalcode":"41006","name":"Tiffech"},{"postalcode":"41007","name":"Zaarouria"},{"postalcode":"41008","name":"Taoura"},{"postalcode":"41009","name":"Drea"},{"postalcode":"41010","name":"Haddada"},{"postalcode":"41011","name":"Khedara"},{"postalcode":"41012","name":"Merahna"},{"postalcode":"41013","name":"Ouled Moumen"},{"postalcode":"41014","name":"Bir Bouhouche"},{"postalcode":"41015","name":"Mdaourouche"},{"postalcode":"41016","name":"Oum El Adhaim"},{"postalcode":"41017","name":"Ain Zana"},{"postalcode":"41018","name":"Ain Soltane"},{"postalcode":"41019","name":"Quillen"},{"postalcode":"41020","name":"Sidi Fredj"},{"postalcode":"41021","name":"Safel El Ouiden"},{"postalcode":"41022","name":"Ragouba"},{"postalcode":"41023","name":"Khemissa"},{"postalcode":"41024","name":"Oued Keberit"},{"postalcode":"41025","name":"Terraguelt"},{"postalcode":"41026","name":"Zouabi"}]},{"name":"Tipaza","wilayacode":"42","communes":[{"postalcode":"42001","name":"Tipaza"},{"postalcode":"42002","name":"Menaceur"},{"postalcode":"42003","name":"Larhat"},{"postalcode":"42004","name":"Douaouda"},{"postalcode":"42005","name":"Bourkika"},{"postalcode":"42006","name":"Khemisti"},{"postalcode":"42010","name":"Aghabal"},{"postalcode":"42012","name":"Hadjout"},{"postalcode":"42013","name":"Sidi Amar"},{"postalcode":"42014","name":"Gouraya"},{"postalcode":"42015","name":"Nodor"},{"postalcode":"42016","name":"Chaiba"},{"postalcode":"42017","name":"Ain Tagourait"},{"postalcode":"42022","name":"Cherchel"},{"postalcode":"42023","name":"Damous"},{"postalcode":"42024","name":"Meurad"},{"postalcode":"42025","name":"Fouka"},{"postalcode":"42026","name":"Bou Ismail"},{"postalcode":"42027","name":"Ahmer El Ain"},{"postalcode":"42030","name":"Bou Haroun"},{"postalcode":"42032","name":"Sidi Ghiles"},{"postalcode":"42033","name":"Messelmoun"},{"postalcode":"42034","name":"Sidi Rached"},{"postalcode":"42035","name":"Kolea"},{"postalcode":"42036","name":"Attatba"},{"postalcode":"42040","name":"Sidi Semiane"},{"postalcode":"42041","name":"Beni Milleuk"},{"postalcode":"42042","name":"Hadjerat Ennous"}]},{"name":"Mila","wilayacode":"43","communes":[{"postalcode":"43001","name":"Mila"},{"postalcode":"43002","name":"Ferdjioua"},{"postalcode":"43003","name":"Chelghoum Laid"},{"postalcode":"43004","name":"Oued Athmenia"},{"postalcode":"43005","name":"Ain Mellouk"},{"postalcode":"43006","name":"Telerghma"},{"postalcode":"43007","name":"Oued Seguen"},{"postalcode":"43008","name":"Tadjenanet"},{"postalcode":"43009","name":"Benyahia Abderrahmane"},{"postalcode":"43010","name":"Oued Endja"},{"postalcode":"43011","name":"Ahmed Rachedi"},{"postalcode":"43012","name":"Ouled Khalouf"},{"postalcode":"43013","name":"Tiberguent"},{"postalcode":"43014","name":"Bouhatem"},{"postalcode":"43015","name":"Rouached"},{"postalcode":"43016","name":"Tessala Lamatai"},{"postalcode":"43017","name":"Grarem Gouga"},{"postalcode":"43018","name":"Sidi Merouane"},{"postalcode":"43019","name":"Tassadane Haddada"},{"postalcode":"43020","name":"Derradji Bousselah"},{"postalcode":"43021","name":"Minar Zarza"},{"postalcode":"43022","name":"Amira Arras"},{"postalcode":"43023","name":"Terrai Bainen"},{"postalcode":"43024","name":"Hamala"},{"postalcode":"43025","name":"Ain Tine"},{"postalcode":"43026","name":"El Mechira"},{"postalcode":"43027","name":"Sidi Khelifa"},{"postalcode":"43028","name":"Zeghaia"},{"postalcode":"43029","name":"Elayadi Barbes"},{"postalcode":"43030","name":"Ain Beida Harriche"},{"postalcode":"43031","name":"Yahia Beniguecha"},{"postalcode":"43032","name":"Chigara"}]},{"name":"Aïn Defla","wilayacode":"44","communes":[{"postalcode":"44001","name":"Ain Defla"},{"postalcode":"44002","name":"Miliana"},{"postalcode":"44003","name":"Boumedfaa"},{"postalcode":"44004","name":"Khemis Miliana"},{"postalcode":"44005","name":"Hammam Righa"},{"postalcode":"44006","name":"Arib"},{"postalcode":"44007","name":"Djelida"},{"postalcode":"44008","name":"El Amra"},{"postalcode":"44009","name":"Bourached"},{"postalcode":"44010","name":"El Attaf"},{"postalcode":"44011","name":"El Abadia"},{"postalcode":"44012","name":"Djendel"},{"postalcode":"44013","name":"Oued Chorfa"},{"postalcode":"44014","name":"Ain Lechiakh"},{"postalcode":"44015","name":"Oued Djemaa"},{"postalcode":"44016","name":"Rouina"},{"postalcode":"44017","name":"Zeddine"},{"postalcode":"44018","name":"El Hassania"},{"postalcode":"44019","name":"Bir Ouled Khelifa"},{"postalcode":"44020","name":"Ain Soltane"},{"postalcode":"44021","name":"Tarik Ibn Ziad"},{"postalcode":"44022","name":"Bordj Emir Khaled"},{"postalcode":"44023","name":"Ain Torki"},{"postalcode":"44024","name":"Sidi Lakhdar"},{"postalcode":"44025","name":"Ben Allal"},{"postalcode":"44026","name":"Ain Benian"},{"postalcode":"44027","name":"Hoceinia"},{"postalcode":"44028","name":"Barbouche"},{"postalcode":"44029","name":"Djemaa Ouled Chikh"},{"postalcode":"44030","name":"Mekhatria"},{"postalcode":"44031","name":"Bathia"},{"postalcode":"44032","name":"Tachta Zegagha"},{"postalcode":"44033","name":"Ain Bouyahia"},{"postalcode":"44034","name":"El Maine"},{"postalcode":"44035","name":"Tiberkanine"},{"postalcode":"44036","name":"Belaas"}]},{"name":"Naâma","wilayacode":"45","communes":[{"postalcode":"45001","name":"Naama"},{"postalcode":"45002","name":"Mechria"},{"postalcode":"45003","name":"Ain Sefra"},{"postalcode":"45004","name":"Tiout"},{"postalcode":"45005","name":"Sfissifa"},{"postalcode":"45006","name":"Moghrar"},{"postalcode":"45007","name":"Assela"},{"postalcode":"45008","name":"Djeniane Bourzeg"},{"postalcode":"45009","name":"Ain Ben Khelil"},{"postalcode":"45010","name":"Makman Ben Amer"},{"postalcode":"45011","name":"Kasdir"},{"postalcode":"45012","name":"El Biod"}]},{"name":"Aïn Témouchent","wilayacode":"46","communes":[{"postalcode":"46001","name":"Ain Temouchent"},{"postalcode":"46002","name":"Chaabet El Ham"},{"postalcode":"46003","name":"Ain Kihal"},{"postalcode":"46004","name":"Hammam Bouhadjar"},{"postalcode":"46005","name":"Bou Zedjar"},{"postalcode":"46006","name":"Oued Berkeche"},{"postalcode":"46007","name":"Aghlal"},{"postalcode":"46008","name":"Terga"},{"postalcode":"46009","name":"Ain El Arbaa"},{"postalcode":"46010","name":"Tamzoura"},{"postalcode":"46011","name":"Chentouf"},{"postalcode":"46012","name":"Sidi Ben Adda"},{"postalcode":"46013","name":"Aoubellil"},{"postalcode":"46014","name":"El Malah"},{"postalcode":"46015","name":"Sidi Boumediene"},{"postalcode":"46016","name":"Oued Sabah"},{"postalcode":"46017","name":"Ouled Boudjemaa"},{"postalcode":"46018","name":"Ain Tolba"},{"postalcode":"46019","name":"El Amria"},{"postalcode":"46020","name":"Hassi El Ghella"},{"postalcode":"46021","name":"Hassasna"},{"postalcode":"46022","name":"Ouled Kihal"},{"postalcode":"46023","name":"Beni Saf"},{"postalcode":"46024","name":"Sidi Safi"},{"postalcode":"46025","name":"Oulhaca El Gheraba"},{"postalcode":"46026","name":"Tadmaya"},{"postalcode":"46027","name":"El Emir Abdelkader"},{"postalcode":"46028","name":"El Messaid"}]},{"name":"Ghardaïa","wilayacode":"47","communes":[{"postalcode":"47001","name":"Ghardaia"},{"postalcode":"47002","name":"El Meniaa"},{"postalcode":"47003","name":"Dhayet Bendhahoua"},{"postalcode":"47004","name":"Berriane"},{"postalcode":"47005","name":"Metlili"},{"postalcode":"47006","name":"El Guerrara"},{"postalcode":"47007","name":"El Atteuf"},{"postalcode":"47008","name":"Zelfana"},{"postalcode":"47009","name":"Sebseb"},{"postalcode":"47010","name":"Bounoura"},{"postalcode":"47011","name":"Hassi Fehal"},{"postalcode":"47012","name":"Hassi Gara"},{"postalcode":"47013","name":"Mansoura"}]},{"name":"Relizane","wilayacode":"48","communes":[{"postalcode":"48001","name":"Relizane"},{"postalcode":"48002","name":"Oued Rhiou"},{"postalcode":"48003","name":"Belaassel Bouzegza"},{"postalcode":"48004","name":"Sidi Saada"},{"postalcode":"48005","name":"Ouled Aiche"},{"postalcode":"48006","name":"Sidi Lazreg"},{"postalcode":"48007","name":"El Hamadna"},{"postalcode":"48008","name":"Sidi Mhamed Ben Ali"},{"postalcode":"48009","name":"Mediouna"},{"postalcode":"48010","name":"Sidi Khettab"},{"postalcode":"48011","name":"Ammi Moussa"},{"postalcode":"48012","name":"Zemmoura"},{"postalcode":"48013","name":"Beni Dergoun"},{"postalcode":"48014","name":"Djidiouia"},{"postalcode":"48015","name":"El Guettar"},{"postalcode":"48016","name":"Hamri"},{"postalcode":"48017","name":"El Matmar"},{"postalcode":"48018","name":"Sidi Mhamed Ben Aouda"},{"postalcode":"48019","name":"Ain Tarek"},{"postalcode":"48020","name":"Oued Essalem"},{"postalcode":"48021","name":"Ouarizane"},{"postalcode":"48022","name":"Mazouna"},{"postalcode":"48023","name":"Kalaa"},{"postalcode":"48024","name":"Ain Rahma"},{"postalcode":"48025","name":"Yellel"},{"postalcode":"48026","name":"Oued El Djemaa"},{"postalcode":"48027","name":"Ramka"},{"postalcode":"48028","name":"Mendes"},{"postalcode":"48029","name":"Lahlef"},{"postalcode":"48030","name":"Beni Zentis"},{"postalcode":"48031","name":"Souk El Haad"},{"postalcode":"48032","name":"Dar Ben Abdellah"},{"postalcode":"48033","name":"El Hassi"},{"postalcode":"48034","name":"Had Echkalla"},{"postalcode":"48035","name":"Bendaoud"},{"postalcode":"48036","name":"El Ouldja"},{"postalcode":"48037","name":"Merdja Sidi Abed"},{"postalcode":"48038","name":"Ouled Sidi Mihoub"}]}]